{"type":"Feature","properties":{"name":"Fen to Fen","date":"2025-03-10","distance":"8.11 km","ascent":"218 m"},"geometry":{"type":"LineString","coordinates":[[5.621553948149085,51.765833934769034],[5.621522767469287,51.76586017012596],[5.6215237732976675,51.76585279405117],[5.6215220130980015,51.76583921536803],[5.62151019461453,51.76583368331194],[5.621486473828554,51.765824211761355],[5.621470380574465,51.76584114320576],[5.621460657566786,51.765870144590735],[5.621435847133398,51.765905767679214],[5.621414305642247,51.76597642712295],[5.621397290378809,51.765990341082215],[5.621377173811197,51.765987910330296],[5.621360242366791,51.76602462306619],[5.6213276367634535,51.76604725420475],[5.6213517766445875,51.7660309933126],[5.621352531015873,51.76602780818939],[5.621351273730397,51.76602588035166],[5.621345825493336,51.76603392697871],[5.6213288102298975,51.766044571995735],[5.62127566896379,51.76604180596769],[5.621198387816548,51.766027892008424],[5.621194783598185,51.7660222761333],[5.62113787047565,51.76599302329123],[5.621036449447274,51.76597265526652],[5.62099470756948,51.76595195196569],[5.620984314009547,51.76595228724182],[5.620936453342438,51.76592496223748],[5.620903428643942,51.765916580334306],[5.620863363146782,51.76592102274299],[5.620807120576501,51.76590761169791],[5.620809970423579,51.76590853370726],[5.620747273787856,51.76590082235634],[5.6206985749304295,51.765882801264524],[5.620675357058644,51.76587819121778],[5.620576785877347,51.76586335524917],[5.620571672916412,51.76583016291261],[5.6205730978399515,51.76582672633231],[5.620563710108399,51.765825720503926],[5.620536468923092,51.76581331528723],[5.620486596599221,51.76579839549959],[5.620470754802227,51.76578355953097],[5.620444435626268,51.765751456841826],[5.620440747588873,51.76575698889792],[5.620436053723097,51.76578473299742],[5.620414428412914,51.76578624173999],[5.620408309623599,51.76579403690994],[5.620447788387537,51.76584558561444],[5.620482489466667,51.7658425681293],[5.62052121385932,51.765815829858184],[5.6206172704696655,51.765750367194414],[5.620649121701717,51.7657302506268],[5.620640153065324,51.76573988981545],[5.620634704828262,51.76574391312897],[5.620623892173171,51.765748942270875],[5.6205907836556435,51.765728909522295],[5.620587430894375,51.765736201778054],[5.620564045384526,51.76576537080109],[5.620489111170173,51.765801748260856],[5.620450805872679,51.76581549458206],[5.62040202319622,51.76581038162112],[5.620297584682703,51.765799736604095],[5.620238073170185,51.765774339437485],[5.6201752088963985,51.76574223674834],[5.6201578583568335,51.76569923758507],[5.620123157277703,51.76567652262747],[5.620089378207922,51.765669733285904],[5.6200100015848875,51.76565648987889],[5.619912184774876,51.76562178879976],[5.619818978011608,51.76559773273766],[5.619756197556853,51.76556286402047],[5.619639353826642,51.765526570379734],[5.619621751829982,51.76552883349359],[5.61958646401763,51.76551156677306],[5.619507841765881,51.765487594529986],[5.619435925036669,51.76545557565987],[5.619372557848692,51.76543646492064],[5.619263257831335,51.76538726314902],[5.619247918948531,51.76537779159844],[5.619205255061388,51.765343425795436],[5.619192766025662,51.765340995043516],[5.619115820154548,51.765315849334],[5.619036108255386,51.76528936251998],[5.6189824640750885,51.76526882685721],[5.618858244270086,51.76523219794035],[5.618784232065082,51.765199257060885],[5.6187518779188395,51.765190958976746],[5.6187504529953,51.76519104279578],[5.618701670318842,51.76518769003451],[5.618705945089459,51.76519548520446],[5.61868448741734,51.76518861204386],[5.6186022609472275,51.76515642553568],[5.618547275662422,51.76512876525521],[5.6185368821024895,51.765127340331674],[5.618482818827033,51.76510462537408],[5.618451554328203,51.76508953794837],[5.6183793023228645,51.76506673917174],[5.618350468575954,51.76505919545889],[5.61832875944674,51.76505248993635],[5.618295064195991,51.76504318602383],[5.618279054760933,51.76504226401448],[5.618246030062437,51.76503145135939],[5.618177885189652,51.765005299821496],[5.618060790002346,51.76497453823686],[5.61803949996829,51.76496825180948],[5.617966577410698,51.764935897663236],[5.6178889609873295,51.76488904282451],[5.617832383140922,51.764862136915326],[5.617818301543593,51.76485585048795],[5.617725849151611,51.76481997594237],[5.617664325982332,51.76479139365256],[5.617587296292186,51.76478577777743],[5.617436757311225,51.764757949858904],[5.617403481155634,51.76471947692335],[5.617344137281179,51.76467957906425],[5.617233999073505,51.764636831358075],[5.617153532803059,51.76462392322719],[5.617036605253816,51.76460380665958],[5.616965191438794,51.76457455381751],[5.616953456774354,51.764569859951735],[5.616881120949984,51.764551838859916],[5.616829991340637,51.764532811939716],[5.616781711578369,51.76452065818012],[5.6167714856565,51.76451940089464],[5.6167088728398085,51.76450523547828],[5.616680374369025,51.76451403647661],[5.616711974143982,51.76449676975608],[5.6167196854949,51.764495093375444],[5.616731671616435,51.764492662623525],[5.616714656352997,51.76449668593705],[5.616707364097238,51.76449526101351],[5.616713985800743,51.764476485550404],[5.616714237257838,51.76447447389364],[5.616719014942646,51.76448159851134],[5.616750782355666,51.764477994292974],[5.6167863216251135,51.76443440839648],[5.616865949705243,51.764411106705666],[5.616939961910248,51.76439853385091],[5.617017829790711,51.76437967456877],[5.617092931643128,51.764353858307004],[5.6171237770468,51.76432712003589],[5.617177169770002,51.76428127102554],[5.6171647645533085,51.76428688690066],[5.617155460640788,51.764290407299995],[5.6171733140945435,51.76425486803055],[5.617205584421754,51.76423450000584],[5.6172404531389475,51.76422016695142],[5.617309855297208,51.7641796823591],[5.617385879158974,51.76415227353573],[5.6174645852297544,51.764140371233225],[5.61753373593092,51.76409896463156],[5.617557456716895,51.76408194936812],[5.617629289627075,51.76405646838248],[5.617711180821061,51.764010870829225],[5.6177060678601265,51.76401749253273],[5.617691986262798,51.76402319222689],[5.617672707885504,51.76402444951236],[5.617678239941597,51.764028975740075],[5.617716126143932,51.76404423080385],[5.61780153773725,51.76404984667897],[5.617846716195345,51.76405227743089],[5.617863144725561,51.76405085250735],[5.6179148610681295,51.764022102579474],[5.61794662848115,51.76399176008999],[5.6179687567055225,51.76399142481387],[5.617981161922216,51.76398882642388],[5.618045954033732,51.76399880088866],[5.618071183562279,51.76401657052338],[5.618098257109523,51.76402486860752],[5.618143351748586,51.7640345916152],[5.618182411417365,51.76404825411737],[5.618216609582305,51.76409577950835],[5.618220549076796,51.76411019638181],[5.618246532976627,51.76414791494608],[5.618346864357591,51.764203906059265],[5.6184273306280375,51.7642367631197],[5.618531433865428,51.76427062600851],[5.618624892085791,51.764297196641564],[5.618661269545555,51.76427339203656],[5.6187421549111605,51.76420013420284],[5.618789177387953,51.76415738649666],[5.618795966729522,51.76415294408798],[5.6188081204891205,51.76414992660284],[5.618836702778935,51.76415738649666],[5.618934603407979,51.76415872760117],[5.618940889835358,51.764155458658934],[5.618975842371583,51.764152608811855],[5.618961090222001,51.7641553748399],[5.6189250480383635,51.76416032016277],[5.618915408849716,51.76416467875242],[5.618936195969582,51.76416786387563],[5.6190345995128155,51.76416057161987],[5.619057901203632,51.76416400820017],[5.619093105196953,51.764178425073624],[5.6190884951502085,51.76418052054942],[5.619108779355884,51.76416325382888],[5.619145659729838,51.76417138427496],[5.619207518175244,51.764167780056596],[5.619194777682424,51.76414221525192],[5.61919167637825,51.764124780893326],[5.6191653572022915,51.764100138098],[5.619157897308469,51.76406862214208],[5.619142223149538,51.76402235403657],[5.6191332545131445,51.76401707343757],[5.619124202057719,51.763966362923384],[5.619121519848704,51.763941468670964],[5.619112383574247,51.763925375416875],[5.619112802669406,51.76392470486462],[5.6191200111061335,51.76392403431237],[5.61907927505672,51.76390576176345],[5.619057398289442,51.76390014588833],[5.619005598127842,51.76389436237514],[5.61896787956357,51.76388933323324],[5.618953630328178,51.76389545202255],[5.618849862366915,51.76392772234976],[5.618722205981612,51.76394758746028],[5.618696892634034,51.76396460272372],[5.618682978674769,51.763984048739076],[5.618666801601648,51.76398606039584],[5.618614414706826,51.76399603486061],[5.618544593453407,51.764014810323715],[5.618493966758251,51.764028053730726],[5.618412662297487,51.7640311550349],[5.618336470797658,51.76401204429567],[5.618253741413355,51.7639862280339],[5.618189200758934,51.76397734321654],[5.618170090019703,51.76396485418081],[5.6181716825813055,51.763959154486656],[5.618176711723208,51.76395110785961],[5.618164222687483,51.76393526606262],[5.618112590163946,51.76391690969467],[5.618099262937903,51.76392453722656],[5.61809130012989,51.76393694244325],[5.6180444452911615,51.763952784240246],[5.6179973389953375,51.76394876092672],[5.618047378957272,51.763946330174804],[5.618161708116531,51.763906767591834],[5.618211328983307,51.76388405263424],[5.618228847160935,51.7638704739511],[5.618347451090813,51.763812974095345],[5.618391539901495,51.76379285752773],[5.61840595677495,51.76379419863224],[5.6184061244130135,51.76379369571805],[5.618509640917182,51.76375899463892],[5.618571080267429,51.763731921091676],[5.618616845458746,51.76371457055211],[5.618707286193967,51.763683557510376],[5.618813652545214,51.763661513105035],[5.618859501555562,51.763653215020895],[5.618966454640031,51.763642905279994],[5.619015824049711,51.76363284699619],[5.619036611169577,51.7636286560446],[5.619068965315819,51.76362672820687],[5.619132416322827,51.763626812025905],[5.61919997446239,51.76360862329602],[5.619324864819646,51.76356486976147],[5.619420753791928,51.763531928882],[5.619474733248353,51.76350653171539],[5.619539022445679,51.763460682705045],[5.619594007730484,51.763438219204545],[5.619669444859028,51.76340905018151],[5.619680341333151,51.763399159535766],[5.61972426250577,51.76336797885597],[5.619801627472043,51.763322381302714],[5.619807913899422,51.763299917802215],[5.619774889200926,51.763270078226924],[5.619670702144504,51.76323814317584],[5.619577830657363,51.763237388804555],[5.619475655257702,51.76322741433978],[5.619438523426652,51.76323118619621],[5.619370546191931,51.76323663443327],[5.619251104071736,51.763229509815574],[5.619180193170905,51.76321894861758],[5.619061924517155,51.763204699382186],[5.618998892605305,51.76320687867701],[5.618885066360235,51.76319765858352],[5.618805522099137,51.76319791004062],[5.61868934892118,51.76318014040589],[5.61863218434155,51.76317066885531],[5.618539396673441,51.76316714845598],[5.618454068899155,51.76315834745765],[5.618446609005332,51.76315465942025],[5.618437808007002,51.763153821229935],[5.618503941223025,51.76315616816282],[5.618506204336882,51.763155246153474],[5.618476029485464,51.76316304132342],[5.618474185466766,51.763160610571504],[5.618469156324863,51.76314434967935],[5.6183728482574224,51.763141583651304],[5.618309313431382,51.76312959752977],[5.618303194642067,51.76313320174813],[5.618286179378629,51.76313261501491],[5.61821149662137,51.76313797943294],[5.618149554356933,51.763152396306396],[5.618037320673466,51.763156251981854],[5.61795593239367,51.76315859891474],[5.617879657074809,51.763141583651304],[5.617823665961623,51.76312884315848],[5.617848644033074,51.76312607713044],[5.617846632376313,51.76313320174813],[5.617806566879153,51.76311945542693],[5.617755856364965,51.7631056252867],[5.617702128365636,51.76307838410139],[5.617697266861796,51.763076120987535],[5.617654602974653,51.763059021905065],[5.6176274456083775,51.76305491477251],[5.617603389546275,51.76304577849805],[5.617580255493522,51.763043431565166],[5.617560055106878,51.7630398273468],[5.617550583556294,51.763038486242294],[5.617544883862138,51.76302834413946],[5.617531975731254,51.76301719620824],[5.617530718445778,51.76301426254213],[5.617496017366648,51.7629917152226],[5.617494257166982,51.76299054175615],[5.61745653860271,51.76297537051141],[5.61745410785079,51.76297528669238],[5.617421502247453,51.76295651122928],[5.61741404235363,51.76295466721058],[5.6173729710280895,51.76294796168804],[5.61735050752759,51.762953493744135],[5.617335503920913,51.76295232027769],[5.617297450080514,51.76297134719789],[5.617235507816076,51.7629605345428],[5.617205081507564,51.76294142380357],[5.617197034880519,51.7629327904433],[5.617196196690202,51.76295047625899],[5.617201309651136,51.76295097917318],[5.617216816172004,51.762952990829945],[5.617227964103222,51.76295223645866],[5.617252271622419,51.762955924496055],[5.617265850305557,51.762956427410245],[5.6172628328204155,51.7629380710423],[5.6172567140311,51.76293170079589],[5.617237016558647,51.762929353863],[5.617233412340283,51.76292650401592],[5.617222348228097,51.76292507909238],[5.617195442318916,51.76293941214681],[5.617193430662155,51.762940334156156],[5.61719560995698,51.762945698574185],[5.617203572764993,51.762956008315086],[5.6172168999910355,51.76295944489539],[5.617225114256144,51.76296103745699],[5.617254786193371,51.762944692745805],[5.617263922467828,51.7629396636039],[5.617294181138277,51.762923151254654],[5.6172887329012156,51.762919714674354],[5.617280853912234,51.762927090749145],[5.617263084277511,51.76293019205332],[5.617254702374339,51.76292943768203],[5.6172422133386135,51.76292843185365],[5.617237100377679,51.76292574964464],[5.617237100377679,51.76292574964464],[5.617237100377679,51.76292574964464],[5.617237100377679,51.76292574964464],[5.617237100377679,51.76292574964464],[5.617237100377679,51.76292574964464],[5.617237100377679,51.76292574964464],[5.617237100377679,51.76292574964464],[5.617237100377679,51.76292574964464],[5.617237100377679,51.76292574964464],[5.617223856970668,51.762935975566506],[5.617225533351302,51.762939831241965],[5.6172272097319365,51.76294117234647],[5.617228047922254,51.762940334156156],[5.617261240258813,51.762949051335454],[5.617287140339613,51.76294553093612],[5.617305664345622,51.762944692745805],[5.617309520021081,51.762941339984536],[5.617315135896206,51.762937903404236],[5.617315471172333,51.7629380710423],[5.617310609668493,51.762942681089044],[5.617312956601381,51.7629483807832],[5.6173105258494616,51.762948548421264],[5.617309520021081,51.76296631805599],[5.61729334294796,51.76294192671776],[5.617293091490865,51.76294209435582],[5.617276579141617,51.76293388009071],[5.617271801456809,51.762934383004904],[5.617253361269832,51.76293907687068],[5.617253025993705,51.76293916068971],[5.617234585806727,51.76294947043061],[5.617225868627429,51.76295776851475],[5.617233915254474,51.762957852333784],[5.61725378036499,51.76294930279255],[5.617286050692201,51.762937316671014],[5.617286050692201,51.762937316671014],[5.617286050692201,51.762937316671014],[5.617286050692201,51.762937316671014],[5.617286050692201,51.762937316671014],[5.617286050692201,51.762937316671014],[5.617286050692201,51.762937316671014],[5.617286050692201,51.762937316671014],[5.617286050692201,51.762937316671014],[5.617286050692201,51.762937316671014],[5.617286050692201,51.762937316671014],[5.617286050692201,51.762937316671014],[5.617286050692201,51.762937316671014],[5.617286050692201,51.762937316671014],[5.617286050692201,51.762937316671014],[5.617286050692201,51.762937316671014],[5.617286050692201,51.762937316671014],[5.617286050692201,51.762937316671014],[5.6173052452504635,51.76292994059622],[5.617304909974337,51.762929102405906],[5.617287894710898,51.76291468553245],[5.617287894710898,51.76291468553245],[5.617281859740615,51.762910075485706],[5.617281859740615,51.76291066221893],[5.617287894710898,51.76291468553245],[5.61725864186883,51.76292876712978],[5.617245817556977,51.762932455167174],[5.617230478674173,51.76293773576617],[5.617231233045459,51.76293798722327],[5.617245817556977,51.762932455167174],[5.6172495894134045,51.762948129326105],[5.6172495894134045,51.762948129326105],[5.6172495894134045,51.762948129326105],[5.6172495894134045,51.762948129326105],[5.6172495894134045,51.762948129326105],[5.617259396240115,51.76293849013746],[5.617259228602052,51.76293815486133],[5.6172713823616505,51.762930527329445],[5.617258222773671,51.76293186843395],[5.617263838648796,51.76293765194714],[5.617273226380348,51.76293270662427],[5.617305161431432,51.76293874159455],[5.617271801456809,51.76293505355716],[5.6172542832791805,51.76294745877385],[5.617244895547628,51.76295273937285],[5.617245901376009,51.762946620583534],[5.617265682667494,51.762931952252984],[5.617278255522251,51.76292826421559],[5.617302060127258,51.76291569136083],[5.617315974086523,51.76291451789439],[5.61731681227684,51.76291812211275],[5.617297617718577,51.76293211989105],[5.6172937620431185,51.762934466823936],[5.617266185581684,51.762951565906405],[5.617260737344623,51.76295081153512],[5.61724254861474,51.76295676268637],[5.617241207510233,51.76295567303896],[5.617234669625759,51.762945698574185],[5.61723911203444,51.762943686917424],[5.6172719690948725,51.76292683929205],[5.617291247472167,51.76292633637786],[5.617301138117909,51.762931449338794],[5.617304155603051,51.76292767748237],[5.617299964651465,51.76293354481459],[5.617290660738945,51.76293957978487],[5.617289822548628,51.762943267822266],[5.617273394018412,51.76294628530741],[5.617248583585024,51.76295483484864],[5.617239447310567,51.76295408047736],[5.6172266229987144,51.76294284872711],[5.617235088720918,51.76294117234647],[5.6172422133386135,51.76293857395649],[5.617263335734606,51.762925665825605],[5.6172749027609825,51.762918289750814],[5.61727674677968,51.76291694864631],[5.617296947166324,51.76291862502694],[5.617275908589363,51.76291820593178],[5.617274232208729,51.762916781008244],[5.617266101762652,51.76292382180691],[5.617235507816076,51.76293874159455],[5.617202818393707,51.76296195946634],[5.6172277964651585,51.76298492588103],[5.617350256070495,51.762984339147806],[5.617413958534598,51.76297964528203],[5.6174286268651485,51.76298014819622],[5.6174583826214075,51.76298065111041],[5.61746533960104,51.76298174075782],[5.617509176954627,51.76300344988704],[5.6175128649920225,51.76302205771208],[5.617518732324243,51.76302163861692],[5.617534574121237,51.76302809268236],[5.617540692910552,51.763039492070675],[5.617578998208046,51.7630435153842],[5.6176050659269094,51.763046868145466],[5.617640353739262,51.763059021905065],[5.617650495842099,51.76306262612343],[5.617647478356957,51.763064470142126],[5.617615291848779,51.76304996944964],[5.617607748135924,51.763060530647635],[5.61760263517499,51.763075198978186],[5.617616297677159,51.76307578571141],[5.617681005969644,51.763066817075014],[5.61773749999702,51.76308777183294],[5.617740098387003,51.76309741102159],[5.617736158892512,51.76309942267835],[5.617733309045434,51.76310679875314],[5.617743115872145,51.76310914568603],[5.61773263849318,51.76311358809471],[5.617733057588339,51.76311316899955],[5.617722412571311,51.763117695227265],[5.6177152041345835,51.76311895251274],[5.6177732069045305,51.76318290643394],[5.617768093943596,51.763186510652304],[5.617750911042094,51.763183576986194],[5.617754012346268,51.76318206824362],[5.617778152227402,51.7631849180907],[5.617791563272476,51.76318768411875],[5.617786785587668,51.76317377015948],[5.617867922410369,51.763178715482354],[5.617883931845427,51.76318584010005],[5.617906814441085,51.76319757476449],[5.617880495265126,51.763185085728765],[5.617888541892171,51.76318449899554],[5.617916202172637,51.76321215927601],[5.617922320961952,51.7632351256907],[5.617941934615374,51.76324049010873],[5.61794713139534,51.76323906518519],[5.617941934615374,51.763239316642284],[5.6179617159068584,51.763238394632936],[5.6179846823215485,51.76324065774679],[5.618069088086486,51.763228001073],[5.618188949301839,51.76318726502359],[5.618273606523871,51.76319849677384],[5.6182709243148565,51.76319816149771],[5.61825692653656,51.76319573074579],[5.618254914879799,51.76319329999387],[5.618244018405676,51.763185169547796],[5.618244269862771,51.76318575628102],[5.618224823847413,51.76317008212209],[5.618186350911856,51.76316102966666],[5.618124241009355,51.7631503008306],[5.618029944598675,51.763143092393875],[5.617960877716541,51.7631365545094],[5.617888458073139,51.76313605159521],[5.617813104763627,51.76312708295882],[5.617771111428738,51.76311358809471],[5.61776046641171,51.76311048679054],[5.617734733968973,51.76309674046934],[5.61773263849318,51.7630950640887],[5.617732051759958,51.7630953155458],[5.6177091691643,51.763071762397885],[5.617697183042765,51.76306170411408],[5.61770087108016,51.763059524819255],[5.617679916322231,51.76304644905031],[5.617655022069812,51.763046784326434],[5.617627110332251,51.763037480413914],[5.61760070733726,51.76303178071976],[5.61758260242641,51.76301962696016],[5.6175340712070465,51.76300118677318],[5.617519989609718,51.76298811100423],[5.617514457553625,51.76297914236784],[5.617497693747282,51.76295391283929],[5.617498867213726,51.7629467882216],[5.617516217753291,51.762953074648976],[5.617522839456797,51.762947626411915],[5.61752057634294,51.76297729834914],[5.617508422583342,51.763005713000894],[5.617498783394694,51.763026835396886],[5.617498951032758,51.763031613081694],[5.617517558857799,51.763049801811576],[5.617515966296196,51.76304602995515],[5.617539687082171,51.76303152926266],[5.617590984329581,51.76300814375281],[5.617659296840429,51.76298517733812],[5.617696428671479,51.76296539604664],[5.617704978212714,51.7629536613822],[5.6177181378006935,51.76293957978487],[5.617713695392013,51.76291116513312],[5.617708163335919,51.76290479488671],[5.61768569983542,51.762902196496725],[5.617658123373985,51.76290823146701],[5.617735655978322,51.762895407155156],[5.6178229954093695,51.762902699410915],[5.617882590740919,51.762906052172184],[5.617893990129232,51.7628965806216],[5.617960458621383,51.762882163748145],[5.618033045902848,51.76286095753312],[5.618102448061109,51.76284092478454],[5.618142345920205,51.762831872329116],[5.618166821077466,51.762833297252655],[5.618241168558598,51.76283581182361],[5.618274444714189,51.762828938663006],[5.618320629000664,51.76281116902828],[5.618342086672783,51.76280756480992],[5.618401430547237,51.76280572079122],[5.618469575420022,51.762802451848984],[5.6185489520430565,51.762770684435964],[5.618557585403323,51.76276355981827],[5.618563620373607,51.762751154601574],[5.618605613708496,51.762719471007586],[5.618622796609998,51.76269977353513],[5.618630340322852,51.762691643089056],[5.618658000603318,51.762655433267355],[5.618666298687458,51.76264202222228],[5.618687253445387,51.76261235028505],[5.6186906062066555,51.76259600557387],[5.6187026761472225,51.762549402192235],[5.618702927604318,51.762542109936476],[5.618717093020678,51.762534314766526],[5.61872405000031,51.76252325065434],[5.618730504065752,51.762489723041654],[5.618703179061413,51.762473126873374],[5.618691360577941,51.76246013492346],[5.618677195161581,51.762456614524126],[5.618675770238042,51.762455608695745],[5.618655318394303,51.7624338157475],[5.618620617315173,51.762394504621625],[5.618592370301485,51.76237044855952],[5.6185863353312016,51.76234329119325],[5.618564039468765,51.76229551434517],[5.6185645423829556,51.76228470169008],[5.6185362953692675,51.76225293427706],[5.618535792455077,51.762248910963535],[5.6185174360871315,51.76224119961262],[5.618536546826363,51.762233236804605],[5.6185689847916365,51.76223591901362],[5.618585078045726,51.76219291985035],[5.6185798812657595,51.762182861566544],[5.618566302582622,51.76216458901763],[5.618571080267429,51.76216551102698],[5.618547610938549,51.76214447245002],[5.618533445522189,51.76207523792982],[5.618528500199318,51.76204254850745],[5.61852665618062,51.76200927235186],[5.618531685322523,51.76197021268308],[5.618521124124527,51.761924028396606],[5.618505701422691,51.76189242862165],[5.618496648967266,51.76185730844736],[5.6184606067836285,51.76180559210479],[5.618425738066435,51.76177332177758],[5.618391456082463,51.76176443696022],[5.618361448869109,51.761753875762224],[5.618293723091483,51.761727053672075],[5.6182818207889795,51.761717246845365],[5.618281401693821,51.76170903258026],[5.618276204913855,51.76170484162867],[5.618254411965609,51.76165413111448],[5.618229350075126,51.761623788625],[5.618220968171954,51.76161440089345],[5.618206551298499,51.761590680107474],[5.6182020250707865,51.76158715970814],[5.618190038949251,51.76156989298761],[5.618191966786981,51.76151465624571],[5.618175370618701,51.7614596709609],[5.61817386187613,51.76141759380698],[5.618166066706181,51.7613597586751],[5.618132287636399,51.76133159548044],[5.618124241009355,51.76129957661033],[5.618089288473129,51.76124199293554],[5.618084091693163,51.7612041067332],[5.618086019530892,51.761180721223354],[5.618080487474799,51.76116487942636],[5.618046289309859,51.76113897934556],[5.618025753647089,51.76111207343638],[5.618009157478809,51.76108458079398],[5.617968337610364,51.76102766767144],[5.617948807775974,51.76096949726343],[5.617943946272135,51.76093412563205],[5.6179366540163755,51.76087846979499],[5.617933804169297,51.76083739846945],[5.617931038141251,51.76078853197396],[5.617899773642421,51.760750813409686],[5.617840513586998,51.76072985865176],[5.617835987359285,51.7607138492167],[5.617820061743259,51.760688284412026],[5.617811344563961,51.760634975507855],[5.617812937125564,51.76062801852822],[5.617800699546933,51.7606187146157],[5.6178006157279015,51.76062148064375],[5.617780918255448,51.760613434016705],[5.617771781980991,51.76062013953924],[5.617725849151611,51.760592479258776],[5.617699697613716,51.76059859804809],[5.617680251598358,51.76060136407614],[5.617666924372315,51.76059407182038],[5.6176607217639685,51.76058392971754],[5.6176224164664745,51.76059608347714],[5.61758603900671,51.76059507764876],[5.6175735499709845,51.760592982172966],[5.617547482252121,51.76059725694358],[5.617523677647114,51.760598849505186],[5.617465255782008,51.76061569713056],[5.617444971576333,51.76062726415694],[5.617438852787018,51.7606377415359],[5.617443630471826,51.76064151339233],[5.617454694584012,51.7606345564127],[5.617459136992693,51.76063363440335],[5.617458634078503,51.76063422113657],[5.617466596886516,51.76063128747046],[5.617466848343611,51.76062885671854],[5.617458298802376,51.76060086116195],[5.617416137829423,51.760594407096505],[5.617397530004382,51.760598262771964],[5.617375737056136,51.760592982172966],[5.617326367646456,51.76057127304375],[5.61732804402709,51.760566579177976],[5.617302479222417,51.76056238822639],[5.617252942174673,51.7605566047132],[5.617259396240115,51.7605531681329],[5.617246823385358,51.760550485923886],[5.6172210071235895,51.76054051145911],[5.617184126749635,51.760527435690165],[5.617168787866831,51.76052609458566],[5.617172811180353,51.760516203939915],[5.617176666855812,51.76048653200269],[5.617187395691872,51.76045778207481],[5.617181360721588,51.760420482605696],[5.617168787866831,51.76041712984443],[5.617124531418085,51.76037136465311],[5.6171188317239285,51.76036239601672],[5.617123190313578,51.76034697331488],[5.617107516154647,51.760329538956285],[5.6170993857085705,51.76031989976764],[5.6170599069446325,51.760277738794684],[5.617045825347304,51.76027279347181],[5.61702118255198,51.760276313871145],[5.6170048378407955,51.76028134301305],[5.616991259157658,51.760279247537255],[5.616976171731949,51.76027346402407],[5.61695178039372,51.760275391861796],[5.616950020194054,51.76027799025178],[5.61693568713963,51.76026835106313],[5.616926047950983,51.76026399247348],[5.616916408762336,51.76025502383709],[5.616919510066509,51.760238930583],[5.616931999102235,51.760250413790345],[5.6169347651302814,51.760246474295855],[5.616959910839796,51.76026172935963],[5.616965442895889,51.76026047207415],[5.616956977173686,51.760257286950946],[5.6169527862221,51.760254772379994],[5.61696058139205,51.76026734523475],[5.616953456774354,51.76027446985245],[5.616955803707242,51.76028000190854],[5.616956390440464,51.76029609516263],[5.616980865597725,51.76030682399869],[5.616987822577357,51.76031009294093],[5.6169859785586596,51.76030389033258],[5.616969466209412,51.76027212291956],[5.616962341591716,51.760267512872815],[5.616961754858494,51.760269021615386],[5.61696938239038,51.76024639047682],[5.617008525878191,51.76026742905378],[5.616966281086206,51.76026181317866],[5.616930657997727,51.76026432774961],[5.616944655776024,51.76027270965278],[5.616958234459162,51.7602976039052],[5.616885144263506,51.76026281900704],[5.616858992725611,51.76024689339101],[5.616854466497898,51.760219568386674],[5.616856813430786,51.760212779045105],[5.616855137050152,51.760189393535256],[5.616853628307581,51.760195679962635],[5.616863938048482,51.76021881401539],[5.6168879102915525,51.76024823449552],[5.6169268023222685,51.76026684232056],[5.616941386833787,51.76027664914727],[5.616904087364674,51.76025904715061],[5.616852706298232,51.760245049372315],[5.616849772632122,51.76024823449552],[5.616807192564011,51.76025745458901],[5.616733515635133,51.76027128472924],[5.616709375753999,51.76026726141572],[5.61666838824749,51.76026592031121],[5.616591274738312,51.76026868633926],[5.616534277796745,51.76027053035796],[5.616456577554345,51.76026625558734],[5.616382816806436,51.76025594584644],[5.616335291415453,51.760256700217724],[5.616289945319295,51.76025418564677],[5.616213753819466,51.76028419286013],[5.616152565926313,51.7603390943259],[5.6161504704505205,51.76039290614426],[5.616153152659535,51.76039768382907],[5.616161534562707,51.76039927639067],[5.616159858182073,51.7603874579072],[5.616082325577736,51.76038603298366],[5.616031028330326,51.76039030775428],[5.6159519869834185,51.76040539517999],[5.615908904001117,51.760411597788334],[5.615819972008467,51.760408245027065],[5.615802453830838,51.760409753769636],[5.615773620083928,51.76041369326413],[5.615715701133013,51.760420398786664],[5.615662224590778,51.76042769104242],[5.615663900971413,51.76042073406279],[5.61564814299345,51.76041981205344],[5.615581506863236,51.76040397025645],[5.615504225715995,51.76038837991655],[5.615471117198467,51.76037907600403],[5.6154556106776,51.76037337630987],[5.615417053923011,51.76035166718066],[5.615412695333362,51.760345632210374],[5.615388723090291,51.760325180366635],[5.61537547968328,51.76032383926213],[5.61537841334939,51.76032987423241],[5.615382939577103,51.76032979041338],[5.6153832748532295,51.760331466794014],[5.615383693948388,51.76032970659435],[5.615386124700308,51.76033180207014],[5.615373300388455,51.760322246700525],[5.615353854373097,51.760315876454115],[5.615346059203148,51.76031084731221],[5.615326780825853,51.76028670743108],[5.6152925826609135,51.76025217399001],[5.615269280970097,51.76022719591856],[5.615234076976776,51.76021638326347],[5.615230472758412,51.76020322367549],[5.615224605426192,51.76019735634327],[5.615221839398146,51.76018260419369],[5.615230808034539,51.76019685342908],[5.615221755579114,51.76019802689552],[5.6151641719043255,51.760174222290516],[5.615082699805498,51.760136503726244],[5.615019835531712,51.76011202856898],[5.614984631538391,51.760101383551955],[5.614968789741397,51.760095516219735],[5.614884216338396,51.76006877794862],[5.614840295165777,51.760049080476165],[5.614819256588817,51.76004346460104],[5.614815233275294,51.76004086621106],[5.614785058423877,51.76004212349653],[5.6147571466863155,51.76003432832658],[5.61472118832171,51.760011948645115],[5.614699982106686,51.76000683568418],[5.6146711483597755,51.759995771571994],[5.614669639617205,51.759996358305216],[5.614668885245919,51.75999652594328],[5.614670477807522,51.75999325700104],[5.61467383056879,51.75998579710722],[5.614653546363115,51.75994858145714],[5.614606272429228,51.75991890951991],[5.614597722887993,51.759915221482515],[5.614576516672969,51.75990583375096],[5.614558914676309,51.759897619485855],[5.614536451175809,51.759893260896206],[5.614457661285996,51.759871719405055],[5.614420361816883,51.75984808243811],[5.614370824769139,51.759829223155975],[5.614317683503032,51.75981103442609],[5.614315923303366,51.75980851985514],[5.614287676289678,51.7598174046725],[5.6142874248325825,51.75982503220439],[5.614287760108709,51.75984841771424],[5.614272421225905,51.759843807667494],[5.614257920533419,51.75983425229788],[5.614248784258962,51.759829139336944],[5.614200588315725,51.75981958396733],[5.614195056259632,51.75980793312192],[5.614190865308046,51.75980173051357],[5.614202851429582,51.75979712046683],[5.614203689619899,51.75978203304112],[5.614155326038599,51.759762251749635],[5.614118278026581,51.75974875688553],[5.614069411531091,51.75972864031792],[5.614012917503715,51.75971179269254],[5.613971929997206,51.759687988087535],[5.613945610821247,51.759667452424765],[5.613928847014904,51.75965848378837],[5.613889200612903,51.75964859314263],[5.6138488836586475,51.75962956622243],[5.613759029656649,51.75959092564881],[5.613705553114414,51.759574664756656],[5.613687699660659,51.75957231782377],[5.613637994974852,51.75959494896233],[5.613611424341798,51.75961598753929],[5.613579908385873,51.75961682572961],[5.613536238670349,51.7596226092428],[5.613516541197896,51.75962705165148],[5.6134589575231075,51.75965052098036],[5.613445295020938,51.75966074690223],[5.613425010815263,51.759677678346634],[5.613394919782877,51.759735932573676],[5.613370779901743,51.7597624193877],[5.613338006660342,51.759840454906225],[5.613312944769859,51.75987389869988],[5.61332568526268,51.75986937247217],[5.613331468775868,51.7598641756922],[5.613353010267019,51.759869791567326],[5.613348316401243,51.7598747368902],[5.613320991396904,51.75987842492759],[5.613365080207586,51.759886890649796],[5.613324847072363,51.75988722592592],[5.613290062174201,51.75988798029721],[5.613253014162183,51.75988412462175],[5.6132380943745375,51.759879011660814],[5.613213116303086,51.75986710935831],[5.613216804340482,51.75987389869988],[5.6131761521101,51.759840874001384],[5.613111527636647,51.75980935804546],[5.613070540130138,51.759769627824426],[5.613072300329804,51.75976200029254],[5.613054363057017,51.75975118763745],[5.613009436056018,51.75972201861441],[5.612965011969209,51.759700728580356],[5.612948164343834,51.759697292000055],[5.612871302291751,51.759679690003395],[5.612818244844675,51.759681282565],[5.612818161025643,51.75968044437468],[5.612821681424975,51.75967499613762],[5.612808270379901,51.75967273302376],[5.612835930660367,51.75967248156667],[5.6128475815057755,51.75967608578503],[5.61284925788641,51.75967616960406],[5.61283458955586,51.75967273302376],[5.612828051671386,51.7596501018852],[5.6127674505114555,51.759608360007405],[5.612761247903109,51.75959939137101],[5.612759906798601,51.759586315602064],[5.612726295366883,51.75955530256033],[5.612637531012297,51.759519930928946],[5.612567961215973,51.75950190983713],[5.612532002851367,51.75949000753462],[5.612525716423988,51.75948833115399],[5.612459750846028,51.75946385599673],[5.612393282353878,51.75944868475199],[5.612352965399623,51.75945564173162],[5.612334944307804,51.75945237278938],[5.612368974834681,51.75946461036801],[5.612390516325831,51.759450528770685],[5.612396886572242,51.759449103847146],[5.612436030060053,51.75945874303579],[5.612435275688767,51.759457401931286],[5.612432844936848,51.759457821026444],[5.612425804138184,51.759456899017096],[5.612406944856048,51.75944340415299],[5.612390097230673,51.759485146030784],[5.612355396151543,51.759471986442804],[5.612327065318823,51.759440721943974],[5.6123127322643995,51.759432004764676],[5.612214747816324,51.75940375775099],[5.612112572416663,51.759396800771356],[5.612054569646716,51.759384982287884],[5.611969409510493,51.7593702301383],[5.611871425062418,51.75936629064381],[5.611819541081786,51.75935899838805],[5.611800430342555,51.75935790874064],[5.611744020134211,51.75936318933964],[5.611734297126532,51.759362099692225],[5.611720886081457,51.75936612300575],[5.611669588834047,51.75937877967954],[5.611653076484799,51.759386071935296],[5.6115711852908134,51.75939864479005],[5.611546961590648,51.75939789041877],[5.611535143107176,51.759403590112925],[5.611529527232051,51.75939931534231],[5.611529191955924,51.75939814187586],[5.611525168642402,51.759399734437466],[5.61153438873589,51.75939420238137],[5.611534304916859,51.75939160399139],[5.6115328799933195,51.759399734437466],[5.611505890265107,51.7594048473984],[5.611470518633723,51.759406104683876],[5.611419640481472,51.75939898006618],[5.611352166160941,51.7593995667994],[5.611256025731564,51.759419767186046],[5.611237082630396,51.75943862646818],[5.611185031011701,51.75944013521075],[5.611119903624058,51.7594669573009],[5.611106492578983,51.7594772670418],[5.611090650781989,51.7594825476408],[5.6110746413469315,51.75949034281075],[5.611038347706199,51.75949805416167],[5.61103155836463,51.75950048491359],[5.61096902936697,51.75953049212694],[5.610899208113551,51.759550692513585],[5.6108263693749905,51.75958321429789],[5.610752105712891,51.759601486846805],[5.610733246430755,51.7596035823226],[5.610704328864813,51.75961774773896],[5.6106602400541306,51.75962554290891],[5.6106602400541306,51.75962554290891],[5.610618246719241,51.75964213907719],[5.610587652772665,51.75965781323612],[5.610587652772665,51.75965781323612],[5.61057910323143,51.75966284237802],[5.610581282526255,51.75966560840607],[5.610580863431096,51.75966535694897],[5.61057960614562,51.759665440768],[5.6105689611285925,51.75968430005014],[5.61056200414896,51.75967901945114],[5.61055026948452,51.75969259813428],[5.6105345115065575,51.75971707329154],[5.610466031357646,51.75974305719137],[5.610418422147632,51.759745655581355],[5.6104043405503035,51.759751019999385],[5.610325299203396,51.75978387705982],[5.610279953107238,51.75980097614229],[5.610264865681529,51.75980751402676],[5.610236115753651,51.75981958396733],[5.610223291441798,51.7598261218518],[5.610176017507911,51.75985126756132],[5.610121116042137,51.75986308604479],[5.610093371942639,51.759890746325254],[5.610048696398735,51.75989703275263],[5.6099893525242805,51.75990893505514],[5.609952220693231,51.75993165001273],[5.609958088025451,51.75994246266782],[5.609948700293899,51.759945480152965],[5.60994828119874,51.75994774326682],[5.609946185722947,51.75994757562876],[5.609935792163014,51.759945061057806],[5.609895559027791,51.75994179211557],[5.6098957266658545,51.75993894226849],[5.609868066385388,51.759930811822414],[5.609752563759685,51.7599072586745],[5.609750552102923,51.75989845767617],[5.6097231432795525,51.759906923398376],[5.609682742506266,51.75990080460906],[5.60964192263782,51.75988119095564],[5.609634546563029,51.75983928143978],[5.609624655917287,51.759824277833104],[5.6095711793750525,51.75979854539037],[5.609546033665538,51.75977515988052],[5.6095317006111145,51.75976627506316],[5.609532371163368,51.75975806079805],[5.609526922926307,51.75973182544112],[5.60948115773499,51.75965487957001],[5.609459448605776,51.7596067674458],[5.609406474977732,51.759568797424436],[5.609395997598767,51.75957181490958],[5.609352830797434,51.7595584038645],[5.609313519671559,51.75955815240741],[5.609281919896603,51.759537449106574],[5.609278148040175,51.7595343478024],[5.609278483316302,51.75953225232661],[5.609304886311293,51.75952881574631],[5.609323158860207,51.759555134922266],[5.60934872366488,51.759583381935954],[5.609359871596098,51.75958899781108],[5.609371270984411,51.759617077186704],[5.609383508563042,51.75969058647752],[5.609382335096598,51.75970483571291],[5.609389040619135,51.75974481739104],[5.609409241005778,51.75977767445147],[5.609447043389082,51.75982880406082],[5.609490377828479,51.75987599417567],[5.609502866864204,51.7599159758538],[5.609508398920298,51.75996878184378],[5.609519127756357,51.760027036070824],[5.609502196311951,51.76006592810154],[5.609459280967712,51.760091576725245],[5.609399015083909,51.760135581716895],[5.60933263041079,51.7601371742785],[5.609326343983412,51.760137006640434],[5.6093131843954325,51.760136503726244],[5.609316034242511,51.760129211470485],[5.609270352870226,51.760130636394024],[5.609171949326992,51.760150166228414],[5.609112773090601,51.7601628229022],[5.609033145010471,51.76016818732023],[5.608976818621159,51.7601699475199],[5.608918061479926,51.76017799414694],[5.608921414241195,51.760184448212385],[5.6089079193770885,51.7601768206805],[5.608900040388107,51.760176066309214],[5.608894508332014,51.760162906721234],[5.608894005417824,51.76015553064644],[5.608894256874919,51.760155111551285],[5.608893418684602,51.760156620293856],[5.608894592151046,51.76015301607549],[5.60889576561749,51.76016550511122],[5.608856957405806,51.76018176600337],[5.608786130324006,51.760183023288846],[5.60877799987793,51.76017631776631],[5.608688313513994,51.760165840387344],[5.608644811436534,51.76015402190387],[5.608551939949393,51.76013566553593],[5.6085082702338696,51.760131726041436],[5.608491757884622,51.76013298332691],[5.608473317697644,51.76013868302107],[5.608467869460583,51.7601303011179],[5.6084090285003185,51.760115548968315],[5.608313055709004,51.76007389090955],[5.60830207541585,51.76006936468184],[5.608270056545734,51.76006802357733],[5.608250694349408,51.76006307825446],[5.608182717114687,51.76004111766815],[5.608115494251251,51.76002150401473],[5.608051121234894,51.759980684146285],[5.607949951663613,51.75993827171624],[5.607912316918373,51.75993307493627],[5.607851631939411,51.759927878156304],[5.6077994126826525,51.759928381070495],[5.607759682461619,51.759924525395036],[5.607694052159786,51.75992335192859],[5.607680389657617,51.75993014127016],[5.607632948085666,51.75993349403143],[5.60761509463191,51.75993533805013],[5.607542172074318,51.75993978045881],[5.6075402442365885,51.75993651151657],[5.607561618089676,51.75993760116398],[5.607554577291012,51.75993558950722],[5.607535550370812,51.759939612820745],[5.607470339164138,51.759940115734935],[5.607393644750118,51.759935673326254],[5.607321644201875,51.75994916819036],[5.607235478237271,51.75997456535697],[5.607209913432598,51.75999225117266],[5.607177810743451,51.759994430467486],[5.607153754681349,51.75999996252358],[5.60713623650372,51.760002225637436],[5.60708393342793,51.7600023932755],[5.607057362794876,51.76000046543777],[5.60703313909471,51.759996861219406],[5.6069898046553135,51.76000641658902],[5.606907410547137,51.76001278683543],[5.606908919289708,51.7600108589977],[5.606890227645636,51.76000691950321],[5.606875391677022,51.76000574603677],[5.606856616213918,51.75999836996198],[5.606837924569845,51.75999987870455],[5.60671110637486,51.76000356674194],[5.606665425002575,51.75999719649553],[5.60659040696919,51.75998738966882],[5.606577163562179,51.75996836274862],[5.606598369777203,51.759976744651794],[5.606598034501076,51.75997691228986],[5.6065539456903934,51.7599712125957],[5.606528045609593,51.75996928475797],[5.6064950209110975,51.75996199250221],[5.606398545205593,51.7599143832922],[5.60632118023932,51.75987968221307],[5.606245072558522,51.75985679961741],[5.6061280611902475,51.75985193811357],[5.606065532192588,51.759849255904555],[5.6060035061091185,51.75985177047551],[5.605984982103109,51.759849255904555],[5.6059439945966005,51.75982880406082],[5.605867635458708,51.759809106588364],[5.60580275952816,51.75977666862309],[5.60572799295187,51.759750014171004],[5.605703769251704,51.75974892452359],[5.605657333508134,51.75972796976566],[5.605558343231678,51.75970642827451],[5.605466142296791,51.75968027673662],[5.605441248044372,51.75967541523278],[5.6054003443568945,51.759676001966],[5.605308562517166,51.75967399030924],[5.60520906932652,51.75967013463378],[5.605105133727193,51.7596725653857],[5.60505073517561,51.75966192036867],[5.605039335787296,51.75965974107385],[5.604943698272109,51.75965613685548],[5.604871362447739,51.759631074965],[5.604803552851081,51.75960500724614],[5.6047748029232025,51.75960467197001],[5.604716716334224,51.759593691676855],[5.604658797383308,51.75957131199539],[5.604545809328556,51.75952102057636],[5.604427456855774,51.75948992371559],[5.604356294497848,51.75946209579706],[5.604288065806031,51.75944206304848],[5.604245401918888,51.75944189541042],[5.60420885682106,51.759436782449484],[5.604116739705205,51.75941423512995],[5.604052785784006,51.7593892570585],[5.603981539607048,51.759371319785714],[5.603946000337601,51.75935111939907],[5.603934768587351,51.75934919156134],[5.6038361974060535,51.7593427374959],[5.60377492569387,51.759316083043814],[5.6037581618875265,51.759304851293564],[5.603719437494874,51.759284399449825],[5.603642826899886,51.759265288710594],[5.603592032566667,51.75924114882946],[5.6035517156124115,51.759197479113936],[5.603501005098224,51.759138721972704],[5.6034839898347855,51.759125646203756],[5.6034227181226015,51.75910661928356],[5.603356584906578,51.75908046774566],[5.603291625156999,51.7590559925884],[5.603216523304582,51.75901148468256],[5.603220546618104,51.75898742862046],[5.603215182200074,51.75896312110126],[5.603192802518606,51.75895247608423],[5.603190204128623,51.758949207141995],[5.603159023448825,51.75892540253699],[5.603098254650831,51.758937388658524],[5.6030133459717035,51.75895716995001],[5.60293841175735,51.75898818299174],[5.60285241343081,51.75902598537505],[5.6028452049940825,51.759027913212776],[5.602808156982064,51.75903755240142],[5.602698940783739,51.75902757793665],[5.602680081501603,51.759012155234814],[5.6026095896959305,51.758997989818454],[5.602557202801108,51.75896940752864],[5.602555442601442,51.75895758904517],[5.602543875575066,51.758953565731645],[5.602481430396438,51.758944261819124],[5.6024231761693954,51.75891442224383],[5.602423846721649,51.75890738144517],[5.6024122796952724,51.758879302069545],[5.602387972176075,51.75885558128357],[5.602329634130001,51.75878332927823],[5.6023327354341745,51.75877662375569],[5.6023074220865965,51.75877025350928],[5.602273978292942,51.75877025350928],[5.602206336334348,51.75875533372164],[5.602112542837858,51.7587623745203],[5.602054623886943,51.75876916386187],[5.601969715207815,51.75877159461379],[5.601888410747051,51.758778132498264],[5.601868210360408,51.7587676551193],[5.601857816800475,51.758750807493925],[5.601854044944048,51.75875005312264],[5.601859912276268,51.758752735331655],[5.601804004982114,51.7587470356375],[5.601707110181451,51.75873152911663],[5.601590350270271,51.75872121937573],[5.601507034152746,51.75870705395937],[5.601421957835555,51.75869775004685],[5.6013417430222034,51.758667742833495],[5.601296648383141,51.758644776418805],[5.60122087597847,51.75861803814769],[5.601182486861944,51.7585776373744],[5.601162454113364,51.75856866873801],[5.601131608709693,51.75855366513133],[5.601125238463283,51.75855156965554],[5.601054914295673,51.758506558835506],[5.600998504087329,51.758465487509966],[5.6009874399751425,51.758468840271235],[5.600982243195176,51.75845702178776],[5.600947793573141,51.75842332653701],[5.6009061355143785,51.758393654599786],[5.600870428606868,51.758360378444195],[5.600836398079991,51.7583392560482],[5.600738665089011,51.75830346532166],[5.600686864927411,51.75827505066991],[5.600640848278999,51.75826398655772],[5.600609499961138,51.758258203044534],[5.600549317896366,51.75821805372834],[5.600509671494365,51.75819533877075],[5.600485112518072,51.758187878876925],[5.600459715351462,51.75817891024053],[5.60042685829103,51.75814856775105],[5.600361647084355,51.75812870264053],[5.600319234654307,51.758098946884274],[5.600270535796881,51.758077489212155],[5.600242540240288,51.75806391052902],[5.600207084789872,51.758037423714995],[5.600163917988539,51.75801722332835],[5.600125193595886,51.75800691358745],[5.60005160048604,51.75798679701984],[5.5999621655792,51.75799844786525],[5.599911119788885,51.758011439815164],[5.59988547116518,51.758024767041206],[5.5998844653368,51.758033987134695],[5.599846746772528,51.75805862993002],[5.599777763709426,51.75808176398277],[5.59977114200592,51.75808863714337],[5.599757898598909,51.75809836015105],[5.599726382642984,51.75810908898711],[5.599672822281718,51.758132642135024],[5.599654633551836,51.758150747045875],[5.599628984928131,51.75817396491766],[5.599584309384227,51.75822299905121],[5.5995413940399885,51.7582842707634],[5.599520523101091,51.758310506120324],[5.599499819800258,51.75833724439144],[5.599484732374549,51.75836741924286],[5.599459921941161,51.758396001532674],[5.599412564188242,51.758424919098616],[5.599354142323136,51.75845257937908],[5.5993452575057745,51.75846079364419],[5.599319860339165,51.75848049111664],[5.599295385181904,51.75851929932833],[5.5992925353348255,51.758531453087926],[5.599293876439333,51.758548971265554],[5.599278789013624,51.75856431014836],[5.59926537796855,51.758622815832496],[5.599246099591255,51.758688278496265],[5.599233191460371,51.75872012972832],[5.599210308864713,51.758760111406446],[5.599168986082077,51.75880294293165],[5.599156077951193,51.75882624462247],[5.599148869514465,51.75885130651295],[5.599098661914468,51.75890251994133],[5.599074438214302,51.75894635729492],[5.599048873409629,51.75898902118206],[5.599020794034004,51.759018106386065],[5.599021380767226,51.75900938920677],[5.599017860367894,51.75900553353131],[5.599013669416308,51.75900360569358],[5.599016938358545,51.759004360064864],[5.5990212969481945,51.759002432227135],[5.599003443494439,51.75902380608022],[5.598956421017647,51.75906362012029],[5.598939992487431,51.75909714773297],[5.598910404369235,51.75911567173898],[5.598857682198286,51.75913444720209],[5.598818538710475,51.75913075916469],[5.598760452121496,51.75912279635668],[5.598735306411982,51.759142158553004],[5.598719213157892,51.75913989543915],[5.598686775192618,51.75913612358272],[5.5986239947378635,51.75911659374833],[5.5985913053154945,51.75909941084683],[5.59855786152184,51.7590906098485],[5.598527435213327,51.75908491015434],[5.598504468798637,51.75907602533698],[5.5984977632761,51.759078120812774],[5.598490219563246,51.75907250493765],[5.598445627838373,51.759064039215446],[5.598388044163585,51.7590282484889],[5.598355187103152,51.75899882800877],[5.59828469529748,51.75897376611829],[5.598248150199652,51.758949710056186],[5.598236666992307,51.75894543528557],[5.598209677264094,51.758937388658524],[5.598177323117852,51.75892297178507],[5.598170952871442,51.7589177750051],[5.598150249570608,51.75890193320811],[5.598141783848405,51.7589005921036],[5.598126696422696,51.75889313220978],[5.598069028928876,51.758873518556356],[5.598083194345236,51.758869579061866],[5.598070537671447,51.75885851494968],[5.598037764430046,51.758840158581734],[5.597947742789984,51.75880252383649],[5.597931733354926,51.75878542475402],[5.597920166328549,51.758781569078565],[5.597846573218703,51.75874955020845],[5.597761748358607,51.75870755687356],[5.5977254547178745,51.75869246944785],[5.5976462457329035,51.75865340977907],[5.597579525783658,51.75861862488091],[5.597528899088502,51.75859800539911],[5.597539292648435,51.75859331153333],[5.597482714802027,51.75857512280345],[5.597463520243764,51.75856925547123],[5.59736218303442,51.758535811677575],[5.597297642379999,51.75852625630796],[5.597295295447111,51.758531872183084],[5.597287165001035,51.7585363984108],[5.59716428630054,51.758485017344356],[5.597123634070158,51.75846674479544],[5.597073845565319,51.75844067707658],[5.597019447013736,51.758428355678916],[5.596950044855475,51.75840153358877],[5.596929006278515,51.75839675590396],[5.596880307421088,51.75837865099311],[5.596882989630103,51.75838200375438],[5.596870249137282,51.75839273259044],[5.5968802236020565,51.75839256495237],[5.596857508644462,51.758385356515646],[5.5967965722084045,51.758368257433176],[5.59673773124814,51.75835040397942],[5.596732115373015,51.7583498172462],[5.5967409163713455,51.758354092016816],[5.5967432633042336,51.75834646448493],[5.596727002412081,51.758347218856215],[5.596686601638794,51.75833674147725],[5.596597334370017,51.75829751417041],[5.596525585278869,51.75828091800213],[5.596443107351661,51.75825937651098],[5.596348894760013,51.75823255442083],[5.596300531178713,51.758213862776756],[5.596265075728297,51.75821646116674],[5.596265159547329,51.75821059383452],[5.596233895048499,51.758196176961064],[5.596182346343994,51.75816331990063],[5.596084864810109,51.75814504735172],[5.596041362732649,51.758151249960065],[5.596049325540662,51.75815535709262],[5.596189554780722,51.75816264934838],[5.596192236989737,51.758163403719664],[5.59610590338707,51.75814772956073],[5.596021162346005,51.758151082322],[5.596006158739328,51.758155692368746],[5.596003644168377,51.758156195282936],[5.595930218696594,51.75815544091165],[5.595874059945345,51.758177150040865],[5.595818152651191,51.758193327113986],[5.595809016376734,51.758192740380764],[5.595767693594098,51.75820439122617],[5.595736177638173,51.75822081975639],[5.595667026937008,51.75824319943786],[5.595635510981083,51.75825250335038],[5.5956014804542065,51.75827697850764],[5.595598043873906,51.75828888081014],[5.595599552616477,51.758287036791444],[5.595599804073572,51.758287120610476],[5.59559821151197,51.75828443840146],[5.595510117709637,51.758288126438856],[5.595429902896285,51.75831134431064],[5.595390340313315,51.75832500681281],[5.595378438010812,51.758331125602126],[5.595304677262902,51.75834889523685],[5.595274167135358,51.75837219692767],[5.595197305083275,51.75839910283685],[5.595112731680274,51.758424332365394],[5.595061518251896,51.758435145020485],[5.595039473846555,51.7584394197911],[5.595029499381781,51.758443024009466],[5.594963701441884,51.7584584467113],[5.59489949606359,51.75848225131631],[5.59485356323421,51.75850857049227],[5.594846857711673,51.758507899940014],[5.594794135540724,51.75853832624853],[5.594744347035885,51.75855986773968],[5.594711909070611,51.75859993323684],[5.594707215204835,51.75862499512732],[5.594707215204835,51.75862499512732],[5.5946761183440685,51.75863186828792],[5.5946761183440685,51.75863186828792],[5.5946761183440685,51.75863186828792],[5.5946761183440685,51.75863186828792],[5.5946761183440685,51.75863186828792],[5.5946761183440685,51.75863186828792],[5.5946761183440685,51.75863186828792],[5.5946761183440685,51.75863186828792],[5.5946761183440685,51.75863186828792],[5.594667065888643,51.75862197764218],[5.594668490812182,51.758617954328656],[5.594648625701666,51.758585600182414],[5.594617864117026,51.75859859213233],[5.594571176916361,51.758640417829156],[5.5945580173283815,51.758654583245516],[5.5945762898772955,51.758649721741676],[5.594581235200167,51.758650140836835],[5.594559442251921,51.75866296514869],[5.594481909647584,51.758694145828485],[5.594481993466616,51.758689703419805],[5.59448023326695,51.75868844613433],[5.594477551057935,51.758688278496265],[5.594476209953427,51.75868987105787],[5.594473276287317,51.75868945196271],[5.594470510259271,51.758674364537],[5.594434468075633,51.75869079306722],[5.594400521367788,51.75869548693299],[5.594339333474636,51.75871677696705],[5.594276553019881,51.75874460488558],[5.594216957688332,51.75876338034868],[5.594193153083324,51.75876966677606],[5.594176221638918,51.75877209752798],[5.5941577814519405,51.7587710916996],[5.594142442569137,51.75877209752798],[5.594124421477318,51.7587729357183],[5.594100533053279,51.758788861334324],[5.594069855287671,51.75880520604551],[5.5940343998372555,51.758821215480566],[5.594021826982498,51.758825574070215],[5.5940149538218975,51.75883177667856],[5.5940040573477745,51.75883638672531],[5.593987293541431,51.758846109732985],[5.593894170597196,51.75888148136437],[5.593812447041273,51.75890889018774],[5.593741787597537,51.75893093459308],[5.593676408752799,51.758967731148005],[5.593646066263318,51.75898022018373],[5.593640198931098,51.75898415967822],[5.593602480366826,51.759002516046166],[5.593551769852638,51.75902514718473],[5.593550344929099,51.75905649550259],[5.59352058917284,51.75908071920276],[5.5935172364115715,51.75909463316202],[5.593514470383525,51.75910033285618],[5.593490079045296,51.75911055877805],[5.593464262783527,51.75911366008222],[5.593445654958487,51.75912447273731],[5.593411372974515,51.75915020518005],[5.593406595289707,51.75915556959808],[5.593403577804565,51.75916772335768],[5.593405589461327,51.75920250825584],[5.593422604724765,51.759241400286555],[5.593435345217586,51.75926805473864],[5.593425957486033,51.759265875443816],[5.593429896980524,51.75926906056702],[5.593442972749472,51.75927568227053],[5.5934427212923765,51.75927341915667],[5.5934444814920425,51.75926947966218],[5.593485217541456,51.7592996545136],[5.593531988561153,51.759347431361675],[5.5935355089604855,51.759353298693895],[5.593532910570502,51.759376768022776],[5.593567108735442,51.75941281020641],[5.593579262495041,51.75942102447152],[5.593584207817912,51.759430998936296],[5.593582112342119,51.759424628689885],[5.593544729053974,51.7593911010772],[5.593546573072672,51.759395794942975],[5.5935602355748415,51.75943502224982],[5.593628128990531,51.75947332754731],[5.593667859211564,51.759502328932285],[5.593681689351797,51.75950601696968],[5.593688311055303,51.75950978882611],[5.593723598867655,51.75953233614564],[5.593754276633263,51.75954541191459],[5.593799622729421,51.75956108607352],[5.593805238604546,51.759562427178025],[5.593835161998868,51.75956510938704],[5.593831390142441,51.75956452265382],[5.593803729861975,51.7595655284822],[5.5938085075467825,51.75955966114998],[5.5938096810132265,51.75956033170223],[5.593815548345447,51.759562846273184],[5.593781433999538,51.759551782161],[5.593764251098037,51.75954641774297],[5.593737345188856,51.759540466591716],[5.593809429556131,51.759593691676855],[5.593843040987849,51.75960274413228],[5.593865755945444,51.759619591757655],[5.5938991997390985,51.759643061086535],[5.593924513086677,51.75966904498637],[5.59392174705863,51.759695364162326],[5.593974133953452,51.759743141010404],[5.593993328511715,51.75978069193661],[5.593987964093685,51.759782284498215],[5.593997519463301,51.75977122038603],[5.5940069910138845,51.759737860411406],[5.594042362645268,51.75973157398403],[5.594063568860292,51.75974238663912],[5.594057785347104,51.75973232835531],[5.594086283817887,51.75975822843611],[5.594141101464629,51.75980156287551],[5.594190889969468,51.75983517430723],[5.5942168738693,51.75984933972359],[5.594216622412205,51.75984422676265],[5.594192482531071,51.7598348390311],[5.594190889969468,51.759843807667494],[5.594189800322056,51.75984573550522],[5.594195164740086,51.759849674999714],[5.594206228852272,51.759850680828094],[5.594216790050268,51.759858475998044],[5.594270266592503,51.759882029145956],[5.594278648495674,51.75987574271858],[5.594290383160114,51.759875155985355],[5.594284012913704,51.75987205468118],[5.594300525262952,51.759876664727926],[5.594292478635907,51.75988077186048],[5.594316031783819,51.759891249239445],[5.594324162229896,51.75990415737033],[5.594344697892666,51.75992435775697],[5.594346625730395,51.75994573161006],[5.594357354566455,51.759950928390026],[5.59440303593874,51.75997951067984],[5.594485346227884,51.76001572050154],[5.594504540786147,51.760021168738604],[5.594533458352089,51.76003139466047],[5.594543097540736,51.76003843545914],[5.59454033151269,51.760041704401374],[5.5945757031440735,51.76006433553994],[5.594608308747411,51.76009048707783],[5.594680560752749,51.7601163033396],[5.594724481925368,51.76012988202274],[5.594740575179458,51.76013206131756],[5.594800841063261,51.76014966331422],[5.59481693431735,51.760159553959966],[5.594859346747398,51.7601715400815],[5.594894383102655,51.76017874851823],[5.5948554910719395,51.76019408740103],[5.594917600974441,51.7602095939219],[5.594988679513335,51.76023071631789],[5.595005191862583,51.76024169661105],[5.595040060579777,51.76025996915996],[5.595108289271593,51.760290982201695],[5.595120443031192,51.76029215566814],[5.595166711136699,51.76030967384577],[5.595177859067917,51.76032015122473],[5.5952289048582315,51.76034890115261],[5.595244327560067,51.76034923642874],[5.595261761918664,51.76036926917732],[5.595285482704639,51.76038762554526],[5.5952998995780945,51.760383769869804],[5.595350945368409,51.76041293889284],[5.595415905117989,51.760483430698514],[5.595427304506302,51.76049642264843],[5.595460832118988,51.76053372211754],[5.595476422458887,51.76054176874459],[5.595522522926331,51.76055962219834],[5.595568371936679,51.760572446510196],[5.595613131299615,51.76057688891888],[5.595699967816472,51.760571943596005],[5.595769705250859,51.760584181174636],[5.595788983628154,51.76058351062238],[5.595853524282575,51.76058770157397],[5.595925021916628,51.760608572512865],[5.595962321385741,51.76061921752989],[5.595967937260866,51.760619301348925],[5.595977995544672,51.760624665766954],[5.596009092405438,51.76065408624709],[5.596059300005436,51.760695073753595],[5.596119146794081,51.76072063855827],[5.596194751560688,51.76070664077997],[5.596196260303259,51.76070345565677],[5.596205480396748,51.76070622168481],[5.596236325800419,51.76072617061436],[5.596276391297579,51.76073924638331],[5.596275050193071,51.76073689945042],[5.596239510923624,51.7607381567359],[5.596245378255844,51.76073681563139],[5.596302794292569,51.76075777038932],[5.596373621374369,51.76076992414892],[5.596389379352331,51.76076330244541],[5.596418045461178,51.76079884171486],[5.596457440406084,51.760838655754924],[5.596544863656163,51.76087997853756],[5.596584426239133,51.760887522250414],[5.5966119188815355,51.760902777314186],[5.596699509769678,51.76093622110784],[5.596831357106566,51.76094829104841],[5.596889276057482,51.76095524802804],[5.596923641860485,51.76095264963806],[5.597023721784353,51.76095080561936],[5.597109133377671,51.76095415838063],[5.597131177783012,51.760956421494484],[5.5971720814704895,51.760960863903165],[5.597242405638099,51.76098098047078],[5.5973378755152225,51.76099623553455],[5.597378695383668,51.76099958829582],[5.597428986802697,51.7610127478838],[5.597437536343932,51.76102180033922],[5.5975184217095375,51.761051807552576],[5.597575083374977,51.761081563308835],[5.597645156085491,51.76111056469381],[5.597655298188329,51.76110981032252],[5.59766074642539,51.76111551001668],[5.59768320992589,51.761124562472105],[5.597687317058444,51.76112288609147],[5.597693771123886,51.76110872067511],[5.5976760014891624,51.761108385398984],[5.597755126655102,51.761100590229034],[5.597791336476803,51.761096734553576],[5.597799131646752,51.76109883002937],[5.597859313711524,51.7610973212868],[5.597874987870455,51.761095309630036],[5.5979519337415695,51.76109304651618],[5.597999207675457,51.76109028048813],[5.598011277616024,51.76109170541167],[5.598084200173616,51.761089861392975],[5.59808487072587,51.76108508370817],[5.59808487072587,51.761079048737884],[5.598102975636721,51.76107879728079],[5.5980894807726145,51.761115761473775],[5.598075399175286,51.76112053915858],[5.598119571805,51.76111928187311],[5.598195260390639,51.761107463389635],[5.598296262323856,51.761086005717516],[5.598355438560247,51.761068319901824],[5.598429283127189,51.76107091829181],[5.5984891299158335,51.761060105636716],[5.598516957834363,51.76104761660099],[5.598526764661074,51.76103982143104],[5.598555598407984,51.76102473400533],[5.598558783531189,51.76101132296026],[5.598565237596631,51.76099807955325],[5.598585186526179,51.760965222492814],[5.598604045808315,51.76093898713589],[5.598643021658063,51.76091216504574],[5.598683841526508,51.760890036821365],[5.598694151267409,51.76088936626911],[5.598743688315153,51.760864639654756],[5.598752656951547,51.76078333519399],[5.598767157644033,51.760754249989986],[5.59876942075789,51.76074963994324],[5.5987821612507105,51.76073295995593],[5.598796829581261,51.76072424277663],[5.598795237019658,51.76072332076728],[5.598796997219324,51.76073304377496],[5.598840918391943,51.76076464354992],[5.598911242559552,51.760742012411356],[5.5989279225468636,51.76073379814625],[5.5990092270076275,51.76068903878331],[5.598993636667728,51.76069884561002],[5.598989026620984,51.760699516162276],[5.599009143188596,51.76069884561002],[5.599011741578579,51.76070152781904],[5.599014675244689,51.7607051320374],[5.5990890227258205,51.76073153503239],[5.599136212840676,51.76075433380902],[5.599174937233329,51.76077646203339],[5.599247608333826,51.760820131748915],[5.599264791235328,51.76083069294691],[5.599277867004275,51.760839158669114],[5.599306533113122,51.76086137071252],[5.599315753206611,51.76087134517729],[5.599429327994585,51.760922726243734],[5.5994341894984245,51.760926246643066],[5.599438967183232,51.76093077287078],[5.599486073479056,51.76093580201268],[5.59957223944366,51.76096857525408],[5.599595960229635,51.760975029319525],[5.599626386538148,51.760983327403665],[5.599663266912103,51.76099246367812],[5.599682964384556,51.760997492820024],[5.599723281338811,51.76101190969348],[5.599738787859678,51.76101442426443],[5.599846579134464,51.76105247810483],[5.599928721785545,51.76109153777361],[5.600024024024606,51.76112053915858],[5.600093426182866,51.76115448586643],[5.600170539692044,51.76117116585374],[5.600299118086696,51.76121274009347],[5.6003854516893625,51.76122891716659],[5.600494584068656,51.76124987192452],[5.600578906014562,51.761277029290795],[5.600637411698699,51.761292200535536],[5.600695330649614,51.76130326464772],[5.60076599009335,51.76132237538695],[5.600859113037586,51.7613457608968],[5.600928599014878,51.76136185415089],[5.601036222651601,51.76139110699296],[5.6010516453534365,51.76139353774488],[5.601133620366454,51.761415833607316],[5.601235879585147,51.761440727859735],[5.601321458816528,51.76145103760064],[5.601420784369111,51.76146889105439],[5.601497730240226,51.76147165708244],[5.601609880104661,51.76149554550648],[5.601701410487294,51.761507615447044],[5.601740889251232,51.76151465624571],[5.6018470879644156,51.761521780863404],[5.601920345798135,51.761522367596626],[5.601958818733692,51.7615201883018],[5.602013468742371,51.761529659852386],[5.602107178419828,51.7615304980427],[5.602214382961392,51.76154323853552],[5.602275570854545,51.761551620438695],[5.602371711283922,51.76156276836991],[5.6024152133613825,51.761571150273085],[5.602435329928994,51.76157031208277],[5.6024564523249865,51.76156838424504],[5.602549323812127,51.761579532176256],[5.602648565545678,51.76157810725272],[5.602680081501603,51.7615825496614],[5.602716039866209,51.76158523187041],[5.602798098698258,51.761592691764235],[5.602873032912612,51.761604845523834],[5.602966574952006,51.76161297596991],[5.602984260767698,51.761611718684435],[5.60304737649858,51.76161481998861],[5.603137398138642,51.76162613555789],[5.60318810865283,51.76163979806006],[5.603285590186715,51.761650275439024],[5.603365637362003,51.76163149997592],[5.603429758921266,51.761574167758226],[5.6034353747963905,51.7615616787225],[5.603451132774353,51.76151557825506],[5.603511314839125,51.76140292547643],[5.603532018139958,51.761364955455065],[5.6035481952130795,51.76132941618562],[5.6035699881613255,51.76127811893821],[5.603579711169004,51.76122388802469],[5.603587841615081,51.761190947145224],[5.603635618463159,51.76114694215357],[5.603710385039449,51.76111785694957],[5.603776853531599,51.76111735403538],[5.603829408064485,51.761131435632706],[5.603829408064485,51.761131435632706],[5.603829408064485,51.761131435632706],[5.603808369487524,51.76111844368279],[5.603785738348961,51.76111509092152],[5.603785738348961,51.76111509092152],[5.603785738348961,51.76111509092152],[5.603785738348961,51.76111509092152],[5.603785403072834,51.761114252731204],[5.603791605681181,51.76111542619765],[5.603796634823084,51.76112095825374],[5.603798059746623,51.76112037152052],[5.603801077231765,51.761121628805995],[5.603841310366988,51.761120706796646],[5.60392152518034,51.76114534959197],[5.604019174352288,51.761166136711836],[5.60407985933125,51.76117518916726],[5.60414481908083,51.76119111478329],[5.604147249832749,51.76119228824973],[5.604189243167639,51.76120150834322],[5.604232242330909,51.76120871677995],[5.604272475466132,51.76121341064572],[5.60433248989284,51.761233024299145],[5.6044187396764755,51.76126127131283],[5.604440197348595,51.76126395352185],[5.60446877963841,51.761272586882114],[5.604554861783981,51.76129890605807],[5.60459484346211,51.761302845552564],[5.6046228390187025,51.761303935199976],[5.604687463492155,51.761308712884784],[5.604731636121869,51.76132128573954],[5.604775305837393,51.76132304593921],[5.6048911437392235,51.761324387043715],[5.604944201186299,51.761329751461744],[5.604987787082791,51.761329751461744],[5.604998515918851,51.76133922301233],[5.605003461241722,51.76134224049747],[5.605062888935208,51.76135925576091],[5.605121562257409,51.7613719124347],[5.605151737108827,51.7613803781569],[5.6051950715482235,51.76139303483069],[5.605264892801642,51.761404434219],[5.605329601094127,51.761420192196965],[5.605365810915828,51.76142673008144],[5.605391710996628,51.76143444143236],[5.605465974658728,51.76145573146641],[5.605517020449042,51.761492947116494],[5.605598744004965,51.761525217443705],[5.6056038569658995,51.76152102649212],[5.605629421770573,51.76153267733753],[5.605684407055378,51.76154659129679],[5.605738051235676,51.76157626323402],[5.60575389303267,51.76158280111849],[5.6057764403522015,51.761591266840696],[5.605838298797607,51.7616047617048],[5.605920692905784,51.76163770258427],[5.605983724817634,51.761662010103464],[5.606080200523138,51.76169545389712],[5.606105262413621,51.76170718856156],[5.606122110038996,51.76170735619962],[5.6061613373458385,51.761710457503796],[5.606260662898421,51.76173996180296],[5.606316486373544,51.76176343113184],[5.606356132775545,51.76178195513785],[5.606393851339817,51.76179234869778],[5.606483034789562,51.761804753914475],[5.606537768617272,51.76180969923735],[5.6065483298152685,51.76181003451347],[5.6066033989191055,51.76182654686272],[5.606663413345814,51.76184607669711],[5.6066755671054125,51.761847753077745],[5.6067868787795305,51.76187926903367],[5.606863489374518,51.761884884908795],[5.606932053342462,51.761911706998944],[5.606979830190539,51.761931236833334],[5.606985110789537,51.761934673413634],[5.607075383886695,51.76196719519794],[5.607159035280347,51.7619898263365],[5.607259199023247,51.76201304420829],[5.6073355581611395,51.762030981481075],[5.607347209006548,51.76203701645136],[5.607337821274996,51.76204481162131],[5.607331031933427,51.76204288378358],[5.607327427715063,51.76204238086939],[5.607325918972492,51.762041710317135],[5.60735609382391,51.76204590126872],[5.607444019988179,51.76205864176154],[5.607521133497357,51.76208211109042],[5.607539406046271,51.76209292374551],[5.6075487937778234,51.76210599951446],[5.6075867637991905,51.76212502643466],[5.607677791267633,51.76215369254351],[5.607696650549769,51.76215687766671],[5.607772758230567,51.76217330619693],[5.607784492895007,51.762178083881736],[5.607811147347093,51.76218462176621],[5.6078700721263885,51.762198619544506],[5.607898822054267,51.76221454516053],[5.607997225597501,51.76224187016487],[5.608052462339401,51.76225293427706],[5.60810417868197,51.76227246411145],[5.60814818367362,51.762281181290746],[5.60823124833405,51.76229417324066],[5.608300231397152,51.76231655292213],[5.608361838385463,51.7623354960233],[5.608428223058581,51.76236097700894],[5.6085253693163395,51.762385200709105],[5.608579600229859,51.76239366643131],[5.60859527438879,51.762398947030306],[5.608623018488288,51.76240732893348],[5.60866174288094,51.76241571083665],[5.608745813369751,51.7624285351485],[5.608802642673254,51.762447813525796],[5.608822591602802,51.76245091482997],[5.608892580494285,51.762464828789234],[5.608911020681262,51.762471282854676],[5.608940273523331,51.76247924566269],[5.609022080898285,51.76249701529741],[5.609067426994443,51.76251109689474],[5.609124172478914,51.76252752542496],[5.609184019267559,51.76256298087537],[5.609206398949027,51.76257614046335],[5.609281249344349,51.76260329782963],[5.60936976224184,51.762616373598576],[5.609453245997429,51.76263372413814],[5.609542513266206,51.76265174522996],[5.609625326469541,51.76266448572278],[5.609639408066869,51.76266440190375],[5.6096910405904055,51.762667167931795],[5.609762035310268,51.76268099807203],[5.60977578163147,51.76268502138555],[5.609811823815107,51.762699438259006],[5.609832024201751,51.76270371302962],[5.6098762806504965,51.76271561533213],[5.60989698395133,51.76271100528538],[5.609908048063517,51.762709664180875],[5.609907377511263,51.76272751763463],[5.609890362247825,51.76273631863296],[5.609928667545319,51.762740509584546],[5.610005613416433,51.76275031641126],[5.610040398314595,51.7627583630383],[5.610082056373358,51.76276255398989],[5.610092282295227,51.762762386351824],[5.610173251479864,51.76276213489473],[5.610190099105239,51.762760961428285],[5.610272325575352,51.76276917569339],[5.610311385244131,51.76277479156852],[5.610358659178019,51.7627808265388],[5.610439041629434,51.76280094310641],[5.610487908124924,51.762822568416595],[5.610519675537944,51.762833800166845],[5.610580779612064,51.76286280155182],[5.610586982220411,51.76286791451275],[5.610604165121913,51.762869926169515],[5.610638363286853,51.76287369802594],[5.610652444884181,51.76287495531142],[5.610744226723909,51.76287202164531],[5.610792757943273,51.76287361420691],[5.610807174816728,51.762882666662335],[5.610814047977328,51.76288233138621],[5.610793428495526,51.762887025251985],[5.610814047977328,51.762886606156826],[5.610893424600363,51.762877721339464],[5.610988894477487,51.7628984246403],[5.6110631581395864,51.76290932111442],[5.611162567511201,51.762915439903736],[5.611245548352599,51.76292289979756],[5.611255522817373,51.76292533054948],[5.6112810876220465,51.762935388833284],[5.611313106492162,51.76293714903295],[5.61139315366745,51.76295969635248],[5.61141318641603,51.76297168247402],[5.611421735957265,51.76297344267368],[5.611498011276126,51.76299615763128],[5.611547632142901,51.763009652495384],[5.611610747873783,51.76301325671375],[5.61167704872787,51.76302742213011],[5.611749300733209,51.763037564232945],[5.611776374280453,51.76303530111909],[5.611848458647728,51.76302566193044],[5.611926577985287,51.76302172243595],[5.6119554955512285,51.76303253509104],[5.612001428380609,51.763038570061326],[5.612089103087783,51.76304561085999],[5.612144423648715,51.76305340602994],[5.612204857170582,51.76306128501892],[5.6122453417629,51.76307050511241],[5.612332681193948,51.76308064721525],[5.6124090403318405,51.7630953155458],[5.612430414184928,51.763101099058986],[5.61250627040863,51.76313563250005],[5.612588496878743,51.76316304132342],[5.612666867673397,51.763176871463656],[5.612710537388921,51.763204699382186],[5.612759990617633,51.763224648311734],[5.612782454118133,51.76323923282325],[5.61291815713048,51.76327284425497],[5.612998623400927,51.7633075453341],[5.6130684446543455,51.763320956379175],[5.613105660304427,51.763328248634934],[5.613183863461018,51.76335942931473],[5.613258462399244,51.763379545882344],[5.613298695534468,51.7633921187371],[5.6133264396339655,51.76340687088668],[5.613341359421611,51.76341340877116],[5.613396679982543,51.76343562081456],[5.613428866490722,51.763461604714394],[5.613511260598898,51.76345313899219],[5.613605389371514,51.76342187449336],[5.613621482625604,51.76341776736081],[5.613630535081029,51.763413827866316],[5.613667583093047,51.76338465884328],[5.61369264498353,51.76335347816348],[5.613722568377852,51.76334953866899],[5.613762130960822,51.76332355476916],[5.613771351054311,51.76332087256014],[5.613851314410567,51.76329086534679],[5.613861456513405,51.763281393796206],[5.613862629979849,51.76327971741557],[5.613855589181185,51.763279382139444],[5.6138424295932055,51.76329078152776],[5.613883920013905,51.76326731219888],[5.613977378234267,51.76322204992175],[5.613990034908056,51.76319036632776],[5.614008642733097,51.76314535550773],[5.614037057384849,51.76310470327735],[5.614038733765483,51.76309196278453],[5.61405616812408,51.76303328946233],[5.614058766514063,51.76302230916917],[5.614101262763143,51.762963216751814],[5.614122468978167,51.76286975853145],[5.61417443677783,51.7628170363605],[5.614190446212888,51.76279155537486],[5.614188853651285,51.76278971135616],[5.614190446212888,51.7627948243171],[5.614184075966477,51.76279935054481],[5.614184075966477,51.762791303917766],[5.614171167835593,51.762808403000236],[5.614166222512722,51.76280429586768],[5.614164043217897,51.762805134058],[5.614167647436261,51.76281753927469],[5.614157756790519,51.76280362531543],[5.614155996590853,51.76277621649206],[5.614157756790519,51.76273724064231],[5.614174352958798,51.762715280056],[5.614215759560466,51.762675046920776],[5.6142497062683105,51.76261704415083],[5.614284910261631,51.76255024038255],[5.614330256357789,51.76250900141895],[5.614361520856619,51.762458961457014],[5.614374680444598,51.76244211383164],[5.61440359801054,51.7624131962657],[5.614402676001191,51.7624010425061],[5.614407202228904,51.76233817823231],[5.614413237199187,51.76230389624834],[5.614408208057284,51.76227791234851],[5.614405944943428,51.76223139278591],[5.614421786740422,51.76218839362264],[5.614422541111708,51.762144388630986],[5.614460092037916,51.76207071170211],[5.614466210827231,51.76205185241997],[5.614468641579151,51.76205453462899],[5.614471910521388,51.762060821056366],[5.614488674327731,51.762060318142176],[5.614489261060953,51.76205025985837],[5.614488003775477,51.76204791292548],[5.614484567195177,51.76205025985837],[5.614479705691338,51.76204338669777],[5.614490183070302,51.762049002572894],[5.614510802552104,51.76205696538091],[5.614519268274307,51.762054450809956],[5.614517172798514,51.762057887390256],[5.614519268274307,51.76206652075052],[5.614541731774807,51.762070041149855],[5.614550616592169,51.76207188516855],[5.614558830857277,51.762067107483745],[5.614545084536076,51.76205419935286],[5.614491859450936,51.762046571820974],[5.614456404000521,51.76204632036388],[5.614495128393173,51.76205076277256],[5.614496637135744,51.76204942166805],[5.614506443962455,51.76204497925937],[5.614495296031237,51.76204833202064],[5.614484064280987,51.7620469070971],[5.614490015432239,51.76204741001129],[5.614492446184158,51.76205084659159],[5.614507282152772,51.762042213231325],[5.614508120343089,51.76198513247073],[5.614520190283656,51.76194188185036],[5.614523962140083,51.76191003061831],[5.614533433690667,51.76189770922065],[5.614546509459615,51.76189192570746],[5.614532008767128,51.76187390461564],[5.6145133171230555,51.761854626238346],[5.614528069272637,51.7618050891906],[5.614559501409531,51.76175085827708],[5.6146028358489275,51.761724203825],[5.614620102569461,51.761705595999956],[5.614644158631563,51.76168371923268],[5.614633010700345,51.76168229430914],[5.614648601040244,51.76167793571949],[5.6146532110869884,51.761658573523164],[5.614692103117704,51.76159537397325],[5.614723032340407,51.761530665680766],[5.614741472527385,51.761468052864075],[5.6147874891757965,51.76140175200999],[5.6148269679397345,51.761347856372595],[5.61485412530601,51.76129337400198],[5.614867620170116,51.761266216635704],[5.614878768101335,51.761206621304154],[5.614894777536392,51.761163119226694],[5.614901734516025,51.76113998517394],[5.614903662353754,51.76108097657561],[5.614924030378461,51.76102456636727],[5.614956468343735,51.76098098047078],[5.614979434758425,51.760929599404335],[5.6149927619844675,51.760906213894486],[5.615017991513014,51.76084427163005],[5.6150381080806255,51.76082683727145],[5.615032408386469,51.76079045981169],[5.6150557938963175,51.76075014285743],[5.6150861363857985,51.76068945787847],[5.615119747817516,51.760667664930224],[5.615125363692641,51.76065995357931],[5.6151361763477325,51.76063908264041],[5.615144306793809,51.760589545592666],[5.6151676923036575,51.760543528944254],[5.615213373675942,51.76048217341304],[5.615259390324354,51.76040413789451],[5.615294594317675,51.76036725752056],[5.615320326760411,51.760340351611376],[5.615337677299976,51.76031621173024],[5.6153809279203415,51.76026382483542],[5.615400290116668,51.76021730527282],[5.615418143570423,51.76016382873058],[5.615451671183109,51.76011085510254],[5.615454101935029,51.760086212307215],[5.6154657527804375,51.760012870654464],[5.615478912368417,51.75994095392525],[5.615507243201137,51.759900636971],[5.615505566820502,51.759855039417744],[5.6155039742589,51.75984959118068],[5.615481259301305,51.759853698313236],[5.6154863722622395,51.75986618734896],[5.615494754165411,51.75988110713661],[5.61549617908895,51.75987280905247],[5.615489557385445,51.75983835943043],[5.615495508536696,51.75984414294362],[5.61550154350698,51.75984707660973],[5.6154922395944595,51.759786643087864],[5.615491485223174,51.759764682501554],[5.615520402789116,51.759715396910906],[5.615558372810483,51.75967357121408],[5.615567844361067,51.759639624506235],[5.615574968978763,51.75961699336767],[5.615591984242201,51.75958212465048],[5.615600366145372,51.75956603139639],[5.6156062334775925,51.759557565674186],[5.615619560703635,51.759535605087876],[5.615622159093618,51.759527726098895],[5.615643281489611,51.759483721107244],[5.61567060649395,51.75945069640875],[5.615681000053883,51.759432926774025],[5.615689801052213,51.75937458872795],[5.615723077207804,51.75931532867253],[5.615737410262227,51.75926453433931],[5.615739757195115,51.75925397314131],[5.61573171056807,51.75921977497637],[5.615733470767736,51.7591891810298],[5.615738332271576,51.75914827734232],[5.61574487015605,51.759136794134974],[5.615760125219822,51.75910519436002],[5.61576884239912,51.75903134979308],[5.615783091634512,51.758953565731645],[5.615782421082258,51.758893718943],[5.615763729438186,51.75886773504317],[5.615770351141691,51.75885801203549],[5.615771859884262,51.75883982330561],[5.615766830742359,51.75884778611362],[5.61574880965054,51.75884401425719],[5.615696171298623,51.758798584342],[5.615669265389442,51.75874854438007],[5.615611346438527,51.75868844613433],[5.615565497428179,51.758642764762044],[5.615532724186778,51.75857897847891],[5.615534316748381,51.75856648944318],[5.61551621183753,51.75853882916272],[5.615517720580101,51.75851569510996],[5.615567425265908,51.7584774736315],[5.61561880633235,51.7584552615881],[5.615670522674918,51.758435647934675],[5.615700781345367,51.75842030905187],[5.615773284807801,51.7583913076669],[5.6158321257680655,51.7583392560482],[5.615837909281254,51.758333975449204],[5.615876633673906,51.758315870538354],[5.615922482684255,51.75828309729695],[5.615968331694603,51.75824135541916],[5.616015270352364,51.758193746209145],[5.616045696660876,51.75815787166357],[5.616050139069557,51.75815242342651],[5.6160771287977695,51.75815485417843],[5.616118116304278,51.75815527327359],[5.616170754656196,51.75815703347325],[5.616223560646176,51.75816558301449],[5.61622180044651,51.75816876813769],[5.616258764639497,51.758183520287275],[5.616288771852851,51.75819827243686],[5.61635666526854,51.758207911625504],[5.616376027464867,51.75821763463318],[5.616389354690909,51.758236242458224],[5.61644459143281,51.75825862213969],[5.61650569550693,51.7582789901644],[5.616517262533307,51.7582877073437],[5.616520866751671,51.75827857106924],[5.61651692725718,51.758279325440526],[5.616496726870537,51.75827303901315],[5.616473089903593,51.75828913226724],[5.616465965285897,51.75829265266657],[5.6164761912077665,51.758314445614815],[5.6165082938969135,51.75835283473134],[5.616586664691567,51.758399438112974],[5.616645505651832,51.75843145698309],[5.616653971374035,51.75843531265855],[5.616679955273867,51.7584481369704],[5.616686325520277,51.75845744088292],[5.616732006892562,51.75848753191531],[5.616737455129623,51.758487364277244],[5.616775508970022,51.75852491520345],[5.616811215877533,51.7585398349911],[5.616847425699234,51.75854628905654],[5.616883635520935,51.75855081528425],[5.61692588031292,51.75856531597674],[5.616934262216091,51.7585657350719],[5.61696887947619,51.758587108924985],[5.616999473422766,51.75863170064986],[5.617015566676855,51.75866690464318],[5.617030654102564,51.75867813639343],[5.6170610804110765,51.75873655825853],[5.617066863924265,51.758785508573055],[5.6170770060271025,51.75879263319075],[5.617072060704231,51.75879414193332],[5.617082621902227,51.75879464484751],[5.617084465920925,51.75876086577773],[5.617081951349974,51.75876782275736],[5.617076922208071,51.75877067260444],[5.617068707942963,51.758776707574725],[5.617036018520594,51.758800679817796],[5.616987571120262,51.758819203823805],[5.61695228330791,51.75885256379843],[5.616947924718261,51.758855916559696],[5.616947589442134,51.75888827070594],[5.61694985255599,51.75890637561679],[5.616945493966341,51.75892557017505],[5.616959324106574,51.75894954241812],[5.616948092356324,51.75900528207421],[5.616995450109243,51.75905263982713],[5.617019673809409,51.75907074473798],[5.617022356018424,51.75908834673464],[5.617020260542631,51.759094800800085],[5.617065187543631,51.75912614911795],[5.617100978270173,51.75916504114866],[5.6171229388564825,51.7591891810298],[5.617137188091874,51.759205693379045],[5.61713794246316,51.75923561677337],[5.617150347679853,51.75924542360008],[5.617168452590704,51.75929353572428],[5.617165016010404,51.75933284685016],[5.617168368771672,51.75937945023179],[5.6171509344130754,51.75944457761943],[5.617153951898217,51.75948020070791],[5.617148419842124,51.75949092954397],[5.617146324366331,51.759494030848145],[5.6171306502074,51.759523786604404],[5.6171200051903725,51.759568210691214],[5.617139367386699,51.7596154846251],[5.6171482522040606,51.75963358953595],[5.617177840322256,51.759661165997386],[5.617188820615411,51.759702656418085],[5.617188233882189,51.75970869138837],[5.61719854362309,51.759721767157316],[5.617203740403056,51.75969310104847],[5.617246320471168,51.759643480181694],[5.617252942174673,51.759632835164666],[5.617251684889197,51.75962227396667],[5.617277752608061,51.75960852764547],[5.617289068177342,51.75960551016033],[5.617336258292198,51.759585812687874],[5.617338437587023,51.75957935862243],[5.617384873330593,51.759571228176355],[5.6174159701913595,51.759558990597725],[5.617436338216066,51.75955547019839],[5.617442121729255,51.759557984769344],[5.6174492463469505,51.75954909995198],[5.617478247731924,51.75953317433596],[5.617458885535598,51.759494952857494],[5.617445977404714,51.75949579104781],[5.617440864443779,51.75950098782778],[5.617495262995362,51.7594894208014],[5.617505069822073,51.75948699004948],[5.617534993216395,51.75948648713529],[5.617581848055124,51.759509202092886],[5.617583440616727,51.75951976329088],[5.617587044835091,51.7595256306231],[5.6176012102514505,51.759556056931615],[5.617608167231083,51.75956267863512],[5.617630463093519,51.75958229228854],[5.617654267698526,51.75961397588253],[5.617661979049444,51.75962327979505],[5.61769450083375,51.75969377160072],[5.6177193112671375,51.75973266363144],[5.617739092558622,51.75976820290089],[5.617744456976652,51.75979116931558],[5.617747977375984,51.759801395237446],[5.617780415341258,51.75986115820706],[5.61781813390553,51.75990516319871],[5.617842106148601,51.75993885844946],[5.617847889661789,51.75994765944779],[5.617856606841087,51.75996073521674],[5.617888541892171,51.76001764833927],[5.617912681773305,51.76008059643209],[5.61793589964509,51.76013834774494],[5.617952914908528,51.76020364277065],[5.617947299033403,51.76021261140704],[5.617956854403019,51.76023314706981],[5.617982503026724,51.760274302214384],[5.617993231862783,51.76033523865044],[5.618003876879811,51.76034873351455],[5.618026256561279,51.760377986356616],[5.618075542151928,51.760427355766296],[5.6181098241358995,51.76046825945377],[5.618127761408687,51.76052802242339],[5.618146788328886,51.760537577793],[5.618170090019703,51.76055643707514],[5.618198839947581,51.760607650503516],[5.618234798312187,51.760657941922545],[5.61824569478631,51.760706808418036],[5.6182570941746235,51.76072935573757],[5.6182709243148565,51.760762212798],[5.61830772086978,51.76079800352454],[5.618329513818026,51.76081200130284],[5.61835709027946,51.76083714701235],[5.6183769553899765,51.7608676571399],[5.618402771651745,51.76089825108647],[5.618441663682461,51.760949632152915],[5.618451721966267,51.76095809787512],[5.618500001728535,51.76101484335959],[5.618497906252742,51.761026829481125],[5.618520537391305,51.76103537902236],[5.618562949821353,51.761048873886466],[5.6186929531395435,51.761073684319854],[5.6187760177999735,51.76107192412019],[5.618815999478102,51.76106580533087],[5.6189091224223375,51.76104904152453],[5.618969472125173,51.76105096936226],[5.619079191237688,51.76103018224239],[5.619133757427335,51.761023392900825],[5.619277758523822,51.76100671291351],[5.619302401319146,51.76100713200867],[5.619382197037339,51.76100394688547],[5.6194389425218105,51.76100612618029],[5.619555367156863,51.7609934695065],[5.619639605283737,51.76099539734423],[5.619736583903432,51.76097419112921],[5.619809841737151,51.76096111536026],[5.61987723223865,51.760952984914184],[5.619977982714772,51.76094485446811],[5.620061131194234,51.76093462854624],[5.6201316229999065,51.76094443537295],[5.620161294937134,51.76096606068313],[5.620165569707751,51.76097134128213],[5.620198342949152,51.76097829826176],[5.6202491372823715,51.761006293818355],[5.620304541662335,51.76104401238263],[5.620310073718429,51.761047365143895],[5.620345780625939,51.76108667626977],[5.6203993409872055,51.7611264064908],[5.6204273365437984,51.761155826970935],[5.620444938540459,51.761185079813],[5.620489614084363,51.76123050972819],[5.620537726208568,51.76128407008946],[5.620566140860319,51.76132991909981],[5.620570834726095,51.76132111810148],[5.620511574670672,51.76136554218829],[5.620479891076684,51.76138616167009],[5.620463965460658,51.761410385370255],[5.620521968230605,51.76144148223102],[5.620591621845961,51.76145036704838],[5.620626574382186,51.76146729849279],[5.620655994862318,51.76152194850147],[5.620689271017909,51.7615529615432],[5.62074257992208,51.761617586016655],[5.620761020109057,51.76165052689612],[5.620743669569492,51.761685563251376],[5.620730007067323,51.76173719577491],[5.620769988745451,51.76180073060095],[5.620782310143113,51.761878933757544],[5.6207627803087234,51.76192184910178],[5.6207524705678225,51.761983120813966],[5.620741406455636,51.762028131634],[5.620747609063983,51.76207481883466],[5.620746519416571,51.7621055804193],[5.620790859684348,51.76219635643065],[5.620879037305713,51.76223776303232],[5.62090091407299,51.76223826594651],[5.6209680531173944,51.76224807277322],[5.621030833572149,51.76226760260761],[5.621147258207202,51.76227615214884],[5.6212180852890015,51.76226961426437],[5.6212392915040255,51.762276235967875],[5.621300311759114,51.762285036966205],[5.621424028649926,51.7622768227011],[5.621488569304347,51.762264585122466],[5.621604826301336,51.762240529060364],[5.621693171560764,51.76223549991846],[5.621755532920361,51.76223340444267],[5.6218282878398895,51.76221881993115],[5.6218998692929745,51.76220172084868],[5.621923925355077,51.762198116630316],[5.621995506808162,51.762190237641335],[5.622060718014836,51.762195685878396],[5.62207555398345,51.76219535060227],[5.622076811268926,51.76222275942564],[5.622057784348726,51.762238098308444],[5.622054515406489,51.762268021702766],[5.6220559403300285,51.76233516074717],[5.622075134888291,51.76238578744233],[5.622070105746388,51.762444293126464],[5.622043032199144,51.76250388845801],[5.622036661952734,51.76251587457955],[5.62202375382185,51.76254705525935],[5.621998021379113,51.762602208182216],[5.621978156268597,51.76264395006001],[5.621954100206494,51.76270438358188],[5.621939599514008,51.76276649348438],[5.621902970597148,51.762842098250985],[5.621885033324361,51.762909991666675],[5.621858965605497,51.76297134719789],[5.621840609237552,51.763015100732446],[5.621801046654582,51.763083916157484],[5.621775984764099,51.76316278986633],[5.621755532920361,51.763196904212236],[5.621682442724705,51.76323973573744],[5.621628798544407,51.76325557753444],[5.621556714177132,51.76332598552108],[5.621534585952759,51.76336973905563],[5.621539279818535,51.763379629701376],[5.621515307575464,51.7634441703558],[5.621487982571125,51.763504603877664],[5.62145696952939,51.76355263218284],[5.621448755264282,51.76356512121856],[5.6213930156081915,51.76365262828767],[5.62136803753674,51.763713313266635],[5.621322859078646,51.76378045231104],[5.621301485225558,51.763817835599184],[5.621264185756445,51.76389930769801],[5.621226131916046,51.76397298462689],[5.621201153844595,51.764027466997504],[5.6211768463253975,51.764091001823545],[5.6211591605097055,51.764121344313025],[5.621151197701693,51.76413224078715],[5.621127979829907,51.764176078140736],[5.621127560734749,51.76418462768197],[5.621116496622562,51.76420222967863],[5.621102079749107,51.764251347631216],[5.621092356741428,51.7642951849848],[5.621072240173817,51.764318738132715],[5.621056649833918,51.76438705064356],[5.62103770673275,51.76446466706693],[5.621001161634922,51.76451747305691],[5.620992695912719,51.76458343863487],[5.620960844680667,51.76465082913637],[5.62093410640955,51.76472341641784],[5.620899572968483,51.76479893736541],[5.620905105024576,51.76481251604855],[5.620906446129084,51.764856772497296],[5.620907451957464,51.7648805771023],[5.620896052569151,51.76491963677108],[5.620868476107717,51.76498677581549],[5.6208655424416065,51.76506103947759],[5.620856573805213,51.76507629454136],[5.620823297649622,51.7651192098856],[5.620820866897702,51.76514033228159],[5.620799995958805,51.765191964805126],[5.62079438008368,51.7652328684926],[5.620750794187188,51.7653002589941],[5.620730929076672,51.765370750799775],[5.620708465576172,51.76541551016271],[5.620701424777508,51.7654265742749],[5.620670411735773,51.765501173213124],[5.620654653757811,51.765579376369715],[5.620621042326093,51.76562204025686],[5.620620539411902,51.76563142798841],[5.6205954775214195,51.76568909548223],[5.620553232729435,51.76572220399976],[5.620510149747133,51.76576419733465],[5.620504282414913,51.76577107049525],[5.620460361242294,51.765778278931975],[5.620418535545468,51.76579311490059],[5.620414093136787,51.765788923949],[5.620425827801228,51.76576763391495],[5.620407052338123,51.765776770189404],[5.620419792830944,51.765778195112944],[5.620449297130108,51.76578531973064],[5.620478382334113,51.76580158062279],[5.620483662933111,51.765812980011106],[5.6204950623214245,51.76581859588623],[5.6205513048917055,51.76584986038506],[5.620565302670002,51.76585195586085],[5.620614839717746,51.76585958339274],[5.620665466412902,51.76587685011327],[5.620717015117407,51.765891099348664],[5.62073620967567,51.765898894518614],[5.6207439210265875,51.76590174436569],[5.620761858299375,51.76590174436569],[5.62084031291306,51.76591197028756],[5.620893370360136,51.765921441838145],[5.620941733941436,51.7659273929894],[5.620983811095357,51.76592789590359],[5.621062181890011,51.76593862473965],[5.621109958738089,51.76593837328255],[5.62116083689034,51.765940552577376],[5.621193945407867,51.765933092683554],[5.62123510055244,51.76592839881778],[5.6213529501110315,51.765923872590065],[5.6214360147714615,51.76591725088656],[5.621534753590822,51.76587098278105],[5.621549841016531,51.76581021398306],[5.621526287868619,51.76580526866019],[5.6215341668576,51.76580032333732]]}}