{"type":"Feature","properties":{"name":"Midzomeravond","date":"2026-06-21","distance":"19.87 km","ascent":"170 m"},"geometry":{"type":"LineString","coordinates":[[5.479044243693352,51.4106606785208],[5.4789854027330875,51.41063746064901],[5.4789206106215715,51.410619523376226],[5.478775352239609,51.410625306889415],[5.478635290637612,51.41063695773482],[5.47849883325398,51.4106432441622],[5.478458264842629,51.41064232215285],[5.478296494111419,51.41066369600594],[5.478254500776529,51.41067534685135],[5.478127598762512,51.4106900151819],[5.478020729497075,51.41069361940026],[5.478004300966859,51.41069412231445],[5.477965995669365,51.41069822944701],[5.477947723120451,51.41070082783699],[5.477807326242328,51.41067769378424],[5.477780336514115,51.410658499225974],[5.477726440876722,51.41059705987573],[5.477715712040663,51.41046395525336],[5.47768872231245,51.410329677164555],[5.477641364559531,51.41024828888476],[5.477555366232991,51.41015407629311],[5.477430140599608,51.41007059253752],[5.477285636588931,51.40998895280063],[5.477162171155214,51.409955844283104],[5.476963352411985,51.40992441214621],[5.476764785125852,51.40991603024304],[5.476560015231371,51.40992625616491],[5.476456247270107,51.40985794365406],[5.476431353017688,51.40975283458829],[5.476377038285136,51.40967085957527],[5.476336721330881,51.40957656316459],[5.476276203989983,51.409460976719856],[5.476202359423041,51.40934647992253],[5.476112086325884,51.40922661870718],[5.476056011393666,51.40912352129817],[5.475994655862451,51.40899854712188],[5.475911255925894,51.408896036446095],[5.4757708590477705,51.40883535146713],[5.475585451349616,51.40885228291154],[5.47541513107717,51.40886401757598],[5.4752616584300995,51.40887130983174],[5.475235087797046,51.40885462984443],[5.475206086412072,51.40883568674326],[5.475176582112908,51.40884222462773],[5.475165853276849,51.40882646664977],[5.475140539929271,51.408794363960624],[5.475139701738954,51.40879159793258],[5.475138276815414,51.40876720659435],[5.475149005651474,51.40873644500971],[5.475178174674511,51.408685985952616],[5.475185215473175,51.40867358073592],[5.4752460680902,51.408626306802034],[5.475290659815073,51.40859445556998],[5.475342124700546,51.40854097902775],[5.475419070571661,51.40847568400204],[5.475484868511558,51.40840125270188],[5.475524766370654,51.40835448168218],[5.475565753877163,51.40831056050956],[5.475664660334587,51.40822154469788],[5.475803799927235,51.40814962796867],[5.475896587595344,51.408100510016084],[5.476028770208359,51.408044351264834],[5.4761245753616095,51.40797100961208],[5.476132035255432,51.407961286604404],[5.476151313632727,51.407879646867514],[5.4760777205228806,51.407749727368355],[5.475987363606691,51.40767177566886],[5.475891223177314,51.40761226415634],[5.475764321163297,51.407535737380385],[5.475638844072819,51.40745376236737],[5.475569190457463,51.407349072396755],[5.475565167143941,51.407237173989415],[5.475668180733919,51.407146733254194],[5.475810002535582,51.407036846503615],[5.475897928699851,51.406942047178745],[5.4759893752634525,51.4068563003093],[5.476012676954269,51.40682394616306],[5.47604494728148,51.406764686107635],[5.4760518204420805,51.40672093257308],[5.476075541228056,51.40666670165956],[5.476054335013032,51.406568717211485],[5.475892061367631,51.406515995040536],[5.47573565505445,51.406469643116],[5.475626355037093,51.406377190724015],[5.475454945117235,51.40628105029464],[5.475268950685859,51.40626520849764],[5.47512193210423,51.40624391846359],[5.474999807775021,51.406218437477946],[5.474981535226107,51.406213995069265],[5.474848430603743,51.406168565154076],[5.474678697064519,51.40611517243087],[5.474497731775045,51.4060845784843],[5.474288435652852,51.4060721732676],[5.474099088460207,51.40607208944857],[5.473902029916644,51.40607435256243],[5.473700948059559,51.406068820506334],[5.473510595038533,51.40608382411301],[5.473305657505989,51.40607887879014],[5.4731515143066645,51.40598718076944],[5.47307850793004,51.405892884358764],[5.4731332417577505,51.4058099873364],[5.4731117002666,51.40577067621052],[5.473207086324692,51.40535526908934],[5.473194094374776,51.40535434707999],[5.4732266161590815,51.40528234653175],[5.473297024145722,51.40518402680755],[5.4733741376549006,51.40506785362959],[5.473378747701645,51.40505385585129],[5.473428703844547,51.40495209954679],[5.473420573398471,51.404859060421586],[5.473328707739711,51.40483693219721],[5.473159728571773,51.40483492054045],[5.473102815449238,51.40483475290239],[5.472890669479966,51.40483726747334],[5.472685061395168,51.404835591092706],[5.4724909365177155,51.40483810566366],[5.47227225266397,51.40483274124563],[5.472067566588521,51.40483047813177],[5.471892300993204,51.404830645769835],[5.4716636426746845,51.404839027673006],[5.471543362364173,51.40484011732042],[5.471355188637972,51.4048754889518],[5.471182269975543,51.40493592247367],[5.471066180616617,51.40496542677283],[5.470996107906103,51.404984621331096],[5.470884125679731,51.40499803237617],[5.470702908933163,51.404999289661646],[5.470515489578247,51.404990488663316],[5.470322370529175,51.404990488663316],[5.470182811841369,51.404919661581516],[5.470027159899473,51.40482117421925],[5.469871172681451,51.40472771599889],[5.469742007553577,51.404628390446305],[5.469587109982967,51.404566783457994],[5.46945090405643,51.40450408682227],[5.46933364123106,51.40440442599356],[5.469198524951935,51.404377771541476],[5.469047399237752,51.404330329969525],[5.468869199976325,51.40428414568305],[5.468693012371659,51.40424148179591],[5.4684915114194155,51.404191525653005],[5.468275174498558,51.404158333316445],[5.468067806214094,51.404141150414944],[5.467876698821783,51.404122626408935],[5.4676424246281385,51.40411516651511],[5.467500602826476,51.404113909229636],[5.467344531789422,51.40416151843965],[5.4672921448946,51.4042591676116],[5.467315446585417,51.40431683510542],[5.467326678335667,51.404368467628956],[5.467328941449523,51.404481288045645],[5.467365821823478,51.404537027701735],[5.467403624206781,51.404549181461334],[5.467571262270212,51.40460500493646],[5.467763291671872,51.40465437434614],[5.467853816226125,51.404687482863665],[5.467897653579712,51.40474531799555],[5.467898324131966,51.404761327430606],[5.467913998290896,51.404845817014575],[5.467910310253501,51.404887894168496],[5.467852223664522,51.404919661581516],[5.467783911153674,51.40492217615247],[5.467576961964369,51.40489703044295],[5.467455089092255,51.4049172308296],[5.467402283102274,51.404923014342785],[5.467333467677236,51.40492611564696],[5.467104725539684,51.404918655753136],[5.466932896524668,51.40493935905397],[5.466747405007482,51.40496676787734],[5.466530648991466,51.4049566257745],[5.466373069211841,51.40495805069804],[5.466212220489979,51.40499669127166],[5.466061849147081,51.405016891658306],[5.465823132544756,51.40502820722759],[5.465709809213877,51.40502544119954],[5.465555330738425,51.40502451919019],[5.465359361842275,51.40501697547734],[5.465172529220581,51.405034577474],[5.465019727125764,51.40500188805163],[5.464947056025267,51.40498923137784],[5.4648566991090775,51.40499643981457],[5.464697107672691,51.404979089275],[5.464687719941139,51.404963582754135],[5.464714709669352,51.40486744232476],[5.464809173718095,51.40476727858186],[5.46480062417686,51.4046077709645],[5.464820489287376,51.40448983758688],[5.464772125706077,51.40447181649506],[5.464709931984544,51.40447575598955],[5.464531481266022,51.40449511818588],[5.464304331690073,51.404493944719434],[5.464110039174557,51.40448547899723],[5.463941479101777,51.40446745790541],[5.463879453018308,51.40444281511009],[5.4638149961829185,51.4044248778373],[5.463642245158553,51.40444256365299],[5.463463207706809,51.40444776043296],[5.463297162204981,51.404447089880705],[5.463126841932535,51.404375759884715],[5.46301418915391,51.40431641601026],[5.462909331545234,51.40431306324899],[5.462707746773958,51.404308788478374],[5.462543461471796,51.40429336577654],[5.462444555014372,51.4042195212096],[5.462267780676484,51.40415724366903],[5.462250849232078,51.404152968898416],[5.462225452065468,51.40415665693581],[5.462072733789682,51.40413754619658],[5.461963601410389,51.40410150401294],[5.461830496788025,51.40409370884299],[5.461784983053803,51.40401827171445],[5.461775427684188,51.4039171859622],[5.4617496114224195,51.403797660022974],[5.461709378287196,51.40367427840829],[5.461684903129935,51.40357109718025],[5.461637880653143,51.40345743857324],[5.461562275886536,51.403336906805634],[5.461488263681531,51.40323473140597],[5.461452389135957,51.40315979719162],[5.461419364437461,51.403064746409655],[5.461380807682872,51.4029586315155],[5.461352979764342,51.40286265872419],[5.4613228887319565,51.40274933539331],[5.461261784657836,51.402623103931546],[5.461206045001745,51.40248974785209],[5.46116279438138,51.40237810090184],[5.4610940627753735,51.40223594382405],[5.46107729896903,51.40212505124509],[5.46099029481411,51.40198331326246],[5.460958443582058,51.40186990611255],[5.460870433598757,51.40174929052591],[5.4607815854251385,51.40166563913226],[5.460713021457195,51.401582239195704],[5.460611516609788,51.401478722691536],[5.460679829120636,51.401389287784696],[5.460848305374384,51.40135710127652],[5.461071012541652,51.40133145265281],[5.461294809356332,51.40128216706216],[5.461401678621769,51.40121938660741],[5.461469069123268,51.40112902969122],[5.461481977254152,51.401077983900905],[5.461447695270181,51.401043869555],[5.461369240656495,51.40093524008989],[5.461198752745986,51.40081470832229],[5.46115156263113,51.40075955539942],[5.461061121895909,51.40065654180944],[5.46099616214633,51.400568783283234],[5.460883425548673,51.400446239858866],[5.460820477455854,51.400373904034495],[5.460814442485571,51.400363678112626],[5.460754428058863,51.40029888600111],[5.460740849375725,51.40025236643851],[5.4607276897877455,51.400144239887595],[5.4606187250465155,51.40005002729595],[5.460633225739002,51.40002186410129],[5.460682259872556,51.39998875558376],[5.460811592638493,51.39987559989095],[5.460919719189405,51.399766467511654],[5.461024660617113,51.39967476949096],[5.461051734164357,51.39964325353503],[5.461126500740647,51.39953940175474],[5.461170086637139,51.399433286860585],[5.461193472146988,51.399391796439886],[5.461211493238807,51.39933002181351],[5.461253318935633,51.39920588582754],[5.4612781293690205,51.39913899824023],[5.461283829063177,51.39909625053406],[5.461200261488557,51.39901326969266],[5.461076041683555,51.39889835380018],[5.461070341989398,51.39888536185026],[5.461013847962022,51.398780923336744],[5.461023822426796,51.39865511097014],[5.461076041683555,51.39849719591439],[5.461074784398079,51.39848805963993],[5.461056008934975,51.39841245487332],[5.461037652567029,51.39832980930805],[5.461037149652839,51.39830374158919],[5.461030947044492,51.39818178489804],[5.461037065833807,51.39810140244663],[5.461074700579047,51.39797835610807],[5.461100600659847,51.39783536083996],[5.4611911252141,51.397723043337464],[5.4611985851079226,51.39763729646802],[5.46120235696435,51.39755766838789],[5.461207972839475,51.397535372525454],[5.461156507954001,51.397412326186895],[5.46116623096168,51.39734862372279],[5.461165057495236,51.397326746955514],[5.461145862936974,51.39723094180226],[5.461126081645489,51.39717461541295],[5.46112566255033,51.397057520225644],[5.461121471598744,51.39696691185236],[5.461129602044821,51.396849900484085],[5.461123986169696,51.39670212753117],[5.461092386394739,51.39660447835922],[5.461093224585056,51.39655116945505],[5.461103534325957,51.396517138928175],[5.4610849265009165,51.396404318511486],[5.461048549041152,51.39630826190114],[5.461049554869533,51.39618739485741],[5.4610363114625216,51.39605060219765],[5.461033042520285,51.39596192166209],[5.461015859618783,51.39590064994991],[5.461007142439485,51.39583493582904],[5.460994904860854,51.395737789571285],[5.4609703458845615,51.39563586562872],[5.46096246689558,51.3955470174551],[5.4610177874565125,51.395419696345925],[5.4610557574778795,51.39532011933625],[5.4610401671379805,51.39517469331622],[5.461052153259516,51.395062040537596],[5.461050979793072,51.39504753984511],[5.461045866832137,51.394970593973994],[5.461049471050501,51.39487696811557],[5.4610460344702005,51.39485442079604],[5.461030527949333,51.394770350307226],[5.461020553484559,51.39472601003945],[5.460971603170037,51.394598353654146],[5.460966322571039,51.39448427595198],[5.460985181853175,51.394393499940634],[5.4609600361436605,51.394272800534964],[5.460927011445165,51.39414573088288],[5.460919383913279,51.39401991851628],[5.460919300094247,51.39391237869859],[5.460923658683896,51.393806682899594],[5.460925083607435,51.393778352066875],[5.460939751937985,51.39359847642481],[5.460947463288903,51.393484733998775],[5.460968082770705,51.39340954832733],[5.460986690595746,51.39332455582917],[5.460994401946664,51.39320829883218],[5.460967496037483,51.3930706679821],[5.460967663675547,51.39293999411166],[5.46095903031528,51.39282826334238],[5.4609420988708735,51.392699936404824],[5.460915025323629,51.3925545103848],[5.460891639813781,51.392446802929044],[5.460822489112616,51.392338424921036],[5.460765324532986,51.39222820289433],[5.460791224613786,51.39212560839951],[5.460674464702606,51.39207816682756],[5.460460977628827,51.392023181542754],[5.46032334677875,51.39198764227331],[5.460125533863902,51.39195025898516],[5.459984550252557,51.391936177387834],[5.459971139207482,51.39195419847965],[5.459972899407148,51.391954869031906],[5.459989076480269,51.3919812720269],[5.459991926327348,51.39198621734977],[5.459977509453893,51.391991497948766],[5.4599439818412066,51.3919585570693],[5.459813391789794,51.39191145077348],[5.459633432328701,51.391882952302694],[5.459520695731044,51.391854621469975],[5.459485072642565,51.39184615574777],[5.459434110671282,51.39182603918016],[5.459336880594492,51.391794020310044],[5.459135379642248,51.39171724207699],[5.459022140130401,51.39167407527566],[5.459004705771804,51.39166787266731],[5.458833631128073,51.39159687794745],[5.458835558965802,51.39157868921757],[5.458857184275985,51.391544910147786],[5.458870846778154,51.39153962954879],[5.458889538422227,51.39150417409837],[5.458856262266636,51.39147911220789],[5.4587432742118835,51.39144231565297],[5.45862483792007,51.391376769170165],[5.458613941445947,51.39128188602626],[5.458628861233592,51.39116135425866],[5.458609750494361,51.39105347916484],[5.4586010333150625,51.39103101566434],[5.458577396348119,51.390893049538136],[5.458577228710055,51.390787521377206],[5.458541521802545,51.3906738627702],[5.458519728854299,51.390615943819284],[5.458504222333431,51.39054721221328],[5.4585701040923595,51.39046121388674],[5.458629699423909,51.39036842621863],[5.458562560379505,51.39033883810043],[5.45851687900722,51.39032433740795],[5.458406321704388,51.39027647674084],[5.45827598311007,51.39022543095052],[5.458144722506404,51.390186958014965],[5.457965098321438,51.3901193998754],[5.4578217677772045,51.390065336599946],[5.4576553869992495,51.389997862279415],[5.4575293231755495,51.38990147039294],[5.45756109058857,51.38985838741064],[5.45760216191411,51.38981672935188],[5.457649938762188,51.389770125970244],[5.4576765932142735,51.38972595334053],[5.457677515223622,51.38969234190881],[5.457635102793574,51.389644062146544],[5.457591097801924,51.389635261148214],[5.457572154700756,51.38963266275823],[5.457421028986573,51.38958019204438],[5.4572242219001055,51.389511628076434],[5.457134367898107,51.38947416096926],[5.45706856995821,51.38944826088846],[5.45703386887908,51.38943510130048],[5.457015763968229,51.38942101970315],[5.4569432605057955,51.38938740827143],[5.456912750378251,51.38937232084572],[5.456741256639361,51.38931741937995],[5.456624832004309,51.389271318912506],[5.456614941358566,51.38926662504673],[5.456517124548554,51.38921935111284],[5.45647244900465,51.38921004720032],[5.456304224207997,51.38916076160967],[5.456166677176952,51.38910384848714],[5.456139938905835,51.38908918015659],[5.456076320260763,51.38905548490584],[5.45604488812387,51.38904961757362],[5.455874651670456,51.38898474164307],[5.4556783474981785,51.38894056901336],[5.45561732724309,51.388907209038734],[5.455546919256449,51.38886739499867],[5.45550836250186,51.388842668384314],[5.455450778827071,51.38880436308682],[5.455279368907213,51.38874619267881],[5.4551520477980375,51.38869640417397],[5.455017602071166,51.38862356543541],[5.454887179657817,51.38853572309017],[5.454753488302231,51.38844561763108],[5.454609068110585,51.38838015496731],[5.454477304592729,51.38829390518367],[5.454389965161681,51.38823456130922],[5.454309834167361,51.388178654015064],[5.454180082306266,51.388106402009726],[5.454156864434481,51.388087794184685],[5.454073967412114,51.38801679946482],[5.454020155593753,51.38798201456666],[5.453907670453191,51.38791856355965],[5.453870454803109,51.387880593538284],[5.4537987895309925,51.38783139176667],[5.453624781221151,51.38772737234831],[5.453465357422829,51.387657802551985],[5.4533417243510485,51.38756467960775],[5.453251032158732,51.38751447200775],[5.453217923641205,51.38750055804849],[5.453101582825184,51.38744741678238],[5.453081633895636,51.38743274845183],[5.45292598195374,51.38736493885517],[5.452837888151407,51.38732101768255],[5.452651558443904,51.387268379330635],[5.452502276748419,51.38720400631428],[5.45233765617013,51.387126138433814],[5.452282754704356,51.38711515814066],[5.452202288433909,51.387104261666536],[5.452049905434251,51.38705807738006],[5.451898947358131,51.387011893093586],[5.451648160815239,51.38696269132197],[5.451476918533444,51.386937629431486],[5.451307604089379,51.386900497600436],[5.451120100915432,51.38685674406588],[5.450927903875709,51.3868351187557],[5.450692372396588,51.38680703938007],[5.450466647744179,51.38678784482181],[5.4502850119024515,51.386773427948356],[5.450122654438019,51.38676420785487],[5.449959961697459,51.386748533695936],[5.449829874560237,51.386740151792765],[5.449741445481777,51.38673202134669],[5.449619991704822,51.38671886175871],[5.449408432468772,51.386702014133334],[5.449231909587979,51.38668172992766],[5.449068211019039,51.386661445721984],[5.44886595569551,51.38663537800312],[5.448731174692512,51.386624397709966],[5.44854543171823,51.3865985814482],[5.448385588824749,51.38657880015671],[5.448182746767998,51.38653563335538],[5.447997506707907,51.3865243177861],[5.447891475632787,51.386515935882926],[5.447728363797069,51.38652205467224],[5.447602299973369,51.38652456924319],[5.447533316910267,51.386520797386765],[5.447449833154678,51.38652331195772],[5.4473205003887415,51.386522306129336],[5.447167027741671,51.38650260865688],[5.446981368586421,51.386499339714646],[5.446805600076914,51.38650428503752],[5.446613738313317,51.38650445267558],[5.446441238746047,51.38649330474436],[5.446306290104985,51.38646489009261],[5.446135718375444,51.386415269225836],[5.446111913770437,51.38641074299812],[5.4460470378398895,51.38639976270497],[5.4459448624402285,51.386386435478926],[5.4458043817430735,51.38634368777275],[5.445650573819876,51.38632298447192],[5.445587709546089,51.38631678186357],[5.445568263530731,51.386313596740365],[5.445513529703021,51.38630647212267],[5.445328038185835,51.38628945685923],[5.445309514179826,51.38629230670631],[5.44516509398818,51.38632541522384],[5.445014387369156,51.386285685002804],[5.444795368239284,51.38624461367726],[5.4446254670619965,51.38622676022351],[5.444419272243977,51.38625877909362],[5.44439404271543,51.38626598753035],[5.444197403267026,51.38629616238177],[5.44399724341929,51.38632809743285],[5.443900432437658,51.386413341388106],[5.44389414601028,51.386437648907304],[5.443901689723134,51.386436223983765],[5.443894062191248,51.386433374136686],[5.4438061360269785,51.38642096891999],[5.443678982555866,51.386489951983094],[5.443563479930162,51.38660034164786],[5.443557444959879,51.38661970384419],[5.443538501858711,51.38669120147824],[5.443531209602952,51.3867021817714],[5.443492820486426,51.38682145625353],[5.443469854071736,51.38697065412998],[5.443465327844024,51.387060256674886],[5.44345828704536,51.38721632771194],[5.443446720018983,51.387309869751334],[5.443387543782592,51.38741028495133],[5.443357536569238,51.387515645474195],[5.443315962329507,51.387622179463506],[5.443294253200293,51.387742878869176],[5.443309340626001,51.387870870530605],[5.443320069462061,51.38802023604512],[5.4433458019047976,51.388167925179005],[5.443267682567239,51.38826842419803],[5.443260809406638,51.38835081830621],[5.443266928195953,51.38841535896063],[5.443273466080427,51.388521641492844],[5.44335518963635,51.388606214895844],[5.443461891263723,51.3887104857713],[5.443563144654036,51.38879950158298],[5.443690717220306,51.38887871056795],[5.4437814094126225,51.38895330950618],[5.443870006129146,51.38902623206377],[5.443966900929809,51.38909018598497],[5.444103861227632,51.38917970471084],[5.4442213755100965,51.38925639912486],[5.444315169006586,51.38931783847511],[5.444369316101074,51.38935698196292],[5.444349367171526,51.38944298028946],[5.444317432120442,51.38953828252852],[5.444287424907088,51.38963559642434],[5.444261860102415,51.38974682427943],[5.444251634180546,51.38986031524837],[5.444251215085387,51.389943547546864],[5.444251215085387,51.38995570130646],[5.444257166236639,51.39004706405103],[5.444255825132132,51.39006634242833],[5.444242162629962,51.390142031013966],[5.444220704957843,51.390233309939504],[5.444218525663018,51.39035660773516],[5.444208383560181,51.390471355989575],[5.444191200658679,51.39063631184399],[5.4441822320222855,51.39073873870075],[5.4441719222813845,51.39082389883697],[5.444147363305092,51.39095935039222],[5.444112159311771,51.3910589274019],[5.444051977247,51.39116353355348],[5.443993387743831,51.39125481247902],[5.443860199302435,51.39134072698653],[5.443733045831323,51.391395293176174],[5.443617543205619,51.391487745568156],[5.4435063153505325,51.39157340861857],[5.443391483277082,51.39166611246765],[5.443304562941194,51.3917204272002],[5.443221163004637,51.3917978759855],[5.44309719465673,51.391882952302694],[5.443033156916499,51.3919448107481],[5.442921342328191,51.39202720485628],[5.442836433649063,51.39208554290235],[5.442740963771939,51.39217891730368],[5.442675417289138,51.39222920872271],[5.442601153627038,51.39230598695576],[5.442506521940231,51.39239592477679],[5.442410968244076,51.3925093319267],[5.442329244688153,51.39258652925491],[5.442211646586657,51.3926649838686],[5.442105866968632,51.392768332734704],[5.442035375162959,51.39285106211901],[5.441943760961294,51.39293823391199],[5.441829850897193,51.39302263967693],[5.441698841750622,51.39311358332634],[5.441699093207717,51.393211064860225],[5.441714599728584,51.393287340179086],[5.44168652035296,51.39337451197207],[5.441674869507551,51.393386917188764],[5.441661207005382,51.393397226929665],[5.4415934812277555,51.39344584196806],[5.441564228385687,51.39353569597006],[5.441623907536268,51.3936528749764],[5.441617453470826,51.39368045143783],[5.441613346338272,51.3937303237617],[5.441603288054466,51.39382990077138],[5.441672271117568,51.3939118757844],[5.441826581954956,51.393938614055514],[5.4420034401118755,51.393966525793076],[5.442144926637411,51.39399225823581],[5.44231734238565,51.39403140172362],[5.442470144480467,51.394078424200416],[5.442631579935551,51.3941225130111],[5.4427883215248585,51.39414413832128],[5.442945146933198,51.39418160542846],[5.4430613201111555,51.394247487187386],[5.443191155791283,51.39430305920541],[5.443401038646698,51.39430532231927],[5.443598097190261,51.39434119686484],[5.443785432726145,51.394347567111254],[5.44394594617188,51.39436391182244],[5.444127330556512,51.39438612386584],[5.4443324357271194,51.39438712969422],[5.444569559767842,51.394408671185374],[5.444710962474346,51.39441596344113],[5.444891508668661,51.39441789127886],[5.445066019892693,51.39444496482611],[5.445249080657959,51.39446801505983],[5.445340946316719,51.39451880939305],[5.445452677085996,51.39458594843745],[5.445591229945421,51.394649567082524],[5.445645796135068,51.394673539325595],[5.445703212171793,51.39469927176833],[5.445794742554426,51.39476716518402],[5.445910077542067,51.39483690261841],[5.446040080860257,51.39490697532892],[5.446127587929368,51.39498115517199],[5.446288520470262,51.39505382627249],[5.44638030230999,51.39508131891489],[5.446413662284613,51.39509649015963],[5.446449872106314,51.39511878602207],[5.446493206545711,51.395146111026406],[5.446505779400468,51.39515315182507],[5.44651810079813,51.39516061171889],[5.44658943079412,51.39520092867315],[5.446714069694281,51.39525767415762],[5.446858489885926,51.395334117114544],[5.4469879902899265,51.39541081152856],[5.447118412703276,51.39547920785844],[5.44725545682013,51.395536037161946],[5.447375485673547,51.395596135407686],[5.447541614994407,51.395684480667114],[5.447641778737307,51.395741142332554],[5.447769770398736,51.39581607654691],[5.4478388372808695,51.39586301520467],[5.447995159775019,51.3959442358464],[5.448118122294545,51.395989917218685],[5.448240581899881,51.396077424287796],[5.448372848331928,51.396120842546225],[5.448488434776664,51.39618303626776],[5.448621120303869,51.39624229632318],[5.448771324008703,51.396320750936866],[5.448932256549597,51.396385710686445],[5.449041556566954,51.396466763690114],[5.449199555441737,51.39657371677458],[5.449318997561932,51.39665166847408],[5.449460567906499,51.396761471405625],[5.449589565396309,51.396854259073734],[5.449732393026352,51.3969440292567],[5.44983590953052,51.39700194820762],[5.449950573965907,51.397095154970884],[5.4500488098710775,51.39716128818691],[5.450181579217315,51.39725273475051],[5.450349887832999,51.3973793014884],[5.450451141223311,51.39745616354048],[5.450553484261036,51.39751676470041],[5.450678626075387,51.39760175719857],[5.4507924523204565,51.39769110828638],[5.45088205486536,51.397756235674024],[5.451003760099411,51.39783896505833],[5.451137870550156,51.397928819060326],[5.451289499178529,51.39800878241658],[5.451423861086369,51.39808346517384],[5.451566353440285,51.3981475867331],[5.451750084757805,51.39820181764662],[5.451900037005544,51.39825722202659],[5.452065411955118,51.398316817358136],[5.452234810218215,51.39836392365396],[5.4523721896111965,51.39843676239252],[5.452415524050593,51.39845922589302],[5.452520214021206,51.39849375933409],[5.452713752165437,51.39856291003525],[5.4528755228966475,51.39862443320453],[5.453031258657575,51.39868788421154],[5.453190682455897,51.39875527471304],[5.453313644975424,51.398800453171134],[5.453462842851877,51.39883850701153],[5.453601982444525,51.39889667741954],[5.453788815066218,51.39896540902555],[5.453874310478568,51.39900589361787],[5.45403272844851,51.39907445758581],[5.454182429239154,51.399127431213856],[5.454294579103589,51.39917504042387],[5.454430617392063,51.39923647977412],[5.454588448628783,51.39927721582353],[5.454737730324268,51.39933538623154],[5.454879719763994,51.39938986860216],[5.455038053914905,51.39945692382753],[5.455156993120909,51.399500258266926],[5.455283308401704,51.39954753220081],[5.4554458335042,51.399605283513665],[5.455616153776646,51.399647360667586],[5.455748755484819,51.39967284165323],[5.455918405205011,51.39971257187426],[5.456114625558257,51.399767557159066],[5.456274468451738,51.399810975417495],[5.456446381285787,51.3998503703624],[5.456625837832689,51.399889681488276],[5.456829685717821,51.39991817995906],[5.456956000998616,51.39999537728727],[5.457033114507794,51.400092942640185],[5.457061696797609,51.40013275668025],[5.457142749801278,51.400237614288926],[5.457196393981576,51.40034146606922],[5.457265377044678,51.40041757375002],[5.457366295158863,51.400514636188745],[5.45743259601295,51.4006207510829],[5.457504261285067,51.400693422183394],[5.457570981234312,51.400793166831136],[5.457612136378884,51.40088964253664],[5.457710707560182,51.40098745934665],[5.457788743078709,51.40107044018805],[5.457860827445984,51.40117454342544],[5.4578727297484875,51.4012095797807],[5.457920338958502,51.40127613209188],[5.457996781915426,51.4013734459877],[5.4580797627568245,51.40146665275097],[5.458159977570176,51.40156379900873],[5.45821194536984,51.401633033528924],[5.458280006423593,51.40172263607383],[5.45837027952075,51.40184844844043],[5.458429204300046,51.4019297529012],[5.458496762439609,51.402012314647436],[5.458573121577501,51.402133936062455],[5.458644451573491,51.402244912460446],[5.4587191343307495,51.40231682918966],[5.458755092695355,51.40235756523907],[5.458783507347107,51.40239545144141],[5.458865147083998,51.40250944532454],[5.458945697173476,51.402620589360595],[5.459019457921386,51.40270792879164],[5.459074275568128,51.40276735648513],[5.459088021889329,51.40278361737728],[5.4591413307935,51.40287338756025],[5.459216767922044,51.40298377722502],[5.459307711571455,51.40306650660932],[5.459334701299667,51.40314068645239],[5.459430003538728,51.40322559513152],[5.459480965510011,51.40331209637225],[5.459544667974114,51.40341209247708],[5.459615075960755,51.403494738042355],[5.459689926356077,51.403614012524486],[5.459787994623184,51.40372658148408],[5.459884470328689,51.40384811908007],[5.45995781198144,51.40393772162497],[5.460044397041202,51.404061606153846],[5.460118493065238,51.40415179543197],[5.460210358723998,51.404261346906424],[5.460283365100622,51.404358660802245],[5.460376404225826,51.40446653589606],[5.460443794727325,51.40455680899322],[5.460514705628157,51.40468077734113],[5.460573378950357,51.404765183106065],[5.460692066699266,51.40489409677684],[5.4607736226171255,51.40499962493777],[5.4608906339854,51.405075481161475],[5.4609907977283,51.40509241260588],[5.461049722507596,51.40509417280555],[5.461214678362012,51.40509199351072],[5.461341580376029,51.405076989904046],[5.461521288380027,51.40508604235947],[5.461685322225094,51.40507414005697],[5.461869304999709,51.405070535838604],[5.461998553946614,51.40505553223193],[5.462072230875492,51.4050464797765],[5.462085474282503,51.405047569423914],[5.462212460115552,51.405037427321076],[5.462347073480487,51.40505368821323],[5.462375655770302,51.40506198629737],[5.462385714054108,51.40507288277149],[5.462394095957279,51.40507707372308],[5.462405830621719,51.40508009120822],[5.46242443844676,51.40507967211306],[5.462414380162954,51.405082857236266],[5.462405746802688,51.405085707083344],[5.46239024028182,51.405085204169154],[5.462365010753274,51.405082773417234],[5.46236920170486,51.40509048476815],[5.462378086522222,51.40508889220655],[5.46230424195528,51.40511630102992],[5.462279682978988,51.405211267992854],[5.46224070712924,51.40527019277215],[5.46224850229919,51.405312437564135],[5.462247664108872,51.40532392077148],[5.462238444015384,51.40540547668934],[5.46223483979702,51.40550916083157],[5.462232744321227,51.405626088380814],[5.462254788726568,51.405771765857935],[5.462227631360292,51.405777214095],[5.462291752919555,51.405867068096995],[5.462290998548269,51.40593219548464],[5.462303152307868,51.40600067563355],[5.462362077087164,51.40604618936777],[5.4623945988714695,51.406127996742725],[5.462474143132567,51.40623779967427],[5.462504485622048,51.406333185732365],[5.462529379874468,51.40646645799279],[5.462543796747923,51.40653753653169],[5.46256466768682,51.40662889927626],[5.462587466463447,51.40672126784921],[5.462602553889155,51.40684221871197],[5.4626399371773005,51.40695319510996],[5.462646307423711,51.40707959420979],[5.46265653334558,51.407164335250854],[5.46267606317997,51.407231809571385],[5.462696012109518,51.407347563654184],[5.4627197328954935,51.40745644457638],[5.462798690423369,51.40753808431327],[5.462892232462764,51.40760488808155],[5.4630478005856276,51.407703375443816],[5.463107395917177,51.40776204876602],[5.463170763105154,51.40782583504915],[5.463257012888789,51.40792113728821],[5.4633355513215065,51.40800981782377],[5.4634112399071455,51.40809556469321],[5.463533196598291,51.408210564404726],[5.463608046993613,51.408298993483186],[5.463711312040687,51.40839169733226],[5.463774763047695,51.408461602404714],[5.463840560987592,51.40854986384511],[5.46392060816288,51.40862111002207],[5.463992860168219,51.40869336202741],[5.464058071374893,51.408745078369975],[5.4641348496079445,51.4088265504688],[5.46420400030911,51.4088870678097],[5.464269714429975,51.40897792764008],[5.464345905929804,51.409067111089826],[5.464415559545159,51.409151097759604],[5.464513543993235,51.40923240222037],[5.46461102552712,51.40932527370751],[5.46472099609673,51.409425688907504],[5.464815711602569,51.40953540802002],[5.464910930022597,51.40963079407811],[5.465001203119755,51.40973472967744],[5.465115029364824,51.409855261445045],[5.465165236964822,51.409922735765576],[5.465238159522414,51.40998995862901],[5.465310662984848,51.410059528425336],[5.465369755402207,51.410138653591275],[5.465436894446611,51.41022549010813],[5.465525323525071,51.41029371879995],[5.465624816715717,51.41038306988776],[5.465702181681991,51.41048549674451],[5.465789018198848,51.410572500899434],[5.4658901039510965,51.41069135628641],[5.465965373441577,51.41076637431979],[5.466049192473292,51.410857904702425],[5.466128988191485,51.41092864796519],[5.466228984296322,51.41101439483464],[5.466386815533042,51.41109427437186],[5.466518327593803,51.41117423772812],[5.466617066413164,51.41124213114381],[5.466743716970086,51.41133399680257],[5.466843713074923,51.41140390187502],[5.4669824335724115,51.41146844252944],[5.4671302903443575,51.411541448906064],[5.467222575098276,51.41161168925464],[5.467345369979739,51.411690562963486],[5.46743924729526,51.41174244694412],[5.4674778040498495,51.41176398843527],[5.467591965571046,51.41184068284929],[5.4676595237106085,51.411884855479],[5.467670755460858,51.411891812458634],[5.467766895890236,51.411937242373824],[5.4679192788898945,51.41201368533075],[5.4680179338902235,51.4120991807431],[5.468128155916929,51.412175288423896],[5.468279281631112,51.412264639511704],[5.468397047370672,51.41233563423157],[5.468526128679514,51.41238852404058],[5.468637943267822,51.41246312297881],[5.46866032294929,51.412484077736735],[5.468746153637767,51.412535794079304],[5.468892501667142,51.412619948387146],[5.4689927492290735,51.4126827288419],[5.469140689820051,51.41275548376143],[5.4692186415195465,51.412808541208506],[5.469326013699174,51.41288205049932],[5.469444030895829,51.41295673325658],[5.469562886282802,51.41303409822285],[5.4696715995669365,51.41310920007527],[5.469765225425363,51.41317709349096],[5.469881733879447,51.41323492862284],[5.470006205141544,51.413310784846544],[5.470130341127515,51.41336292028427],[5.470275767147541,51.41346895135939],[5.470408285036683,51.41355427913368],[5.470536528155208,51.41359694302082],[5.470662508159876,51.413657208904624],[5.470761833712459,51.4137345738709],[5.470805503427982,51.41381353139877],[5.4707873146981,51.413927441462874],[5.470820087939501,51.414050068706274],[5.470949085429311,51.41408124938607],[5.47113424167037,51.41408108174801],[5.471234573051333,51.414064234122634],[5.471257036551833,51.4140469674021],[5.471368683502078,51.414069179445505],[5.471412856131792,51.414084350690246],[5.471443282440305,51.41408544033766],[5.471477480605245,51.41408351249993],[5.471606142818928,51.41406197100878],[5.471767662093043,51.41403556801379],[5.4718006029725075,51.414030538871884],[5.472020795568824,51.41400690190494],[5.472197234630585,51.41397907398641],[5.472334027290344,51.413953844457865],[5.472492026165128,51.413947474211454],[5.4726750031113625,51.41393196769059],[5.472870301455259,51.413916712626815],[5.4730563797056675,51.413886453956366],[5.4732187371701,51.41388896852732],[5.473373886197805,51.41388536430895],[5.473558874800801,51.41387086361647],[5.473744031041861,51.413881089538336],[5.473885349929333,51.41393322497606],[5.47403278760612,51.41395644284785],[5.47408752143383,51.41402685083449],[5.474070254713297,51.41413740813732],[5.474061872810125,51.41427311114967],[5.474076122045517,51.41439230181277],[5.4741823207587,51.414486430585384],[5.4743351228535175,51.41457058489323],[5.474486164748669,51.41461609862745],[5.474600996822119,51.4146513864398],[5.474617425352335,51.414658008143306],[5.474766371771693,51.4147050306201],[5.474819932132959,51.41474484466016],[5.474813478067517,51.41475548967719],[5.474744914099574,51.41483034007251],[5.474733263254166,51.41484282910824],[5.47469194047153,51.41488113440573],[5.474662519991398,51.414929162710905],[5.474641229957342,51.415034271776676],[5.474644834175706,51.41504458151758],[5.474630920216441,51.41516502946615],[5.474642487242818,51.415293607860804],[5.474698226898909,51.41541506163776],[5.474784392863512,51.41551287844777],[5.474857147783041,51.41557674854994],[5.474991090595722,51.41565696336329],[5.475134756416082,51.4157375972718],[5.475270375609398,51.41583859920502],[5.475341957062483,51.415934739634395],[5.475411359220743,51.4160396810621],[5.4755184799432755,51.41610849648714],[5.475615793839097,51.41619550064206],[5.475668264552951,51.416288036853075],[5.475655188784003,51.416292982175946],[5.475564915686846,51.41629943624139],[5.475416388362646,51.416294407099485],[5.475251264870167,51.41628812067211],[5.475113047286868,51.41627999022603],[5.475044567137957,51.416281666606665],[5.474996957927942,51.416282672435045],[5.474943397566676,51.41628258861601],[5.47480333596468,51.41630195081234],[5.474714487791061,51.416312428191304],[5.474677439779043,51.41631259582937],[5.47447644174099,51.416330533102155],[5.474316347390413,51.4163869433105],[5.474190954118967,51.416444359347224],[5.474196737632155,51.41645533964038],[5.474162790924311,51.41648316755891],[5.474143847823143,51.41648584976792],[5.4740288481116295,51.416492806747556],[5.473938575014472,51.416497165337205],[5.4737611301243305,51.416489286348224],[5.473639089614153,51.416480066254735],[5.4735420271754265,51.41652088612318],[5.473496178165078,51.416634041815996],[5.473561305552721,51.41674309037626],[5.473575051873922,51.416830429807305],[5.4735673405230045,51.416935957968235],[5.473658787086606,51.41704869456589],[5.473617548123002,51.41704559326172],[5.47357396222651,51.41704617999494],[5.473362319171429,51.41705439426005],[5.473163668066263,51.417039558291435],[5.472987899556756,51.41701977699995],[5.472798552364111,51.41699731349945],[5.472596129402518,51.41697568818927],[5.472414577379823,51.41693118028343],[5.4721837397664785,51.41690603457391],[5.47202356159687,51.41688038595021],[5.471786269918084,51.41684300266206],[5.471646375954151,51.416830429807305],[5.471453340724111,51.41680084168911],[5.471270531415939,51.41681274399161],[5.4710758198052645,51.416826574131846],[5.47105947509408,51.41685540787876],[5.471066264435649,51.41688843257725],[5.471072047948837,51.416922714561224],[5.471102809533477,51.41697468236089],[5.471132146194577,51.41703645698726],[5.471151592209935,51.417112899944186],[5.471236417070031,51.41720283776522],[5.471312357112765,51.41727056354284],[5.471364324912429,51.41732018440962],[5.471449568867683,51.41740350052714],[5.471540177240968,51.41749419271946],[5.471634892746806,51.41759435646236],[5.471731116995215,51.417693849653006],[5.471826586872339,51.417779345065355],[5.471923649311066,51.4179047383368],[5.471972683444619,51.41802820377052],[5.4720362182706594,51.41809148713946],[5.472068740054965,51.41813448630273],[5.472078211605549,51.418165331706405],[5.472091119736433,51.41820263117552],[5.472111403942108,51.41823976300657],[5.472238976508379,51.41837429255247],[5.472318604588509,51.41846557147801],[5.472358167171478,51.418550396338105],[5.472365710884333,51.41855458728969],[5.47237241640687,51.41855274327099],[5.472389180213213,51.41856975853443],[5.4723607655614614,51.418589539825916],[5.4723781161010265,51.418649051338434],[5.4723934549838305,51.4186698384583],[5.472419774159789,51.41869976185262],[5.472446177154779,51.41874544322491],[5.472512813284993,51.41888776794076],[5.472580622881651,51.41898256726563],[5.472605936229229,51.41907703131437],[5.472648264840245,51.41917786560953],[5.472710123285651,51.41928146593273],[5.472774915397167,51.419397722929716],[5.472836438566446,51.419497802853584],[5.472887232899666,51.41957424581051],[5.472936686128378,51.419725036248565],[5.473006088286638,51.419821344316006],[5.47307507134974,51.419938104227185],[5.473118489608169,51.42003650777042],[5.473181772977114,51.42014689743519],[5.473213540390134,51.4202188141644],[5.473271626979113,51.42031746916473],[5.47333943657577,51.42043590545654],[5.473396433517337,51.420543948188424],[5.473394840955734,51.42063556239009],[5.473401797935367,51.420758441090584],[5.473391991108656,51.42085550352931],[5.473336251452565,51.42095943912864],[5.473271040245891,51.42107494175434],[5.473214546218514,51.42116077244282],[5.473110694438219,51.421315502375364],[5.473033664748073,51.42137727700174],[5.472947498783469,51.42144232057035],[5.472840880975127,51.42151759006083],[5.472728060558438,51.42159931361675],[5.472657568752766,51.42163979820907],[5.472615994513035,51.421674164012074],[5.472527649253607,51.421742057427764],[5.472401836887002,51.42184356227517],[5.472227660939097,51.42193643376231],[5.472057508304715,51.42203793860972],[5.471920631825924,51.4220960251987],[5.471765315160155,51.422153105959296],[5.471584517508745,51.42223550006747],[5.471434565261006,51.422288892790675],[5.471310429275036,51.42233264632523],[5.4712542705237865,51.42235008068383],[5.471114963293076,51.42241571098566],[5.47095587477088,51.42249207012355],[5.470823356881738,51.422545881941915],[5.470661418512464,51.42258536070585],[5.470564523711801,51.42264185473323],[5.470421863719821,51.42273087054491],[5.470339134335518,51.42281033098698],[5.470208963379264,51.42291074618697],[5.470151212066412,51.42294100485742],[5.470107961446047,51.42297461628914],[5.46996739692986,51.423058016225696],[5.469948872923851,51.42306212335825],[5.469808056950569,51.4231370575726],[5.469690207391977,51.42322255298495],[5.4696321208029985,51.423304276540875],[5.469640251249075,51.42332539893687],[5.469778720289469,51.423413744196296],[5.469909897074103,51.42346420325339],[5.470067225396633,51.423534946516156],[5.4701440036296844,51.42355841584504],[5.470236372202635,51.42359563149512],[5.470411637797952,51.423623794689775],[5.470611043274403,51.4236605912447],[5.470771808177233,51.42371188849211],[5.470904745161533,51.42378975637257],[5.471051847562194,51.423880867660046],[5.471154861152172,51.423946749418974],[5.471261311322451,51.42405906692147],[5.471342280507088,51.424152944236994],[5.471419729292393,51.42425235360861],[5.471460549160838,51.42437665723264],[5.471516456454992,51.42449961975217],[5.471575632691383,51.424591233953834],[5.4716825019568205,51.424694918096066],[5.471775876358151,51.424799943342805],[5.471853157505393,51.424937322735786],[5.471752742305398,51.42497596330941],[5.471657188609242,51.42499499022961],[5.471620308235288,51.42500437796116],[5.4714318830519915,51.42504922114313],[5.471342448145151,51.425078976899385],[5.471323085948825,51.42509289085865],[5.4712696094065905,51.425189450383186],[5.47128033824265,51.42521702684462],[5.471300287172198,51.42521861940622],[5.471450909972191,51.425220128148794],[5.471573872491717,51.42526178620756],[5.471609076485038,51.42531869933009],[5.471624918282032,51.425348119810224],[5.471695410087705,51.42546420916915],[5.471737487241626,51.42557225190103],[5.471777720376849,51.42562254332006],[5.471827760338783,51.42569831572473],[5.471878722310066,51.425788421183825],[5.471959775313735,51.42580174840987],[5.4720821511000395,51.42582077533007],[5.4721601866185665,51.425887076184154],[5.472222128883004,51.42600811086595],[5.472280215471983,51.42614213749766],[5.472377277910709,51.42624707892537],[5.472483225166798,51.426329808309674],[5.472609121352434,51.42642393708229],[5.472625382244587,51.42643357627094],[5.472761336714029,51.42650993540883],[5.472858902066946,51.42657296732068],[5.473040957003832,51.42665108665824],[5.473135421052575,51.4266895595938],[5.473310183733702,51.42673674970865],[5.4735002014786005,51.42679668031633],[5.4736904706805944,51.42685887403786],[5.473862132057548,51.42692198976874],[5.4740444384515285,51.42697881907225],[5.474210986867547,51.42705928534269],[5.47431374900043,51.42710119485855],[5.474384659901261,51.427131202071905],[5.474459761753678,51.42715643160045],[5.474559674039483,51.427187863737345],[5.474689090624452,51.42724385485053],[5.474801994860172,51.4272038731724],[5.4748431500047445,51.427122401073575],[5.474862679839134,51.42709440551698],[5.474874833598733,51.427103290334344],[5.474877431988716,51.427108738571405],[5.4748820420354605,51.42711041495204],[5.474923029541969,51.427067164331675],[5.474931998178363,51.42705920152366],[5.474962675943971,51.4270037971437],[5.474984301254153,51.42693883739412],[5.475058564916253,51.426871279254556],[5.475181108340621,51.426841942593455],[5.475363666191697,51.42675946466625],[5.475397864356637,51.4266895595938],[5.475421752780676,51.42665846273303],[5.475513366982341,51.42655964009464],[5.4755965154618025,51.42656902782619],[5.4757237527519464,51.426619654521346],[5.4757679253816605,51.42670439556241],[5.475765075534582,51.42681000754237],[5.475755436345935,51.42692634835839],[5.475849313661456,51.427029110491276],[5.475905891507864,51.42708116210997],[5.475992895662785,51.42713639885187],[5.476071601733565,51.4272297732532],[5.476127592846751,51.42733094282448],[5.476200431585312,51.427435632795095],[5.476358011364937,51.427536299452186],[5.4765065386891365,51.4276182744652],[5.476619526743889,51.4276856649667],[5.4767536371946335,51.427740985527635],[5.476885735988617,51.42782136797905],[5.477017164230347,51.42791859805584],[5.477183712646365,51.42803527414799],[5.477304579690099,51.428115237504244],[5.477475570514798,51.42815563827753],[5.477636754512787,51.42815857194364],[5.477806739509106,51.4281573984772],[5.4779749643057585,51.42818539403379],[5.478103710338473,51.42822646535933],[5.4781934805214405,51.42829000018537],[5.478200605139136,51.42830081284046],[5.4782794788479805,51.42838664352894],[5.4783224780112505,51.42848018556833],[5.478317365050316,51.428542379289865],[5.47831610776484,51.428640531376004],[5.478326166048646,51.428750501945615],[5.478337900713086,51.4288064930588],[5.478343432769179,51.428837925195694],[5.478433538228273,51.428920486941934],[5.478506125509739,51.42900137230754],[5.478502353653312,51.42900858074427],[5.47846463508904,51.42912249080837],[5.478515261784196,51.42923841252923],[5.478607965633273,51.42931862734258],[5.478730257600546,51.42932985909283],[5.478796306997538,51.429362213239074],[5.4788275714963675,51.42943614162505],[5.47889806330204,51.42952926456928],[5.478936452418566,51.42958500422537],[5.47897869721055,51.42963269725442],[5.479084644466639,51.429759012535214],[5.479179862886667,51.42984576523304],[5.479249935597181,51.42992430366576],[5.47931875102222,51.4299947116524],[5.479354290291667,51.43002128228545],[5.479411538690329,51.430150447413325],[5.479460991919041,51.43027978017926],[5.479517905041575,51.430374747142196],[5.479531064629555,51.430501230061054],[5.479535171762109,51.43052981235087],[5.47953475266695,51.4306250307709],[5.479507595300674,51.43076148815453],[5.4794687032699585,51.43086441792548],[5.4794342536479235,51.43091697245836],[5.479414304718375,51.43097095191479],[5.479364767670631,51.431069020181894],[5.4792755004018545,51.43119491636753],[5.479244822636247,51.43130488693714],[5.479216240346432,51.43134537152946],[5.479150107130408,51.431395495310426],[5.479082465171814,51.43148945644498],[5.479074418544769,51.43160026520491],[5.479072323068976,51.431726245209575],[5.479125212877989,51.43183353357017],[5.47914675436914,51.431918274611235],[5.479148933663964,51.43194057047367],[5.4791085328906775,51.43202070146799],[5.4791017435491085,51.432069232687354],[5.479098642244935,51.432093707844615],[5.479086488485336,51.432238798588514],[5.479161338880658,51.43236578442156],[5.479252282530069,51.43247785046697],[5.479342387989163,51.43256108276546],[5.479359403252602,51.43258262425661],[5.479403659701347,51.432670718058944],[5.4794601537287235,51.432802230119705],[5.479509774595499,51.43291354179382],[5.479520168155432,51.43300389871001],[5.479521006345749,51.433012280613184],[5.479522766545415,51.43306734971702],[5.479537099599838,51.43315074965358],[5.479614464566112,51.433233143761754],[5.4796286299824715,51.433244878426194],[5.479732230305672,51.4333411026746],[5.479789897799492,51.43337714485824],[5.479829292744398,51.4333965908736],[5.4799004551023245,51.4334243349731],[5.47998234629631,51.433451157063246],[5.480118049308658,51.43348200246692],[5.480303289368749,51.43347965553403],[5.480436310172081,51.43351787701249],[5.480539910495281,51.43358183093369],[5.480622975155711,51.433670008555055],[5.480678966268897,51.433776123449206],[5.480744261294603,51.433846866711974],[5.48089019022882,51.433851728215814],[5.481066796928644,51.43389313481748],[5.48121172003448,51.433902187272906],[5.481224711984396,51.43388735130429],[5.48127768561244,51.433874694630504],[5.481312219053507,51.43388726748526],[5.481307441368699,51.4338886924088],[5.481327222660184,51.433894727379084],[5.481422943994403,51.43394527025521],[5.481560491025448,51.434016013517976],[5.481579601764679,51.43402297049761],[5.481642885133624,51.43404400907457],[5.4816780891269445,51.43406026996672],[5.481746150180697,51.43409237265587],[5.481877578422427,51.43413788639009],[5.481964917853475,51.4341548178345],[5.482057454064488,51.43416806124151],[5.482268510386348,51.4342013373971],[5.482473196461797,51.434246180579066],[5.48250806517899,51.43425422720611],[5.482663633301854,51.43427224829793],[5.482823392376304,51.43431005068123],[5.482934871688485,51.43434500321746],[5.4829577542841434,51.434348188340664],[5.483158500865102,51.4343773573637],[5.483305938541889,51.43440568819642],[5.483454130589962,51.43442681059241],[5.483592264354229,51.43444030545652],[5.4836024064570665,51.43447215668857],[5.483595198020339,51.434485567733645],[5.483619840815663,51.43454767763615],[5.48361917026341,51.434554969891906],[5.483654290437698,51.43459813669324],[5.483679939061403,51.43469704315066],[5.48363140784204,51.434823693707585],[5.483555551618338,51.4349645934999],[5.483572063967586,51.43506232649088],[5.48374816775322,51.43516785465181],[5.4839028138667345,51.4352201577276],[5.483996523544192,51.43528327345848],[5.484130633994937,51.43536985851824],[5.484251752495766,51.43546532839537],[5.484260888770223,51.435482846572995],[5.4843248426914215,51.435570353642106],[5.484372200444341,51.4356570225209],[5.484382845461369,51.43566339276731],[5.484404135495424,51.435687029734254],[5.484412852674723,51.43570044077933],[5.484465071931481,51.435781493783],[5.484572863206267,51.43588811159134],[5.484661795198917,51.43598827533424],[5.484670931473374,51.43600185401738],[5.484716193750501,51.43609908409417],[5.484721222892404,51.43615147098899],[5.48469515517354,51.43617971800268],[5.484704039990902,51.4362371340394],[5.484769670292735,51.43630578182638],[5.484785595908761,51.4363581687212],[5.484764892607927,51.43636210821569],[5.484618963673711,51.436419608071446],[5.48449382185936,51.436463445425034],[5.484338840469718,51.43649948760867],[5.4843483958393335,51.43651407212019],[5.484403884038329,51.43652614206076],[5.484434813261032,51.4365378767252],[5.4845725279301405,51.43664801493287],[5.484604882076383,51.436745999380946],[5.4846717696636915,51.43682336434722],[5.484725246205926,51.43686896190047],[5.484756929799914,51.436913553625345],[5.4848311096429825,51.437013214454055],[5.4849229753017426,51.437108516693115],[5.484982570633292,51.437203818932176],[5.484985923394561,51.4372144639492],[5.485029174014926,51.4373146276921],[5.485041495412588,51.437329882755876],[5.485048620030284,51.4373370911926],[5.485109221190214,51.437404062598944],[5.485179629176855,51.437491569668055],[5.485255569219589,51.43756373785436],[5.485343663021922,51.43763892352581],[5.485418597236276,51.43769231624901],[5.485443072393537,51.43772047944367],[5.485491855069995,51.437776470556855],[5.485512726008892,51.437810165807605],[5.4855214431881905,51.437826845794916],[5.485567543655634,51.43792851828039],[5.485607525333762,51.43801325932145],[5.485676508396864,51.43814108334482],[5.4857755824923515,51.43824644386768],[5.485847415402532,51.43837217241526],[5.485912710428238,51.43847065977752],[5.485996026545763,51.43856872804463],[5.48605696298182,51.43863486126065],[5.486071044579148,51.43864785321057],[5.486112534999847,51.43867953680456],[5.4862176440656185,51.438731253147125],[5.486330129206181,51.43881591036916],[5.48643222078681,51.43890727311373],[5.486519476398826,51.43901715986431],[5.486599691212177,51.43914355896413],[5.486625004559755,51.43924120813608],[5.486597511917353,51.43937288783491],[5.486586028710008,51.439507249742746],[5.486545292660594,51.43961294554174],[5.4865374974906445,51.43963708542287],[5.486417720094323,51.43971067853272],[5.486248321831226,51.439735405147076],[5.486088395118713,51.43976968713105],[5.485935928300023,51.43982936628163],[5.485885385423899,51.43988820724189],[5.485877422615886,51.43992860801518],[5.485880021005869,51.44005567766726],[5.4858070984482765,51.440111082047224],[5.48566066659987,51.44018408842385],[5.4854527954012156,51.44024611450732],[5.485274512320757,51.44026564434171],[5.485123302787542,51.44026623107493],[5.485015092417598,51.440272852778435],[5.48479774966836,51.44032926298678],[5.484666237607598,51.440391624346375],[5.484606306999922,51.440484412014484],[5.484583172947168,51.44057652913034],[5.484545789659023,51.44068247638643],[5.484516201540828,51.4408359490335],[5.484538832679391,51.44095622934401],[5.484527433291078,51.44108371809125],[5.484512848779559,51.44119528122246],[5.484479656443,51.441307766363025],[5.4844067338854074,51.44137708470225],[5.484369853511453,51.441450426355004],[5.484386365860701,51.44145461730659],[5.4845089092850685,51.44147666171193],[5.484545286744833,51.44148085266352],[5.484565570950508,51.441483702510595],[5.484722899273038,51.44147850573063],[5.484819710254669,51.441490072757006],[5.484842425212264,51.44149141386151],[5.484882490709424,51.44149267114699],[5.484916856512427,51.44149124622345],[5.485053732991219,51.44149208441377],[5.485236877575517,51.44148730672896],[5.485403425991535,51.44149862229824],[5.485608447343111,51.44150675274432],[5.485779857262969,51.44151815213263],[5.48593869432807,51.44151320680976],[5.486155869439244,51.44153332337737],[5.486329961568117,51.441557044163346],[5.486480165272951,51.44152209162712],[5.486637493595481,51.44152804277837],[5.486772526055574,51.44148864783347],[5.486796163022518,51.441474398598075],[5.48690470866859,51.44142284989357],[5.487010991200805,51.44133500754833],[5.487085087224841,51.441238448023796],[5.48711777664721,51.441139625385404],[5.487120123580098,51.4410447422415],[5.487119285389781,51.4410156570375],[5.48713831230998,51.44090375863016],[5.487116686999798,51.440815245732665],[5.487106377258897,51.440698402002454],[5.48711241222918,51.440574768930674],[5.48712951131165,51.44046706147492],[5.487169995903969,51.4403644669801],[5.487182401120663,51.44026983529329],[5.487230261787772,51.44017696380615],[5.487274853512645,51.44007571041584],[5.48730636946857,51.439981162548065],[5.487358756363392,51.43985048867762],[5.487387757748365,51.43976449035108],[5.487440982833505,51.43966910429299],[5.487473336979747,51.439561396837234],[5.487499572336674,51.43944673240185],[5.487472666427493,51.43932452425361],[5.487462021410465,51.43925084732473],[5.487440396100283,51.4392143022269],[5.4874027613550425,51.43909502774477],[5.487419106066227,51.439029732719064],[5.48746126703918,51.4389827940613],[5.487568136304617,51.43891330808401],[5.487648434937,51.43889989703894],[5.487768966704607,51.43883502110839],[5.4878639336675406,51.43873586319387],[5.487868627533317,51.4386429078877],[5.4878035839647055,51.43859261646867],[5.487786317244172,51.438581300899386],[5.487767122685909,51.43856327980757],[5.48775346018374,51.43854224123061],[5.487766368314624,51.43855355679989],[5.487759662792087,51.438551880419254],[5.487759662792087,51.438551880419254],[5.487759662792087,51.438551880419254],[5.487759662792087,51.438551880419254],[5.487759662792087,51.438551880419254],[5.487759662792087,51.438551880419254],[5.487737283110619,51.438553808256984],[5.48771683126688,51.43854232504964],[5.487731667235494,51.43854173831642],[5.487694451585412,51.43854123540223],[5.487684225663543,51.43854282796383],[5.487696714699268,51.43854324705899],[5.4877532087266445,51.438527908176184],[5.487796291708946,51.43849454820156],[5.487850019708276,51.43842497840524],[5.48794255591929,51.438365718349814],[5.48805152066052,51.43831081688404],[5.488167442381382,51.43826379440725],[5.488266181200743,51.43821316771209],[5.488368021324277,51.438126750290394],[5.488478997722268,51.43801904283464],[5.488507580012083,51.43791678361595],[5.488549489527941,51.43786079250276],[5.48865501768887,51.437776889652014],[5.488770352676511,51.43767605535686],[5.488723833113909,51.437610760331154],[5.488665830343962,51.4375754725188],[5.488640936091542,51.437562983483076],[5.488604810088873,51.4375307969749],[5.4885931592434645,51.43751093186438],[5.488542448729277,51.43747757188976],[5.488490900024772,51.4374721236527],[5.488326530903578,51.437476985156536],[5.488166017457843,51.4374787453562],[5.488032829016447,51.43751101568341],[5.487841386348009,51.43753205426037],[5.487724458798766,51.43753549084067],[5.48770752735436,51.437529204413295],[5.487722111865878,51.43752451054752],[5.487705348059535,51.43753540702164],[5.48766796477139,51.43753498792648],[5.487611135467887,51.43754890188575],[5.4876206908375025,51.437552673742175],[5.487642399966717,51.43753616139293],[5.487516587600112,51.43749190494418],[5.487468978390098,51.43748838454485],[5.487370742484927,51.43746952526271],[5.487186340615153,51.43746256828308],[5.487046530470252,51.43750439397991],[5.4869332909584045,51.437599528580904],[5.48691987991333,51.437646467238665],[5.486859111115336,51.437637163326144],[5.486806640401483,51.43760430626571],[5.4867995996028185,51.437553679570556],[5.486677642911673,51.437477907165885],[5.486557111144066,51.43740599043667],[5.4865501541644335,51.43734857439995],[5.486517213284969,51.43725184723735],[5.486498856917024,51.437233071774244],[5.48644102178514,51.437166687101126],[5.486424844712019,51.4371282979846],[5.4864022973924875,51.437039617449045],[5.486418474465609,51.437003407627344],[5.4865260142832994,51.43693928606808],[5.486593572422862,51.436862759292126],[5.486631793901324,51.43680819310248],[5.486687114462256,51.436744993552566],[5.486795241013169,51.43666008487344],[5.486841173842549,51.436621276661754],[5.486861625686288,51.436605686321855],[5.486907726153731,51.43649169243872],[5.486953658983111,51.436408795416355],[5.486974781379104,51.43635774962604],[5.486996071413159,51.43632204271853],[5.487018870189786,51.43624375574291],[5.487073352560401,51.4361665584147],[5.487112915143371,51.43608349375427],[5.487175863236189,51.43597771413624],[5.48722431063652,51.43589213490486],[5.487296311184764,51.435769675299525],[5.487338807433844,51.435702703893185],[5.4874080419540405,51.435567922890186],[5.4875008296221495,51.43544303253293],[5.487537793815136,51.435354268178344],[5.4874510411173105,51.43527740612626],[5.487381890416145,51.43522216938436],[5.487364791333675,51.43521102145314],[5.487261107191443,51.43513583578169],[5.487152645364404,51.43508546054363],[5.4870301857590675,51.43501304090023],[5.486889956519008,51.434938441962004],[5.486858021467924,51.4349196664989],[5.486861541867256,51.43491170369089],[5.486866906285286,51.43486878834665],[5.486760539934039,51.43475940451026],[5.486703459173441,51.43474381417036],[5.486693819984794,51.43473585136235],[5.486681330949068,51.43472872674465],[5.486632799729705,51.434696624055505],[5.486634224653244,51.43465588800609],[5.486676301807165,51.43463920801878],[5.486701782792807,51.43462219275534],[5.486783338710666,51.4345414750278],[5.486825918778777,51.434510461986065],[5.487034795805812,51.434485064819455],[5.487231686711311,51.434435192495584],[5.48728633671999,51.434397138655186],[5.487274434417486,51.43437149003148],[5.487271836027503,51.434295047074556],[5.487322546541691,51.43422815948725],[5.487415753304958,51.43418465740979],[5.487552043050528,51.43413704819977],[5.487681459635496,51.43407426774502],[5.487705180421472,51.4340232219547],[5.487662181258202,51.43398785032332],[5.487539554014802,51.433904115110636],[5.487440312281251,51.43384912982583],[5.487389182671905,51.4337919652462],[5.487362779676914,51.4337575994432],[5.487354062497616,51.43374997191131],[5.487244678661227,51.4336746186018],[5.487181395292282,51.433615358546376],[5.48716370947659,51.433594739064574],[5.487076202407479,51.433480912819505],[5.486973691731691,51.4334190543741],[5.486853998154402,51.433342611417174],[5.48684268258512,51.43333213403821],[5.486819129437208,51.43331252038479],[5.486802281811833,51.43329399637878],[5.486789373680949,51.43327773548663],[5.486797336488962,51.433269353583455],[5.486793983727694,51.43325158394873],[5.48673271201551,51.43317824229598],[5.486709661781788,51.433164747431874],[5.486547723412514,51.43309618346393],[5.4864441230893135,51.43300540745258],[5.486437166109681,51.43291790038347],[5.486397854983807,51.432820251211524],[5.486328033730388,51.43267549574375],[5.486260140314698,51.4325780980289],[5.486211106181145,51.432522274553776],[5.486211525276303,51.43250685185194],[5.486221415922046,51.43243451602757],[5.486216302961111,51.432385900989175],[5.486226864159107,51.43230878748],[5.486275646835566,51.432259418070316],[5.486390395089984,51.43226796761155],[5.486493660137057,51.43228339031339],[5.48655778169632,51.43226352520287],[5.4866287764161825,51.43220879137516],[5.486760288476944,51.432109884917736],[5.486767245456576,51.432012571021914],[5.4867556784302,51.43191802315414],[5.486814938485622,51.431854236871004],[5.4868414252996445,51.43182531930506],[5.486927926540375,51.43173906952143],[5.4870381485670805,51.431641252711415],[5.487087015062571,51.4315849263221],[5.487084416672587,51.43157545477152],[5.487146778032184,51.43146263435483],[5.487250713631511,51.43138342536986],[5.487366300076246,51.4312949962914],[5.48742706887424,51.431232299655676],[5.487512815743685,51.43113641068339],[5.487616835162044,51.43105183728039],[5.487730074673891,51.43096961081028],[5.4878300707787275,51.43088897690177],[5.4879705514758825,51.43077766522765],[5.488043138757348,51.43070977181196],[5.488133495673537,51.43064917065203],[5.488204322755337,51.43053970299661],[5.488187978044152,51.43051824532449],[5.488141877576709,51.43047935329378],[5.487960493192077,51.430429480969906],[5.48777642659843,51.430413303896785],[5.487582217901945,51.430373238399625],[5.487454896792769,51.4303366933018],[5.48742413520813,51.43032495863736],[5.487393876537681,51.43031230196357],[5.487294131889939,51.430297046899796],[5.487063126638532,51.430300986394286],[5.486952653154731,51.43027072772384],[5.48677671700716,51.43023585900664],[5.486572869122028,51.43022730946541],[5.4864199832081795,51.430235020816326],[5.486268857493997,51.430195877328515],[5.4862135369330645,51.43018623813987],[5.486215380951762,51.43019042909145],[5.4862232599407434,51.43018648959696],[5.4862514231354,51.43015497364104],[5.486275898292661,51.43011926673353],[5.486238431185484,51.430153297260404],[5.4860942624509335,51.43017081543803],[5.485887061804533,51.43013812601566],[5.485725542530417,51.430100155994296],[5.485687404870987,51.43003636971116],[5.485694110393524,51.43002941273153],[5.485697463154793,51.4300274848938],[5.485721435397863,51.42997216433287],[5.485789747908711,51.42984886653721],[5.485829059034586,51.429746858775616],[5.4858730640262365,51.429682318121195],[5.485966689884663,51.42957402393222],[5.4860530234873295,51.42948023043573],[5.486076660454273,51.42945977859199],[5.486089652404189,51.42943731509149],[5.48610482364893,51.42940261401236],[5.486130220815539,51.42932097427547],[5.486146649345756,51.42930144444108],[5.486160144209862,51.42928199842572],[5.486201718449593,51.429247381165624],[5.486236084252596,51.4291794039309],[5.486262822523713,51.429093070328236],[5.48627682030201,51.42902685329318],[5.486265253275633,51.429017800837755],[5.486166598275304,51.42898444086313],[5.486127873882651,51.428979244083166],[5.485984040424228,51.42892777919769],[5.485934000462294,51.42890271730721],[5.4858339205384254,51.428832644596696],[5.485688913613558,51.42874765209854],[5.485581625252962,51.428666515275836],[5.485558658838272,51.42864665016532],[5.485433852300048,51.42857532016933],[5.485325139015913,51.42851480282843],[5.4853082075715065,51.42850893549621],[5.485206283628941,51.42845897935331],[5.485097402706742,51.42835445702076],[5.484981145709753,51.428302237764],[5.484843263402581,51.42823216505349],[5.484744105488062,51.4281761739403],[5.484633548185229,51.42809210345149],[5.484534809365869,51.42801641486585],[5.484477477148175,51.42792555503547],[5.484453588724136,51.42780460417271],[5.484343031421304,51.42773377709091],[5.484223505482078,51.42774039879441],[5.4840427078306675,51.427787924185395],[5.484020747244358,51.42779437825084],[5.483899964019656,51.42782438546419],[5.483799800276756,51.42784383147955],[5.483762165531516,51.42785514704883],[5.483606597408652,51.42791122198105],[5.483587151393294,51.427920358255506],[5.483458237722516,51.427988251671195],[5.483297053724527,51.428050277754664],[5.4831154178828,51.42814298160374],[5.4829860012978315,51.42820450477302],[5.482877874746919,51.42827348783612],[5.482786763459444,51.428308356553316],[5.482763713225722,51.428292682394385],[5.4827026929706335,51.42824314534664],[5.482592973858118,51.428166618570685],[5.482581406831741,51.42815915867686],[5.482484512031078,51.42811959609389],[5.482344031333923,51.42811213620007],[5.482236156240106,51.42814289778471],[5.482184439897537,51.428118254989386],[5.482169771566987,51.42809755168855],[5.482067847624421,51.42801666632295],[5.4819802567362785,51.42795296385884],[5.481915548443794,51.42790149897337],[5.4818235989660025,51.4278051070869],[5.48178487457335,51.4277686458081],[5.4817175678908825,51.42769639380276],[5.481643807142973,51.427623219788074],[5.4815346747636795,51.427550967782736],[5.481430822983384,51.42747896723449],[5.481346836313605,51.42740034498274],[5.481250360608101,51.42733513377607],[5.481174420565367,51.42722231335938],[5.481115831062198,51.427144361659884],[5.481084818020463,51.4271158631891],[5.481012901291251,51.427063811570406],[5.480948192998767,51.427069092169404],[5.480882227420807,51.427076971158385],[5.480727748945355,51.42708359286189],[5.480718780308962,51.42708887346089],[5.480712745338678,51.427107229828835],[5.480682235211134,51.42711133696139],[5.480676870793104,51.42710597254336],[5.480604954063892,51.42702240496874],[5.4805318638682365,51.42691645771265],[5.480453325435519,51.426824340596795],[5.48037713393569,51.426764242351055],[5.4802721086889505,51.4266737177968],[5.4801734536886215,51.426571290940046],[5.4800930712372065,51.426486214622855],[5.479998774826527,51.42639962956309],[5.479908920824528,51.426332741975784],[5.479842703789473,51.426253197714686],[5.479757376015186,51.426157392561436],[5.479691997170448,51.42610827460885],[5.4796716291457415,51.42606921494007],[5.479666264727712,51.42605613917112],[5.4796527698636055,51.42599679529667],[5.479613207280636,51.42594063654542],[5.479592252522707,51.42590442672372],[5.479539278894663,51.42580132931471],[5.479538440704346,51.42579110339284],[5.479510696604848,51.42571457661688],[5.479472978040576,51.42561173066497],[5.47944875434041,51.42554911784828],[5.479440959170461,51.42553101293743],[5.479408102110028,51.42540654167533],[5.4794039111584425,51.42539815977216],[5.479389997199178,51.42534007318318],[5.479362336918712,51.425232365727425],[5.479352446272969,51.425120551139116],[5.479335263371468,51.42503472045064],[5.479314560070634,51.4249468781054],[5.479304753243923,51.424937322735786],[5.479288408532739,51.42485241405666],[5.479297460988164,51.424747724086046],[5.479312632232904,51.42473657615483],[5.4793426394462585,51.42471763305366],[5.479353619739413,51.42470774240792],[5.479370718821883,51.42460045404732],[5.479380190372467,51.42453012987971],[5.4793270491063595,51.42445620149374],[5.479344902560115,51.42443994060159],[5.479366360232234,51.42443516291678],[5.479340460151434,51.42439325340092],[5.47932755202055,51.42431270331144],[5.479306764900684,51.42423349432647],[5.479319337755442,51.424150597304106],[5.47936275601387,51.424095360562205],[5.479499213397503,51.424043979495764],[5.479670539498329,51.42402327619493],[5.479834405705333,51.423986814916134],[5.479836082085967,51.42396351322532],[5.479830130934715,51.423925291746855],[5.479829711839557,51.42389679327607],[5.479853264987469,51.42378372140229],[5.4798562824726105,51.423774836584926],[5.479873297736049,51.4237192645669],[5.47988461330533,51.4236880838871],[5.479916129261255,51.42360728234053],[5.479981508105993,51.42348909750581],[5.480031967163086,51.42337812110782],[5.480086198076606,51.42330637201667],[5.480132382363081,51.42326731234789],[5.480144703760743,51.42321785911918],[5.480207819491625,51.42309146001935],[5.480346120893955,51.42305885441601],[5.480450643226504,51.42306514084339],[5.480528762564063,51.4230233989656],[5.480549298226833,51.422993978485465],[5.480571091175079,51.42292197793722],[5.480578970164061,51.4228902105242],[5.480570252984762,51.42278946004808],[5.480516105890274,51.42271410673857],[5.480545610189438,51.42263607122004],[5.480575785040855,51.422590306028724],[5.480611491948366,51.422526352107525],[5.480617191642523,51.422499446198344],[5.480646695941687,51.42240548506379],[5.480739483609796,51.42231848090887],[5.480782901868224,51.42224262468517],[5.4807807225733995,51.422199038788676],[5.480778040364385,51.42219468019903],[5.4807324428111315,51.42215956002474],[5.480639319866896,51.42210507765412],[5.480659771710634,51.4220648445189],[5.480670500546694,51.422047074884176],[5.480636386200786,51.42196753062308],[5.480617946013808,51.42195990309119],[5.480505796149373,51.42190558835864],[5.480432203039527,51.42187574878335],[5.480278478935361,51.421843729913235],[5.480212680995464,51.421826211735606],[5.480114193633199,51.421805173158646],[5.480010258033872,51.421783128753304],[5.479977736249566,51.42177315428853],[5.479920823127031,51.421758737415075],[5.479809930548072,51.421726970002055],[5.4796557035297155,51.421687910333276],[5.4795691184699535,51.42166963778436],[5.479467026889324,51.42164323478937],[5.479362923651934,51.42160912044346],[5.479209283366799,51.42156997695565],[5.479080704972148,51.42153410241008],[5.478902170434594,51.421492863446474],[5.478822123259306,51.421436285600066],[5.478825224563479,51.421348694711924],[5.478888843208551,51.42127585597336],[5.478933099657297,51.42122162505984],[5.478992611169815,51.42116378992796],[5.479042818769813,51.42106278799474],[5.47896889038384,51.42099321819842],[5.478847101330757,51.42096681520343],[5.478718439117074,51.42093789763749],[5.478579634800553,51.42088785767555],[5.478565553203225,51.42088827677071],[5.478531522676349,51.42087989486754],[5.4784176126122475,51.42084217630327],[5.478335805237293,51.4208182040602],[5.478238994255662,51.42080353572965],[5.4781740345060825,51.42078945413232],[5.478090802207589,51.420765398070216],[5.477911597117782,51.420721812173724],[5.477743204683065,51.42065961845219],[5.477590234950185,51.42062055878341],[5.477432571351528,51.42058443278074],[5.477255713194609,51.42054185271263],[5.477107856422663,51.42049332149327],[5.476926639676094,51.42045048996806],[5.4767833929508924,51.420417381450534],[5.476609636098146,51.420360300689936],[5.476475525647402,51.42032274976373],[5.476296991109848,51.42026826739311],[5.476147960871458,51.420223424211144],[5.475985687226057,51.420179419219494],[5.475890636444092,51.420154022052884],[5.475793657824397,51.420128624886274],[5.475562484934926,51.42004732042551],[5.475419824942946,51.42001010477543],[5.475285463035107,51.419973308220506],[5.475150682032108,51.41992452554405],[5.475038783624768,51.4198612421751],[5.474982624873519,51.41979846172035],[5.474986732006073,51.419784212484956],[5.475006261840463,51.41971975564957],[5.475020259618759,51.41970869153738],[5.475154956802726,51.4196437317878],[5.475297113880515,51.41958296298981],[5.47542829066515,51.41949872486293],[5.47555242665112,51.41940241679549],[5.475562820211053,51.41939395107329],[5.475571872666478,51.41938531771302],[5.475678574293852,51.4193157479167],[5.475801452994347,51.419221283867955],[5.4758924804627895,51.41915800049901],[5.475942520424724,51.41906186006963],[5.475865658372641,51.41895717009902],[5.4758265148848295,51.41892674379051],[5.475766500458121,51.418880475685],[5.475714448839426,51.41881937161088],[5.475653260946274,51.418746868148446],[5.4756432864815,51.418735552579165],[5.475554438307881,51.41861652955413],[5.475506829097867,51.418545451015234],[5.47550012357533,51.418529860675335],[5.475491741672158,51.4185110013932],[5.475457459688187,51.41843765974045],[5.475406665354967,51.418328611180186],[5.475402055308223,51.41822710633278],[5.475491406396031,51.41809115186334],[5.475597186014056,51.4179721288383],[5.4756963439285755,51.41790716908872],[5.475776810199022,51.4178513456136],[5.475872699171305,51.417783284559846],[5.475894659757614,51.417765179648995],[5.475905975326896,51.41775847412646],[5.475916201248765,51.4177511818707],[5.475968588143587,51.41769401729107],[5.47604545019567,51.417630817741156],[5.476166317239404,51.41755370423198],[5.476221051067114,51.417449014261365],[5.4762123338878155,51.41739159822464],[5.476230690255761,51.417296044528484],[5.476244017481804,51.41724952496588],[5.476277796551585,51.41723510809243],[5.476391036063433,51.41721859574318],[5.476543670520186,51.41722219996154],[5.4766487795859575,51.41725480556488],[5.476800492033362,51.417234521359205],[5.476953964680433,51.41721323132515],[5.477085895836353,51.417209543287754],[5.477279517799616,51.417199820280075],[5.47742729075253,51.417177775874734],[5.477544888854027,51.417151372879744],[5.477571124210954,51.41714273951948],[5.477718897163868,51.41711692325771],[5.477868681773543,51.41711591742933],[5.478029530495405,51.41709395684302],[5.478203622624278,51.41707794740796],[5.478329099714756,51.41706705093384],[5.478469664230943,51.41705556772649],[5.478638727217913,51.41703980974853],[5.478790104389191,51.41700837761164],[5.4788917768746614,51.416956493631005],[5.479060169309378,51.416919780895114],[5.479094116017222,51.416845014318824],[5.479082968086004,51.4167202077806],[5.47907349653542,51.416686763986945],[5.4790507815778255,51.41661811619997],[5.479027731344104,51.41650906763971],[5.47899235971272,51.4164387434721],[5.47896159812808,51.41629063524306],[5.478961430490017,51.41628107987344],[5.478944415226579,51.41619441099465],[5.478906612843275,51.41606843098998],[5.47887559980154,51.41598201356828],[5.478870486840606,51.41597212292254],[5.478845424950123,51.4158343244344],[5.478813322260976,51.41571546904743],[5.478808041661978,51.41570230945945],[5.4787916131317616,51.41563885845244],[5.478789014741778,51.41561388038099],[5.4787657130509615,51.41551882959902],[5.478755654767156,51.415493516251445],[5.478724893182516,51.41541816294193],[5.4787159245461226,51.415380192920566],[5.478698993101716,51.41530157066882],[5.4786808881908655,51.41517609357834],[5.478652054443955,51.41508724540472],[5.478606121614575,51.41496906057],[5.478587094694376,51.4148810505867],[5.4785592667758465,51.414768900722265],[5.478533366695046,51.414643758907914],[5.478513082489371,51.41453554853797],[5.478499419987202,51.41445005312562],[5.4784597735852,51.41432952135801],[5.478431358933449,51.414249474182725],[5.4784326162189245,51.4141317922622],[5.478428173810244,51.414033556357026],[5.478388946503401,51.413895171135664],[5.478363884612918,51.413863906636834],[5.478333123028278,51.413775058463216],[5.478309486061335,51.413708422333],[5.47831074334681,51.4137015491724],[5.478303534910083,51.41358017921448],[5.478271096944809,51.413477500900626],[5.478339157998562,51.413383120670915],[5.47849397175014,51.41333073377609],[5.478610061109066,51.41327206045389],[5.4786063730716705,51.41325630247593],[5.47858290374279,51.41316049732268],[5.478556081652641,51.41307416372001],[5.478534121066332,51.412967797368765],[5.478522134944797,51.41289998777211],[5.478521967306733,51.41287333332002],[5.47849983908236,51.41278825700283],[5.478489529341459,51.412693206220865],[5.478474944829941,51.41264601610601],[5.478447368368506,51.41257904469967],[5.478433286771178,51.41252540051937],[5.478423228487372,51.41249195672572],[5.478391293436289,51.41238299198449],[5.478375535458326,51.41228928230703],[5.478341169655323,51.41218392178416],[5.478302864357829,51.41207763925195],[5.478307977318764,51.411971021443605],[5.478309486061335,51.411868929862976],[5.478282328695059,51.411805814132094],[5.478263553231955,51.41174890100956],[5.478254416957498,51.41171797178686],[5.478209489956498,51.4116033911705],[5.478167412802577,51.41148361377418],[5.478141093626618,51.41137121245265],[5.478121228516102,51.41123886220157],[5.478095160797238,51.41111950390041],[5.47806641086936,51.4110092818737],[5.478039840236306,51.410901406779885],[5.478044617921114,51.41077911481261],[5.478146877139807,51.41070334240794],[5.478297667577863,51.41066897660494],[5.478474022820592,51.410662522539496],[5.478625483810902,51.41064944677055],[5.478647192940116,51.410646848380566],[5.478787254542112,51.41062865965068],[5.478937961161137,51.410629497841],[5.479010967537761,51.410693787038326],[5.479127308353782,51.410777270793915],[5.47914968803525,51.410805182531476],[5.479200733825564,51.410819264128804],[5.479300729930401,51.41078867018223],[5.479316990822554,51.4107814617455],[5.479328641667962,51.410770900547504],[5.479368371888995,51.410752292722464],[5.479382034391165,51.41075472347438],[5.479376837611198,51.410746928304434],[5.479306178167462,51.41071876510978],[5.4791585728526115,51.410716753453016],[5.479063605889678,51.410709377378225],[5.479055978357792,51.41069110482931],[5.479024797677994,51.410664869472384],[5.478923376649618,51.41060166992247],[5.478787086904049,51.41059538349509],[5.478655239567161,51.41060745343566],[5.478537641465664,51.41062220558524],[5.478433035314083,51.410638047382236],[5.478391880169511,51.410638466477394],[5.478309318423271,51.41065137460828],[5.478256344795227,51.41065405681729],[5.47810111194849,51.41067207790911],[5.478085270151496,51.41067501157522],[5.477984435856342,51.41066419892013],[5.477953338995576,51.41057761386037],[5.4778763093054295,51.41047745011747],[5.477868178859353,51.410462111234665],[5.477824844419956,51.41037007793784],[5.477811601012945,51.41032263636589],[5.47780891880393,51.41029053367674],[5.477804811671376,51.410261280834675],[5.477820485830307,51.41017838381231],[5.477845715358853,51.41013890504837],[5.4778792429715395,51.410074699670076],[5.477981083095074,51.40999129973352],[5.47803757712245,51.40990328975022],[5.478089964017272,51.40983019955456],[5.4781681671738625,51.40973531641066],[5.478210160508752,51.40965761616826],[5.478260535746813,51.40958620235324],[5.478353323414922,51.409499952569604],[5.478426078334451,51.40942191705108],[5.478488355875015,51.409391071647406],[5.478514088317752,51.40937992371619],[5.478588016703725,51.40930121764541],[5.478615006431937,51.40921454876661],[5.478628082200885,51.409109523519874],[5.478654066100717,51.4090115390718],[5.478612659499049,51.408907268196344],[5.478605953976512,51.40889695845544],[5.47859757207334,51.408854043111205],[5.478619448840618,51.40885328873992],[5.478662615641952,51.40884415246546],[5.478866966441274,51.408824706450105],[5.478933602571487,51.40883484855294],[5.478987665846944,51.40883292071521],[5.479037705808878,51.40881942585111],[5.479167876765132,51.40877449885011],[5.479257060214877,51.40870367176831],[5.479309028014541,51.408597473055124],[5.4793706350028515,51.40845171175897],[5.479418830946088,51.408375604078174],[5.479424111545086,51.408365461975336],[5.479458728805184,51.40829346142709],[5.479464344680309,51.408281391486526],[5.4795243591070175,51.40819748863578],[5.479590492323041,51.408094642683864],[5.4796406999230385,51.40799104236066],[5.479653188958764,51.40793664380908],[5.47967791557312,51.40789423137903],[5.479743126779795,51.407789289951324],[5.479794759303331,51.407696502283216],[5.479809008538723,51.40764847397804],[5.479834992438555,51.40760916285217],[5.479907831177115,51.40750581398606],[5.479911435395479,51.40749491751194],[5.479934653267264,51.40739366412163],[5.479934401810169,51.40730540268123],[5.479929456487298,51.40718067996204],[5.479920152574778,51.40704648569226],[5.4798998683691025,51.406903071329],[5.479902047663927,51.40681707300246],[5.479940688237548,51.406730990856886],[5.480025848373771,51.406656727194786],[5.480098687112331,51.40655564144254],[5.480051329359412,51.40642538666725],[5.480022327974439,51.406380543485284],[5.479998020455241,51.40635682269931],[5.479910848662257,51.40632807277143]]}}