{"type":"Feature","properties":{"name":"Montferland","date":"2026-09-05","distance":"12.90 km","ascent":"305 m"},"geometry":{"type":"LineString","coordinates":[[6.198664829134941,51.90273153595626],[6.198676731437445,51.90273187123239],[6.198710175231099,51.90271527506411],[6.198749905452132,51.90269079990685],[6.198793072253466,51.90269423648715],[6.198831126093864,51.902681747451425],[6.198999602347612,51.902617709711194],[6.1990864388644695,51.90258820541203],[6.199138071388006,51.902565406635404],[6.199182998389006,51.902555767446756],[6.19918123818934,51.90256532281637],[6.1991839203983545,51.90256146714091],[6.199187189340591,51.90255752764642],[6.199203031137586,51.90254730172455],[6.199229685589671,51.90253648906946],[6.199263045564294,51.90251930616796],[6.199333034455776,51.90248812548816],[6.1993638798594475,51.90247152931988],[6.199392713606358,51.90245392732322],[6.199423559010029,51.90243766643107],[6.19952573440969,51.902429200708866],[6.1995364632457495,51.902436409145594],[6.199595807120204,51.902525844052434],[6.199603853747249,51.90253347158432],[6.199638806283474,51.90258049406111],[6.1996822245419025,51.90261687152088],[6.199784567579627,51.902687195688486],[6.199888419359922,51.90279129892588],[6.20001976378262,51.90289028920233],[6.2001013197004795,51.902973437681794],[6.200169883668423,51.903031608089805],[6.200213888660073,51.9030767865479],[6.2003254517912865,51.903160689398646],[6.200428549200296,51.903235875070095],[6.200537094846368,51.903322795405984],[6.200647819787264,51.903426982462406],[6.200736416503787,51.9034980610013],[6.200761394575238,51.90351666882634],[6.200888212770224,51.9036156591028],[6.200984353199601,51.90367835573852],[6.201073955744505,51.90375647507608],[6.201088959351182,51.90377005375922],[6.201192224398255,51.90386015921831],[6.201262967661023,51.90393224358559],[6.2012905441224575,51.903960071504116],[6.201366987079382,51.90403567627072],[6.201445274055004,51.904086554422975],[6.2014993373304605,51.90413307398558],[6.201551640406251,51.904174564406276],[6.201573768630624,51.90419275313616],[6.201634705066681,51.904266430065036],[6.2016569171100855,51.904284534975886],[6.201767725870013,51.90437329933047],[6.201788010075688,51.9043926615268],[6.20183159597218,51.904444294050336],[6.201860848814249,51.90447128377855],[6.201967382803559,51.904570860788226],[6.202050531283021,51.904650907963514],[6.202078862115741,51.90468963235617],[6.202110797166824,51.9047362357378],[6.20223174802959,51.90484997816384],[6.202293103560805,51.90488928928971],[6.202322859317064,51.904905466362834],[6.202409695833921,51.904972437769175],[6.202474487945437,51.90506698563695],[6.202457556501031,51.90515189431608],[6.202446073293686,51.905240239575505],[6.2024470791220665,51.905247112736106],[6.202459568157792,51.905333613976836],[6.202462250366807,51.905361860990524],[6.202475074678659,51.905397567898035],[6.202451940625906,51.905454229563475],[6.202358398586512,51.90553234890103],[6.202237782999873,51.90565614961088],[6.202216157689691,51.90567861311138],[6.202140552923083,51.905828062444925],[6.202135104686022,51.90584189258516],[6.20213259011507,51.90594758838415],[6.202200148254633,51.906035682186484],[6.202328559011221,51.906119249761105],[6.202434925362468,51.906216563656926],[6.202552020549774,51.9062957726419],[6.202647155150771,51.90635126084089],[6.2026821076869965,51.90637213177979],[6.202744469046593,51.90644019283354],[6.202743127942085,51.906465757638216],[6.202704068273306,51.90655326470733],[6.202641203999519,51.906613195315],[6.20261337608099,51.9066340662539],[6.202583536505699,51.90666918642819],[6.202521678060293,51.906718807294965],[6.2024579755961895,51.90675610676408],[6.202434506267309,51.90677328966558],[6.202306263148785,51.90687479451299],[6.202189167961478,51.906953332945704],[6.202060421928763,51.907012509182096],[6.201949613168836,51.90708442591131],[6.201938297599554,51.90709272399545],[6.201842995360494,51.90714988857508],[6.201718272641301,51.907233875244856],[6.201663706451654,51.90728282555938],[6.201626323163509,51.90731291659176],[6.201469162479043,51.9074041955173],[6.201355587691069,51.90750771202147],[6.20128677226603,51.907553896307945],[6.201250813901424,51.907576359808445],[6.201114524155855,51.90765707753599],[6.200930625200272,51.90777358599007],[6.200861306861043,51.90782907418907],[6.200825599953532,51.90785371698439],[6.2006632424890995,51.90793829038739],[6.200532987713814,51.90801624208689],[6.200423771515489,51.90807583741844],[6.200240962207317,51.90818346105516],[6.200214559212327,51.9082020688802],[6.200102912262082,51.908278511837125],[6.20002705603838,51.908331820741296],[6.200001072138548,51.90834925509989],[6.199903171509504,51.908457297831774],[6.199925886467099,51.908498452976346],[6.199968382716179,51.908549163490534],[6.1999838054180145,51.90858361311257],[6.200015405192971,51.90868184901774],[6.200033761560917,51.908769104629755],[6.20005982927978,51.908852672204375],[6.200100900605321,51.90895694307983],[6.200139876455069,51.90902919508517],[6.200149264186621,51.90903908573091],[6.20028312318027,51.9091051351279],[6.200312878936529,51.90916271880269],[6.200347580015659,51.90923312678933],[6.200372809544206,51.90926154144108],[6.200436847284436,51.90935709513724],[6.200504321604967,51.90945776179433],[6.200548410415649,51.90952540375292],[6.2005972769111395,51.909609055146575],[6.20067891664803,51.90972941927612],[6.200802465900779,51.90989890135825],[6.2008146196603775,51.90991365350783],[6.200864240527153,51.909996550530195],[6.200942192226648,51.91011557355523],[6.201015114784241,51.9102050922811],[6.201026597991586,51.910210121423006],[6.201015198603272,51.910206098109484],[6.201012181118131,51.91020525991917],[6.201010923832655,51.910207606852055],[6.201012600213289,51.9102140609175],[6.201044199988246,51.9102624244988],[6.201060460880399,51.91028111614287],[6.201139083132148,51.91038899123669],[6.201242431998253,51.91052754409611],[6.2013317830860615,51.91065461374819],[6.201404621824622,51.91074681468308],[6.201416859403253,51.91075645387173],[6.201431443914771,51.91079132258892],[6.201447872444987,51.91082317382097],[6.201498918235302,51.91090405918658],[6.2015841621905565,51.911026602610946],[6.201681979000568,51.911158030852675],[6.2017429154366255,51.911253333091736],[6.201818436384201,51.91138207912445],[6.201910972595215,51.91148090176284],[6.2019849848002195,51.911582155153155],[6.20204365812242,51.91162683069706],[6.20204558596015,51.91163722425699],[6.202061763033271,51.91167125478387],[6.202145833522081,51.911783488467336],[6.2022532895207405,51.911910474300385],[6.202291678637266,51.91196244210005],[6.202350268140435,51.912009716033936],[6.20235638692975,51.91199856810272],[6.202352782711387,51.91199672408402],[6.2023622542619705,51.912011224776506],[6.202388238161802,51.91204500384629],[6.202420508489013,51.91208674572408],[6.202491167932749,51.91217567771673],[6.202589571475983,51.91230299882591],[6.202679006382823,51.91240676678717],[6.202780259773135,51.91252210177481],[6.202867850661278,51.91263190470636],[6.202951166778803,51.91273215226829],[6.203032052144408,51.91282611340284],[6.203106148168445,51.912936083972454],[6.203201115131378,51.913056867197156],[6.203303290531039,51.91319047473371],[6.203386941924691,51.91330572590232],[6.203490206971765,51.91343044862151],[6.203569835051894,51.91353539004922],[6.203624568879604,51.91361661069095],[6.203711908310652,51.91374569199979],[6.2037199549376965,51.9137573428452],[6.203826740384102,51.9138974044472],[6.203898740932345,51.91399589180946],[6.203896729275584,51.91399522125721],[6.203893963247538,51.91399429924786],[6.203893963247538,51.91399429924786],[6.203893963247538,51.91399429924786],[6.203931597992778,51.9140459317714],[6.20404408313334,51.91419152542949],[6.2041266448795795,51.91430937498808],[6.204143660143018,51.91433183848858],[6.204241057857871,51.914449352771044],[6.204353040084243,51.914586732164025],[6.204434931278229,51.91468765027821],[6.204459993168712,51.91472025588155],[6.204576836898923,51.91486299969256],[6.204703068360686,51.91500314511359],[6.204803232103586,51.915121329948306],[6.204929882660508,51.91526918672025],[6.205039098858833,51.91539164632559],[6.205122247338295,51.91550672985613],[6.205253507941961,51.91565810702741],[6.205358700826764,51.91581736318767],[6.205375799909234,51.91583798266947],[6.205479735508561,51.915978798642755],[6.205580569803715,51.91609329544008],[6.20563605800271,51.91619111225009],[6.2056410033255816,51.91625917330384],[6.205672603100538,51.91630879417062],[6.205769749358296,51.91638800315559],[6.205836050212383,51.91643251106143],[6.205883827060461,51.91647098399699],[6.2059752736240625,51.916561760008335],[6.206117263063788,51.9167154841125],[6.206251624971628,51.91684691235423],[6.206399314105511,51.916987309232354],[6.206548009067774,51.91714195534587],[6.206668708473444,51.91726718097925],[6.206744061782956,51.91734563559294],[6.2068570498377085,51.91743766888976],[6.206996189430356,51.91755292005837],[6.207125438377261,51.917658280581236],[6.207228284329176,51.917747715488076],[6.207321574911475,51.917847376316786],[6.207448896020651,51.917996909469366],[6.207535481080413,51.91811241209507],[6.207540342584252,51.91812372766435],[6.207570685073733,51.91816312260926],[6.2076472118496895,51.91822858527303],[6.20768878608942,51.91826345399022],[6.207691887393594,51.918268483132124],[6.2077320367097855,51.91826823167503],[6.207861453294754,51.918238224461675],[6.208027079701424,51.918159099295735],[6.20822086930275,51.91808466799557],[6.208402588963509,51.918006129562855],[6.208566287532449,51.917939158156514],[6.2087257113307714,51.917884508147836],[6.208789329975843,51.91785684786737],[6.208884548395872,51.91781762056053],[6.208968786522746,51.917773950845],[6.209017485380173,51.91775877960026],[6.209046905860305,51.917745703831315],[6.2092304695397615,51.91766481846571],[6.209243545308709,51.91765735857189],[6.209424510598183,51.91757261753082],[6.209545126184821,51.91752701997757],[6.209611259400845,51.91750262863934],[6.209674375131726,51.91747999750078],[6.20979817584157,51.91742425784469],[6.209918037056923,51.91736876964569],[6.210097661241889,51.91729576326907],[6.210264628753066,51.917235581204295],[6.210466213524342,51.9171489123255],[6.210574256256223,51.91710624843836],[6.210582470521331,51.917102728039026],[6.210589846596122,51.91709996201098],[6.210589846596122,51.91709996201098],[6.210590768605471,51.9170886464417],[6.210671486333013,51.917065512388945],[6.210846081376076,51.91700264811516],[6.2110319919884205,51.91695344634354],[6.211110781878233,51.91693148575723],[6.211214633658528,51.9169004727155],[6.211370453238487,51.91683459095657],[6.211504396051168,51.916777258738875],[6.211546389386058,51.91676083020866],[6.211668848991394,51.916697630658746],[6.211739759892225,51.91667156293988],[6.21180790476501,51.91665974445641],[6.211872445419431,51.91665421240032],[6.211943104863167,51.91662194207311],[6.212029019370675,51.916589671745896],[6.21207520365715,51.91656460985541],[6.212090793997049,51.91655564121902],[6.212187688797712,51.916499231010675],[6.212325487285852,51.91644483245909],[6.212451886385679,51.91640040837228],[6.212462363764644,51.916395127773285],[6.212598904967308,51.916349194943905],[6.212675264105201,51.916386326774955],[6.212780121713877,51.916468469426036],[6.21286285109818,51.916565615683794],[6.212935941293836,51.91665966063738],[6.212987070903182,51.9167102035135],[6.213036272674799,51.916751358658075],[6.213061502203345,51.91677491180599],[6.213146327063441,51.91685227677226],[6.21320734731853,51.9169451482594],[6.213298374786973,51.917056795209646],[6.213419828563929,51.917155450209975],[6.213513454422355,51.917258044704795],[6.213626442477107,51.917353849858046],[6.213723421096802,51.9174340646714],[6.213773209601641,51.91749416291714],[6.213854681700468,51.917590806260705],[6.213920395821333,51.91765408962965],[6.213990468531847,51.91772550344467],[6.214005304500461,51.917741848155856],[6.2140848487615585,51.91780027002096],[6.214089458808303,51.917802449315786],[6.2140922248363495,51.91780613735318],[6.214114101603627,51.91782960668206],[6.214191885665059,51.917882580310106],[6.21429112739861,51.91795248538256],[6.214423142373562,51.918003195896745],[6.214601257815957,51.91803865134716],[6.2147648725658655,51.91806840710342],[6.2149071134626865,51.91812397912145],[6.215030495077372,51.91819757223129],[6.215161504223943,51.9182663038373],[6.215241299942136,51.91831919364631],[6.215253621339798,51.91832589916885],[6.215361496433616,51.918361354619265],[6.215529218316078,51.918455734848976],[6.215684115886688,51.9185443315655],[6.215795427560806,51.918596383184195],[6.215911265462637,51.91868707537651],[6.216049734503031,51.918768882751465],[6.216080412268639,51.918780198320746],[6.216191053390503,51.91883744671941],[6.216203374788165,51.91885119304061],[6.21623245999217,51.91894708201289],[6.216231621801853,51.918953033164144],[6.216220473870635,51.91902562044561],[6.2161685060709715,51.91912243142724],[6.216110922396183,51.91924690268934],[6.216095667332411,51.919327871873975],[6.2160910572856665,51.91935000009835],[6.216056775301695,51.91944085992873],[6.216049147769809,51.91948444582522],[6.216031461954117,51.9195232540369],[6.216027773916721,51.919534066691995],[6.216009920462966,51.91959575749934],[6.2159711960703135,51.919683096930385],[6.2159563601017,51.919782757759094],[6.215860052034259,51.919861966744065],[6.215729797258973,51.91992608830333],[6.21566416695714,51.9199413433671],[6.215596944093704,51.91995743662119],[6.215579677373171,51.91996372304857],[6.215468868613243,51.919988952577114],[6.21542377397418,51.92000043578446],[6.215224787592888,51.92004527896643],[6.215040050446987,51.920093139633536],[6.215025382116437,51.92009657621384],[6.214896468445659,51.92013915628195],[6.214732266962528,51.920221131294966],[6.21465565636754,51.92024443298578],[6.214601593092084,51.92025600001216],[6.214458178728819,51.92030671052635],[6.214384334161878,51.92032883875072],[6.214303281158209,51.92036144435406],[6.214188951998949,51.92039170302451],[6.214171852916479,51.920396061614156],[6.214052913710475,51.92044224590063],[6.213917210698128,51.92054031416774],[6.213894244283438,51.920619858428836],[6.213996671140194,51.920721447095275],[6.214137151837349,51.920797219499946],[6.214295318350196,51.920864107087255],[6.214307053014636,51.920870058238506],[6.214395062997937,51.92091674543917],[6.214540991932154,51.92100081592798],[6.214652135968208,51.921056220307946],[6.214797897264361,51.92114347591996],[6.214905520901084,51.921180272474885],[6.214931672438979,51.92118873819709],[6.215058406814933,51.921261409297585],[6.215184386819601,51.9213177356869],[6.215246915817261,51.9213589746505],[6.215227721258998,51.9213264528662],[6.2152287270873785,51.92134212702513],[6.215322352945805,51.92139057442546],[6.215431988239288,51.921444134786725],[6.215526536107063,51.92148788832128],[6.215642374008894,51.9215489923954],[6.21568369679153,51.92157028242946],[6.215765085071325,51.92162283696234],[6.215891484171152,51.9217149540782],[6.216029953211546,51.92177630960941],[6.216046968474984,51.921783769503236],[6.216158615425229,51.92181285470724],[6.2163021974265575,51.9218735396862],[6.216370174661279,51.92194134928286],[6.216352321207523,51.922032963484526],[6.216364307329059,51.92209389992058],[6.216381238773465,51.92218182608485],[6.216420214623213,51.92229204811156],[6.216433960944414,51.92238215357065],[6.216438738629222,51.922399923205376],[6.216435134410858,51.92251492291689],[6.216474277898669,51.92262263037264],[6.216482073068619,51.92268272861838],[6.216479558497667,51.92270393483341],[6.216487353667617,51.92279973998666],[6.2165233958512545,51.922920271754265],[6.216539070010185,51.9230514485389],[6.216560276225209,51.92315932363272],[6.21659648604691,51.92327071912587],[6.216593971475959,51.923294859007],[6.216591792181134,51.92330064252019],[6.216646442189813,51.92335403524339],[6.216711904853582,51.92342578433454],[6.216711904853582,51.923441626131535],[6.216689106076956,51.9234521035105],[6.216671168804169,51.923444643616676],[6.2166765332221985,51.923445565626025],[6.216684663668275,51.92352896556258],[6.216693883761764,51.92354941740632],[6.216722382232547,51.9236178137362],[6.21675088070333,51.923715295270085],[6.21675381436944,51.92383130080998],[6.216798406094313,51.923920568078756],[6.216809218749404,51.92398770712316],[6.216813493520021,51.92401545122266],[6.216821288689971,51.924094492569566],[6.216833526268601,51.924217035993934],[6.216850206255913,51.92433069460094],[6.216849284246564,51.92438702099025],[6.216837465763092,51.92444988526404],[6.216854732483625,51.92455440759659],[6.217019772157073,51.92466018721461],[6.21719746850431,51.92471852526069],[6.217379942536354,51.92477158270776],[6.217509275302291,51.9247954711318],[6.217653444036841,51.924840565770864],[6.217677583917975,51.92486193962395],[6.2176961079239845,51.924896724522114],[6.217701891437173,51.924913404509425],[6.217701388522983,51.9249268155545],[6.217700801789761,51.92492731846869],[6.217690072953701,51.92493058741093],[6.217649253085256,51.92497853189707],[6.217555124312639,51.92506520077586],[6.217495612800121,51.92512664012611],[6.2174655217677355,51.925157736986876],[6.217352952808142,51.92526343278587],[6.217326633632183,51.92529478110373],[6.217246167361736,51.925371224060655],[6.217145333066583,51.925467280671],[6.2170372903347015,51.92556534893811],[6.216962020844221,51.925678085535765],[6.216934444382787,51.92581186071038],[6.216955818235874,51.92582443356514],[6.217100154608488,51.92587916739285],[6.2172310799360275,51.92591487430036],[6.217387318611145,51.926017720252275],[6.217544227838516,51.92610162310302],[6.217698371037841,51.92613950930536],[6.217771880328655,51.92617923952639],[6.217818483710289,51.926202876493335],[6.217973129823804,51.926300609484315],[6.218044627457857,51.926328856498],[6.21813029050827,51.92636925727129],[6.2183078192174435,51.926445700228214],[6.218479983508587,51.92651350982487],[6.218618536368012,51.92656799219549],[6.218752730637789,51.92662817426026],[6.218755999580026,51.92663446068764],[6.2188010942190886,51.92665373906493],[6.2188744358718395,51.926680225878954],[6.2190211191773415,51.92674049176276],[6.219193954020739,51.926829842850566],[6.219254890456796,51.926854234188795],[6.219357568770647,51.92688977345824],[6.219407105818391,51.926908465102315],[6.219506347551942,51.9269523024559],[6.219676835462451,51.92702991887927],[6.219858303666115,51.92709781229496],[6.219999622553587,51.927172746509314],[6.220168182626367,51.92723896354437],[6.220224844291806,51.92725849337876],[6.220315452665091,51.92729369737208],[6.2203366588801146,51.92730434238911],[6.2203667499125,51.92731624469161],[6.220514690503478,51.92737919278443],[6.220683753490448,51.92745303735137],[6.220807051286101,51.927509028464556],[6.2208205461502075,51.92751422524452],[6.221003271639347,51.92758454941213],[6.22113193385303,51.92764020524919],[6.2212001625448465,51.92766518332064],[6.221290016546845,51.9276949390769],[6.221356485038996,51.92771782167256],[6.221452290192246,51.927755707874894],[6.221636356785893,51.92784053273499],[6.221806174144149,51.92790406756103],[6.221834672614932,51.92791538313031],[6.221951516345143,51.92798336036503],[6.22209551744163,51.928049409762025],[6.222263406962156,51.92810892127454],[6.222436157986522,51.92818553186953],[6.22264176607132,51.92828653380275],[6.22276296839118,51.928338669240475],[6.222795406356454,51.92835518158972],[6.2230108212679625,51.92845324985683],[6.223180973902345,51.92852181382477],[6.223406698554754,51.92862482741475],[6.223546676337719,51.928681153804064],[6.22371138073504,51.92875030450523],[6.223844988271594,51.92881182767451],[6.223985468968749,51.92888366058469],[6.224128631874919,51.928946105763316],[6.224297611042857,51.92900595255196],[6.2244173884391785,51.92905029281974],[6.224515875801444,51.92906177602708],[6.224658535793424,51.92905926145613],[6.22481225989759,51.92900360561907],[6.224879063665867,51.928920708596706],[6.224934719502926,51.92884057760239],[6.225007809698582,51.92873178049922],[6.225084671750665,51.92862130701542],[6.225137896835804,51.92854695953429],[6.225209562107921,51.928424164652824],[6.225275779142976,51.92830681800842],[6.225322047248483,51.92823104560375],[6.225336799398065,51.92820464260876],[6.22538935393095,51.92811872810125],[6.225472670048475,51.92802426405251],[6.225537713617086,51.92791873589158],[6.22559211216867,51.927825612947345],[6.225637122988701,51.92773894406855],[6.225689090788364,51.9276431389153],[6.225744662806392,51.92755823023617],[6.225755056366324,51.927531408146024],[6.225787242874503,51.9274774286896],[6.225833343341947,51.92739679478109],[6.225836360827088,51.92738866433501],[6.225897129625082,51.92729369737208],[6.226001735776663,51.92717827856541],[6.226058984175324,51.92708037793636],[6.226138276979327,51.926981220021844],[6.226192926988006,51.92686848342419],[6.22624346986413,51.926775528118014],[6.226282361894846,51.92668885923922],[6.22636660002172,51.92664233967662],[6.22651806101203,51.92664133384824],[6.226706234738231,51.926686177030206],[6.226869346573949,51.926755076274276],[6.227027093991637,51.92678701132536],[6.227063052356243,51.92678801715374],[6.227144692093134,51.926801512017846],[6.227298667654395,51.92683688364923],[6.2273285910487175,51.92682950757444],[6.227419534698129,51.92685004323721],[6.22755691409111,51.926885498687625],[6.2277305871248245,51.92692833021283],[6.227884897962213,51.92697225138545],[6.228007022291422,51.92700888030231],[6.228039208799601,51.92701902240515],[6.228133589029312,51.92699236795306],[6.228161836043,51.92697669379413],[6.228279182687402,51.92693118005991],[6.228396948426962,51.926874769851565],[6.228535249829292,51.92682355642319],[6.228679586201906,51.92676546983421],[6.228794837370515,51.926698833703995],[6.2289216555655,51.92664326168597],[6.229024166241288,51.92661702632904],[6.229038164019585,51.92661115899682],[6.229160707443953,51.92653530277312],[6.229336643591523,51.92646154202521],[6.229433370754123,51.92639423534274],[6.229515764862299,51.92635945044458],[6.2295435927808285,51.92634821869433],[6.2296875938773155,51.92626800388098],[6.229805191978812,51.9262186344713],[6.229946343228221,51.926155518740416],[6.230055559426546,51.92610338330269],[6.230152538046241,51.92606348544359],[6.230183131992817,51.92604621872306],[6.230263346806169,51.925987377762794],[6.230286145582795,51.92597203887999],[6.230419417843223,51.92591051571071],[6.230570208281279,51.92587145604193],[6.230721669271588,51.9257886428386],[6.230864496901631,51.92572686821222],[6.230895342305303,51.925711780786514],[6.230985028669238,51.92565486766398],[6.231074966490269,51.92560491152108],[6.231114948168397,51.92562066949904],[6.231141351163387,51.92567506805062],[6.231152834370732,51.92570473998785],[6.231180410832167,51.925743548199534],[6.231222068890929,51.92578596062958],[6.2312455382198095,51.92582686431706],[6.231299769133329,51.9259369187057],[6.231359113007784,51.92604831419885],[6.231406973674893,51.92616557702422],[6.2315758690238,51.92626942880452],[6.2317644618451595,51.92625677213073],[6.231861272826791,51.92617957480252],[6.231930842623115,51.926138335838914],[6.231985744088888,51.926101287826896],[6.23199756257236,51.9260957557708],[6.232067635282874,51.92605803720653],[6.2321279011666775,51.9260198995471],[6.232140054926276,51.926012272015214],[6.2322460021823645,51.925931219011545],[6.232285648584366,51.925915544852614],[6.232339376583695,51.92589735612273],[6.2323785200715065,51.925872042775154],[6.232451945543289,51.92581404000521],[6.232471643015742,51.9257987011224],[6.232557976618409,51.925734328106046],[6.232580775395036,51.92572217434645],[6.232646992430091,51.925677666440606],[6.232725698500872,51.92562687210739],[6.232785377651453,51.925605749711394],[6.232910519465804,51.92552545107901],[6.233017137274146,51.92545940168202],[6.233027530834079,51.92545294761658],[6.233127359300852,51.925397207960486],[6.23316390439868,51.92536921240389],[6.233218805864453,51.92532956600189],[6.2332826759666204,51.92531380802393],[6.233340846374631,51.92528321407735],[6.233400274068117,51.92522185854614],[6.233413852751255,51.92520232871175],[6.23348300345242,51.92514021880925],[6.233501611277461,51.92513200454414],[6.233617952093482,51.92508330568671],[6.233652234077454,51.92507634870708],[6.23365793377161,51.92507341504097],[6.233655586838722,51.925064362585545],[6.233693640679121,51.925020357593894],[6.233706129714847,51.925009209662676],[6.233790535479784,51.92497341893613],[6.233816519379616,51.9249527156353],[6.233870917931199,51.92492765374482],[6.2338849157094955,51.92491793073714],[6.233958341181278,51.92485749721527],[6.233954904600978,51.92484458908439],[6.233964376151562,51.924839140847325],[6.234046099707484,51.92482623271644],[6.234066551551223,51.92481600679457],[6.234131259843707,51.92478180862963],[6.2342294957488775,51.92472372204065],[6.234235865995288,51.92471877671778],[6.23429412022233,51.9246815610677],[6.23430191539228,51.924676448106766],[6.234358074143529,51.92463470622897],[6.2343785259872675,51.92462322302163],[6.234424961730838,51.92459489218891],[6.234450191259384,51.92458030767739],[6.23447684571147,51.92456488497555],[6.234485562890768,51.92455993965268],[6.2345166597515345,51.92454242147505],[6.234535267576575,51.92452129907906],[6.23455161228776,51.92450948059559],[6.23462637886405,51.92446614615619],[6.234673988074064,51.92444804124534],[6.234741881489754,51.92441870458424],[6.234792172908783,51.92439037375152],[6.2348108645528555,51.92437964491546],[6.2348200008273125,51.92437218502164],[6.2348412070423365,51.924344189465046],[6.23483014293015,51.924339747056365],[6.234891833737493,51.92431652918458],[6.23489267192781,51.92431426607072],[6.2349301390349865,51.924286941066384],[6.234936844557524,51.92428342066705],[6.235006079077721,51.924243941903114],[6.235022339969873,51.92423212341964],[6.235093167051673,51.9241947401315],[6.235139016062021,51.92416649311781],[6.235164245590568,51.92415182478726],[6.2351881340146065,51.924137994647026],[6.235224679112434,51.9241151958704],[6.235247058793902,51.92410890944302],[6.23528846539557,51.92407856695354],[6.235266420990229,51.92404487170279],[6.235150499269366,51.924007991328835],[6.235087299719453,51.92400723695755],[6.235100040212274,51.92400480620563],[6.235101968050003,51.92400706931949],[6.235102470964193,51.9239941611886],[6.235100543126464,51.92398854531348],[6.235091490671039,51.92396901547909],[6.235098280012608,51.92397396080196],[6.235102387145162,51.923971362411976],[6.2350941728800535,51.923969434574246],[6.235095094889402,51.923968931660056],[6.235093334689736,51.92396767437458],[6.235092328861356,51.92396968603134],[6.235142117366195,51.923979157581925],[6.235138848423958,51.9239788223058],[6.235123760998249,51.92396918311715],[6.235120492056012,51.92398527637124],[6.235120324417949,51.92399684339762],[6.235116049647331,51.923983599990606],[6.235109008848667,51.92397496663034],[6.2351062428206205,51.923976140096784],[6.23510280624032,51.92398234270513],[6.235118396580219,51.923997681587934],[6.235136166214943,51.92401268519461],[6.2352723721414804,51.92403464578092],[6.235414277762175,51.92399399355054],[6.235525254160166,51.92392819561064],[6.23561829328537,51.92385979928076],[6.235689790919423,51.923840437084436],[6.235703118145466,51.923840437084436],[6.235686270520091,51.92382744513452],[6.235676966607571,51.923846220597625],[6.235671183094382,51.92382794804871],[6.235777633264661,51.92377564497292],[6.235879305750132,51.9237111043185],[6.235989946871996,51.923645390197635],[6.236001597717404,51.92363717593253],[6.236090445891023,51.92358470521867],[6.23620125465095,51.92352200858295],[6.236241990700364,51.92349761724472],[6.236301250755787,51.92345964722335],[6.236398480832577,51.92340265028179],[6.236511552706361,51.92333894781768],[6.23660534620285,51.92326460033655],[6.236694697290659,51.923227636143565],[6.236715232953429,51.92321422509849],[6.23674850910902,51.9231946952641],[6.236809194087982,51.92318304441869],[6.236823946237564,51.923179775476456],[6.236845487728715,51.923177344724536],[6.236858228221536,51.92317985929549],[6.23689410276711,51.92319955676794],[6.236920673400164,51.92321464419365],[6.2369410414248705,51.923242723569274],[6.236968198791146,51.92328446544707],[6.236972389742732,51.923299469053745],[6.237040953710675,51.923384461551905],[6.237056376412511,51.92340927198529],[6.237120581790805,51.92348160780966],[6.237126030027866,51.92348730750382],[6.237158048897982,51.923524690791965],[6.237168861553073,51.9235451426357],[6.237206496298313,51.92367707379162],[6.23724396340549,51.923775812610984],[6.237266343086958,51.92380037158728],[6.237294171005487,51.923847142606974],[6.237314203754067,51.92388997413218],[6.237359466031194,51.923975218087435],[6.23740422539413,51.92401855252683],[6.237440686672926,51.92406398244202],[6.237458623945713,51.92410253919661],[6.237462647259235,51.92414562217891],[6.23746776022017,51.924243019893765],[6.237469855695963,51.92425098270178],[6.237480081617832,51.92427160218358],[6.237511765211821,51.92434050142765],[6.237517464905977,51.92435910925269],[6.237525008618832,51.924413507804275],[6.2375271040946245,51.92442893050611],[6.2375259306281805,51.92447134293616],[6.237548980861902,51.924514174461365],[6.237555267289281,51.92452481947839],[6.237549819052219,51.92455926910043],[6.237548813223839,51.9246020168066],[6.237548142671585,51.92462582141161],[6.237546466290951,51.92467041313648],[6.237548813223839,51.924700336530805],[6.237572869285941,51.92474543116987],[6.237591644749045,51.92479102872312],[6.237601786851883,51.92483386024833],[6.237609498202801,51.92484878003597],[6.237647049129009,51.92493804730475],[6.237660627812147,51.92496361210942],[6.237713433802128,51.92508238367736],[6.237723408266902,51.92511934787035],[6.2377403397113085,51.92521431483328],[6.237740842625499,51.9252254627645],[6.237763725221157,51.925319004803896],[6.23777168802917,51.92534917965531],[6.2377815786749125,51.92540382966399],[6.237788870930672,51.92541983909905],[6.237786523997784,51.925507094711065],[6.237797252833843,51.92554933950305],[6.23779515735805,51.92557708360255],[6.237759701907635,51.925676576793194],[6.2377674132585526,51.925788056105375],[6.237788451835513,51.92587170749903],[6.237788535654545,51.92591244354844],[6.237780405208468,51.925952173769474],[6.237784931436181,51.92597044631839],[6.2378109991550446,51.92601319402456],[6.237819632515311,51.92607371136546],[6.237822566181421,51.92611427977681],[6.237826840952039,51.92613473162055],[6.237829104065895,51.92615417763591],[6.237833714112639,51.92619340494275],[6.237877132371068,51.92630773410201],[6.237943768501282,51.926371939480305],[6.237962879240513,51.926391050219536],[6.237969500944018,51.9263996835798],[6.237993557006121,51.926452070474625],[6.238007890060544,51.92648392170668],[6.238028090447187,51.926528848707676],[6.2380419205874205,51.92657930776477],[6.2380442675203085,51.926589868962765],[6.238064635545015,51.92662918008864],[6.238115094602108,51.92669900134206],[6.238137474283576,51.92673328332603],[6.238182568922639,51.92681333050132],[6.238202769309282,51.926843505352736],[6.238211905583739,51.926903100684285],[6.238214839249849,51.9269073754549],[6.238255156204104,51.92694894969463],[6.238273177295923,51.92696328274906],[6.238294802606106,51.92698289640248],[6.2383470218628645,51.92705045454204],[6.2383602652698755,51.927085909992456],[6.238376693800092,51.92711885087192],[6.238381387665868,51.927142487838864],[6.238389015197754,51.927183056250215],[6.2384474370628595,51.92727408371866],[6.238457914441824,51.927282214164734],[6.238533854484558,51.92734499461949],[6.23855103738606,51.927359998226166],[6.238583642989397,51.927388329058886],[6.238630246371031,51.927440129220486],[6.2386429868638515,51.92745043896139],[6.238684309646487,51.92748421803117],[6.238726722076535,51.927510201931],[6.2387787736952305,51.92754691466689],[6.238805511966348,51.92756778560579],[6.238843817263842,51.927590584382415],[6.238893521949649,51.927620843052864],[6.23892922885716,51.92765009589493],[6.238934090360999,51.927654622122645],[6.238990752026439,51.927711786702275],[6.239026039838791,51.92773584276438],[6.2390844617038965,51.92776978947222],[6.239134334027767,51.927813459187746],[6.239158809185028,51.92783039063215],[6.239210441708565,51.927862828597426],[6.239219242706895,51.9278677739203],[6.239284537732601,51.92790063098073],[6.239328291267157,51.92793717607856],[6.239365255460143,51.92798319272697],[6.239367099478841,51.92799643613398],[6.239409176632762,51.92803884856403],[6.239433567970991,51.92805293016136],[6.239561308175325,51.92813381552696],[6.2395798321813345,51.92813968285918],[6.239606235176325,51.928133480250835],[6.239701537415385,51.928131468594074],[6.239712266251445,51.928084529936314],[6.239671781659126,51.92809852771461],[6.239661052823067,51.928109005093575],[6.239699609577656,51.92820464260876],[6.23985517770052,51.92821880802512],[6.239956682547927,51.92816122435033],[6.240053325891495,51.92809986881912],[6.240090625360608,51.928079752251506],[6.240163380280137,51.92802803590894],[6.240174612030387,51.9280213303864],[6.240240912884474,51.9279748108238],[6.240239320322871,51.92797497846186],[6.240238314494491,51.92797238007188],[6.240261280909181,51.927957544103265],[6.240291120484471,51.92794497124851],[6.240308303385973,51.927937511354685],[6.24031743966043,51.92793130874634],[6.240369156002998,51.92789518274367],[6.24044593423605,51.92785285413265],[6.240546517074108,51.927797282114625],[6.240695882588625,51.92771145142615],[6.240783557295799,51.92766367457807],[6.240843823179603,51.92764766514301],[6.240899730473757,51.927618915215135],[6.240997966378927,51.927568120881915],[6.241061752662063,51.92753761075437],[6.2411130499094725,51.92750324495137],[6.241229809820652,51.92742797546089],[6.241256883367896,51.927411211654544],[6.241307845339179,51.927371732890606],[6.241336343809962,51.92734960466623],[6.2414187379181385,51.92730777896941],[6.241451092064381,51.927291098982096],[6.241462575271726,51.92728489637375],[6.241483362391591,51.927260756492615],[6.241540694609284,51.927231419831514],[6.241605654358864,51.92717450670898],[6.241655945777893,51.92713234573603],[6.2417615577578545,51.927055483683944],[6.2418431136757135,51.927010640501976],[6.241898601874709,51.92698381841183],[6.242018211632967,51.926924642175436],[6.242117285728455,51.926866471767426],[6.242141593247652,51.926852809265256],[6.242252066731453,51.92679128609598],[6.242280900478363,51.92676178179681],[6.242309985682368,51.926720794290304],[6.24232230708003,51.92667134106159],[6.242328090593219,51.926638316363096],[6.242409395053983,51.92654360085726],[6.242494722828269,51.926483837887645],[6.242505703121424,51.92645533941686],[6.242570914328098,51.92637621425092],[6.242656409740448,51.92630471661687],[6.242686752229929,51.92627537995577],[6.242762105539441,51.92618359811604],[6.242892779409885,51.92608586512506],[6.242975844070315,51.925996681675315],[6.242993697524071,51.925958627834916],[6.24306402169168,51.92589249461889],[6.243105009198189,51.92581035196781],[6.243038959801197,51.92574664950371],[6.242952877655625,51.92567506805062],[6.242932844907045,51.92566065117717],[6.242866711691022,51.925636427477],[6.242819186300039,51.925616478547454],[6.2427890952676535,51.925603402778506],[6.242745844647288,51.925584711134434],[6.24270343221724,51.92557389847934],[6.242655571550131,51.92555855959654],[6.2425982393324375,51.92552008666098],[6.242592120543122,51.92550583742559],[6.242621289566159,51.925478680059314],[6.2426279950886965,51.92547013051808],[6.242635119706392,51.925465101376176],[6.242638975381851,51.92544045858085],[6.242639981210232,51.92543023265898],[6.2426377180963755,51.92541338503361],[6.242699911817908,51.92530928179622],[6.242705108597875,51.92529981024563],[6.24278012663126,51.92522780969739],[6.242811307311058,51.92521121352911],[6.242862185463309,51.92519327625632],[6.242898730561137,51.92516955547035],[6.242969725281,51.92512538284063],[6.243034433573484,51.925089256837964],[6.243102243170142,51.92505933344364],[6.243142727762461,51.925026308745146],[6.243258649483323,51.924936370924115],[6.2433946039527655,51.92483872175217],[6.243457552045584,51.924781976267695],[6.2434446439146996,51.924760434776545],[6.24341044574976,51.92472665570676],[6.243417235091329,51.92470922134817],[6.243503820151091,51.924639735370874],[6.243594763800502,51.92457075230777],[6.243730969727039,51.924459021538496],[6.243860889226198,51.92434729076922],[6.243924256414175,51.92429741844535],[6.243973458185792,51.924269339069724],[6.244088625535369,51.92424117587507],[6.244130367413163,51.924239080399275],[6.244274200871587,51.92424276843667],[6.244291635230184,51.92424167878926],[6.244418788701296,51.92421628162265],[6.244468996301293,51.924201445654035],[6.244528843089938,51.92418082617223],[6.244583325460553,51.92420069128275],[6.24461735598743,51.92421284504235],[6.244721291586757,51.92425835877657],[6.244733277708292,51.92426615394652],[6.24475515447557,51.92428040318191],[6.244852468371391,51.924322647973895],[6.244933269917965,51.924365144222975],[6.2449761014431715,51.92440210841596],[6.2450087908655405,51.9244275894016],[6.245073415338993,51.92446698434651],[6.245097471401095,51.92447712644935],[6.245278771966696,51.924504954367876],[6.245329566299915,51.92445927299559],[6.2453477550297976,51.92441702820361],[6.245366195216775,51.924409065395594],[6.24538111500442,51.92433555610478],[6.2454319931566715,51.92427881062031],[6.245457641780376,51.92425919696689],[6.245535844936967,51.924203373491764],[6.245631147176027,51.92409080453217],[6.245744973421097,51.923977229744196],[6.245761066675186,51.923956610262394],[6.245832899585366,51.92388905212283],[6.245909845456481,51.92379819229245],[6.2460145354270935,51.92368562333286],[6.246073041111231,51.92360281012952],[6.2460867036134005,51.92358177155256],[6.246112352237105,51.92355000413954],[6.246191477403045,51.92344623617828],[6.246275715529919,51.92332511767745],[6.24638183042407,51.92318229004741],[6.246462967246771,51.92306854762137],[6.246551563963294,51.92295966669917],[6.246610740199685,51.92286872304976],[6.246539074927568,51.922812731936574],[6.246427092701197,51.92275749519467],[6.246298681944609,51.922676442191005],[6.2462180480360985,51.92263352684677],[6.246153591200709,51.922605615109205],[6.246105059981346,51.9225834030658],[6.246056612581015,51.922561191022396],[6.246039513498545,51.922554234042764],[6.245900373905897,51.92248625680804],[6.245846394449472,51.92246312275529],[6.245820075273514,51.922455076128244],[6.2457306403666735,51.92240931093693],[6.245717229321599,51.92240218631923],[6.245636930689216,51.92237083800137],[6.245539365336299,51.92232993431389],[6.245516147464514,51.922316271811724],[6.245400980114937,51.92225600592792],[6.245388491079211,51.92224754020572],[6.245330488309264,51.92221870645881],[6.245245328173041,51.92219682969153],[6.245223367586732,51.92219112999737],[6.245115576311946,51.92213723435998],[6.245044246315956,51.922095911577344],[6.245004180818796,51.92207336425781],[6.244861437007785,51.92200865596533],[6.2448556534945965,51.922005135565996],[6.244767643511295,51.92198719829321],[6.2447616923600435,51.921984516084194],[6.244636131450534,51.921960124745965],[6.244525155052543,51.92192064598203],[6.244408814236522,51.921906396746635],[6.24438283033669,51.9219081569463],[6.244283001869917,51.9218960031867],[6.244257939979434,51.92189130932093],[6.244161715731025,51.921870186924934],[6.244088374078274,51.921864319592714],[6.244085775688291,51.92186465486884],[6.244034059345722,51.92183624021709],[6.244004387408495,51.921820398420095],[6.243906319141388,51.92178502678871],[6.243879580870271,51.92177723161876],[6.243835827335715,51.921761725097895],[6.24382040463388,51.92175904288888],[6.2437565345317125,51.92173121497035],[6.243791738525033,51.92169944755733],[6.2438225001096725,51.92168125882745],[6.243848484009504,51.921657118946314],[6.243873964995146,51.92161554470658],[6.243879497051239,51.92161043174565],[6.243908079341054,51.9215801730752],[6.2439014576375484,51.92156609147787],[6.2439250107854605,51.92152736708522],[6.243932051584125,51.92152074538171],[6.243956610560417,51.921502221375704],[6.244002375751734,51.921454360708594],[6.2440277729183435,51.92143022082746],[6.244043195620179,51.921408008784056],[6.244076890870929,51.921368446201086],[6.244190465658903,51.921297032386065],[6.244190381839871,51.92127088084817],[6.2441997695714235,51.92124565131962],[6.24423136934638,51.9212207570672],[6.244248133152723,51.92118597216904],[6.244243271648884,51.92117029801011],[6.244226256385446,51.921139704063535],[6.244231453165412,51.921141128987074],[6.2443075608462095,51.92110190168023],[6.244322061538696,51.92109217867255],[6.244349470362067,51.921034678816795],[6.2443773820996284,51.92097617313266],[6.244397163391113,51.92095069214702],[6.2444268353283405,51.92090769298375],[6.244437228888273,51.92086108960211],[6.244442509487271,51.92084030248225],[6.24445759691298,51.92082789726555],[6.244469499215484,51.92083166912198],[6.2444892805069685,51.92077509127557],[6.244519455358386,51.920739468187094],[6.244567651301622,51.920689260587096],[6.2445741053670645,51.92068071104586],[6.244599670171738,51.920652547851205],[6.244641160592437,51.920581636950374],[6.244651973247528,51.920566130429506],[6.244722297415137,51.920464877039194],[6.244737636297941,51.92044107243419],[6.244808798655868,51.92035029642284],[6.244874931871891,51.92025759257376],[6.244898736476898,51.92022289149463],[6.244928576052189,51.92018458619714],[6.245013568550348,51.9201054610312],[6.2450765166431665,51.92002834752202],[6.245097303763032,51.9200087338686],[6.245030667632818,51.919968416914344],[6.245002001523972,51.91995223984122],[6.2449513748288155,51.91992818377912],[6.244916673749685,51.91990563645959],[6.244846014305949,51.91988166421652],[6.244834112003446,51.91987504251301],[6.244754651561379,51.91985241137445],[6.244727578014135,51.91984260454774],[6.244650464504957,51.919807652011514],[6.244619954377413,51.919794995337725],[6.244541080668569,51.91977521404624],[6.244504200294614,51.91976398229599],[6.244409484788775,51.91974579356611],[6.244353577494621,51.91972048021853],[6.244326923042536,51.919701620936394],[6.24430513009429,51.91968779079616],[6.2442828342318535,51.91966951824725],[6.2441991828382015,51.91962484270334],[6.244148975238204,51.919610258191824],[6.244108071550727,51.91959894262254],[6.244087368249893,51.919591734185815],[6.244019810110331,51.919568767771125],[6.2439995259046555,51.91956021822989],[6.243973709642887,51.91953322850168],[6.243945881724358,51.91951193846762],[6.243922160938382,51.919538425281644],[6.2438401859253645,51.9194991979748],[6.243821159005165,51.919473465532064],[6.243786625564098,51.91945276223123],[6.243759887292981,51.91944597288966],[6.24368361197412,51.91941663622856],[6.243671961128712,51.919412864372134],[6.243512956425548,51.91935293376446],[6.243466269224882,51.919329883530736],[6.243444727733731,51.91929878666997],[6.243476327508688,51.9192766584456],[6.243519326671958,51.91925494931638],[6.243597529828548,51.91918194293976],[6.2436051573604345,51.91917129792273],[6.243657544255257,51.91911522299051],[6.243668356910348,51.9191003870219],[6.243653269484639,51.919077755883336],[6.243670955300331,51.91907783970237],[6.2437076680362225,51.919061578810215],[6.243780758231878,51.91900558769703],[6.243768520653248,51.918996032327414],[6.243675062432885,51.91894850693643],[6.243657041341066,51.91894104704261],[6.2434998806566,51.918891007080674],[6.243389993906021,51.918839290738106],[6.243246328085661,51.91878908313811],[6.243107104673982,51.91872211173177],[6.242962768301368,51.91867173649371],[6.242925217375159,51.918673161417246],[6.242870399728417,51.91865287721157],[6.242812229320407,51.91863225772977],[6.242708209902048,51.918593030422926],[6.242666887119412,51.91857115365565],[6.24266873113811,51.918564699590206],[6.242586672306061,51.91853938624263],[6.242572506889701,51.91853620111942],[6.242480557411909,51.91850904375315],[6.242411406710744,51.91848280839622],[6.2423694133758545,51.918469900265336],[6.242239745333791,51.918426817283034],[6.242221808061004,51.91842312924564],[6.242113849148154,51.91838742233813],[6.242077052593231,51.91837191581726],[6.242017541080713,51.918354565277696],[6.241942187771201,51.918322294950485],[6.241919556632638,51.91831232048571],[6.241844035685062,51.91826772876084],[6.241808496415615,51.918255323544145],[6.241765161976218,51.91823101602495],[6.241630213335156,51.918186927214265],[6.2416137009859085,51.91818223334849],[6.241463245823979,51.918145855888724],[6.241358974948525,51.91810595802963],[6.241348246112466,51.91810268908739],[6.241245148703456,51.91805340349674],[6.241045910865068,51.91800311207771],[6.240990925580263,51.91789532080293],[6.241065775975585,51.91782717593014],[6.241185301914811,51.91771804355085],[6.241270126774907,51.91765601746738],[6.2413144670426846,51.91763028502464],[6.24140951782465,51.91751134581864],[6.241475818678737,51.91745040938258],[6.241505742073059,51.91741989925504],[6.24158252030611,51.91734119318426],[6.24158981256187,51.91732753068209],[6.241659885272384,51.91723323427141],[6.241692993789911,51.917168190702796],[6.241704560816288,51.91713432781398],[6.241727108135819,51.91704128868878],[6.241787960752845,51.9169554580003],[6.2418057303875685,51.91690315492451],[6.241818638518453,51.91686493344605],[6.2418504897505045,51.91679125651717],[6.241852920502424,51.916773319244385],[6.241879742592573,51.91665471531451],[6.2419335544109344,51.91656821407378],[6.241997089236975,51.91644709557295],[6.241997424513102,51.91643728874624],[6.242021648213267,51.91633611917496],[6.242085602134466,51.916216760873795],[6.242115190252662,51.91608265042305],[6.242173947393894,51.91597385331988],[6.24217763543129,51.915848292410374],[6.242188196629286,51.91572834737599],[6.24218693934381,51.9156104978174],[6.2421853467822075,51.915529780089855],[6.242202529683709,51.91544118337333],[6.2422064691782,51.91543020308018],[6.242223232984543,51.915315790101886],[6.2422301061451435,51.91523440182209],[6.242234464734793,51.915161814540625],[6.242232955992222,51.91504513844848],[6.242235554382205,51.9150370080024],[6.242237817496061,51.91491815261543],[6.242239661514759,51.914905747398734],[6.242237398400903,51.91484439186752],[6.242270590737462,51.914708437398076],[6.242320379242301,51.91458438523114],[6.2423119973391294,51.914574997499585],[6.242335131391883,51.914512384682894],[6.242374023422599,51.91444180905819],[6.24238240532577,51.914396127685905],[6.242453400045633,51.914280289784074],[6.242493968456984,51.914212983101606],[6.242444682866335,51.91416386514902],[6.242279140278697,51.91416931338608],[6.2420958280563354,51.9141648709774],[6.241973703727126,51.91416151821613],[6.2418800778687,51.914169983938336],[6.241743452847004,51.91416931338608],[6.241555195301771,51.91419814713299],[6.241431059315801,51.914204601198435],[6.241236263886094,51.914212899282575],[6.241103494539857,51.91421994008124],[6.240973072126508,51.9142375420779],[6.240932084619999,51.914243660867214],[6.240817420184612,51.91427266225219],[6.240678783506155,51.91429177299142],[6.240588007494807,51.91430057398975],[6.240497902035713,51.914300322532654],[6.240355325862765,51.9143168348819],[6.240311153233051,51.91432152874768],[6.2402071338146925,51.914314990863204],[6.2399783078581095,51.9143271446228],[6.239915192127228,51.91434063948691],[6.239865906536579,51.914347764104605],[6.239807568490505,51.91436276771128],[6.239771945402026,51.91436821594834],[6.239665914326906,51.914375675842166],[6.239636996760964,51.91437014378607],[6.239565163850784,51.91436368972063],[6.239451169967651,51.91437408328056],[6.239327369257808,51.91440777853131],[6.239163503050804,51.914424039423466],[6.238979017361999,51.91445010714233],[6.238897042348981,51.91448003053665],[6.2388361897319555,51.9144983869046],[6.238672323524952,51.91451850347221],[6.238525388762355,51.91454574465752],[6.238364623859525,51.91458195447922],[6.238217018544674,51.91461439244449],[6.238103611394763,51.914625791832805],[6.2380637135356665,51.914631156250834],[6.237906217575073,51.91466711461544],[6.237734807655215,51.91471631638706],[6.237598434090614,51.91478286869824],[6.237521152943373,51.91483994945884],[6.2374955881386995,51.914865681901574],[6.237492403015494,51.91488009877503],[6.237385114654899,51.91494958475232],[6.237274892628193,51.91502091474831],[6.237226277589798,51.91508386284113],[6.237200377508998,51.91513272933662],[6.237090490758419,51.91516290418804],[6.237007258459926,51.91517036408186],[6.2369429692626,51.91518167965114],[6.23683693818748,51.915158461779356],[6.2368235271424055,51.915152510628104],[6.23677683994174,51.915128622204065],[6.236726297065616,51.915111020207405],[6.236714059486985,51.91510842181742],[6.236685225740075,51.91510087810457],[6.236575758084655,51.91505662165582],[6.236550360918045,51.91504664719105],[6.2364553939551115,51.91498805768788],[6.236383309587836,51.91496173851192],[6.236336622387171,51.91493533551693],[6.236232938244939,51.91484933719039],[6.236181389540434,51.91481304354966],[6.236118944361806,51.91477029584348],[6.235994389280677,51.91471883095801],[6.235949881374836,51.91469837911427],[6.235829768702388,51.91463735885918],[6.235798085108399,51.9146191701293],[6.235682247206569,51.91455722786486],[6.2356731947511435,51.914550606161356],[6.235661040991545,51.91453920677304],[6.235602619126439,51.914512971416116],[6.235453421249986,51.91446519456804],[6.235444284975529,51.91446276381612],[6.235386449843645,51.91444030031562],[6.235305480659008,51.91440115682781],[6.2352873757481575,51.914394702762365],[6.235154019668698,51.9143392983824],[6.235122000798583,51.91432856954634],[6.235071709379554,51.91429822705686],[6.23494447208941,51.91422681324184],[6.234879093244672,51.91418532282114],[6.234826035797596,51.91414047963917],[6.234785551205277,51.91411692649126],[6.234698044136167,51.91408767364919],[6.234621601179242,51.91405582241714],[6.2345858104527,51.91404073499143],[6.234453376382589,51.91397577524185],[6.23439084738493,51.913940738886595],[6.234329827129841,51.913909055292606],[6.234217844903469,51.91385113634169],[6.2341744266450405,51.91382749937475],[6.234080214053392,51.913793804124],[6.23399312607944,51.91376849077642],[6.233931602910161,51.91373052075505],[6.233922969549894,51.91371442750096],[6.233790451660752,51.91364536061883],[6.2337632942944765,51.91363597288728],[6.2336560897529125,51.91358610056341],[6.233548717573285,51.913525834679604],[6.233520302921534,51.913511753082275],[6.233444027602673,51.91347378306091],[6.233278904110193,51.91340932622552],[6.233178656548262,51.91337772645056],[6.233068015426397,51.91330824047327],[6.23292351141572,51.91323598846793],[6.232913704589009,51.91323330625892],[6.232807254418731,51.913188295438886],[6.232709186151624,51.91311537288129],[6.232580775395036,51.913045132532716],[6.232561580836773,51.91303800791502],[6.232484383508563,51.913004983216524],[6.232377849519253,51.91297388635576],[6.23225899413228,51.91292024217546],[6.232178108766675,51.91287967376411],[6.232051374390721,51.91282209008932],[6.231958754360676,51.912765176966786],[6.231840653344989,51.91270004957914],[6.231747446581721,51.912639951333404],[6.2317082192748785,51.91262201406062],[6.231582323089242,51.912568621337414],[6.231459276750684,51.91252796910703],[6.231340421363711,51.91246141679585],[6.231227936223149,51.91241154447198],[6.231173202395439,51.91237164661288],[6.231129448860884,51.91234750673175],[6.231033727526665,51.912286235019565],[6.230876902118325,51.912222700193524],[6.230724938213825,51.912164529785514],[6.230606585741043,51.91210853867233],[6.2305219285190105,51.91203452646732],[6.230357559397817,51.911978954449296],[6.230207439512014,51.91190351732075],[6.230101911351085,51.911849370226264],[6.229997891932726,51.91178030334413],[6.229907954111695,51.91175691783428],[6.22977334074676,51.911672009155154],[6.229642666876316,51.91162188537419],[6.229564966633916,51.91163890063763],[6.229571336880326,51.91164745017886],[6.229554992169142,51.91163705661893],[6.229544598609209,51.91164183430374],[6.229400932788849,51.91167066805065],[6.229276210069656,51.91167091950774],[6.229127682745457,51.91168257035315],[6.228999104350805,51.91168206743896],[6.228860132396221,51.911692041903734],[6.228700624778867,51.91167410463095],[6.228516977280378,51.91168935969472],[6.228350512683392,51.911698412150145],[6.228196453303099,51.91168827004731],[6.228065108880401,51.91166354343295],[6.227913061156869,51.91165365278721],[6.227854806929827,51.91165281459689],[6.227724049240351,51.91166890785098],[6.227500922977924,51.911679888144135],[6.227384163066745,51.91165189258754],[6.227301014587283,51.91165708936751],[6.227214764803648,51.911657843738794],[6.227139411494136,51.91164879128337],[6.2270075641572475,51.911646109074354],[6.22683422639966,51.911649545654655],[6.226670444011688,51.91163554787636],[6.226556617766619,51.911628590896726],[6.226513031870127,51.91162632778287],[6.226339777931571,51.9116298481822],[6.22617993503809,51.91162674687803],[6.226139450445771,51.911623226478696],[6.226040292531252,51.91162498667836],[6.2259087804704905,51.911611994728446],[6.225837366655469,51.91159640438855],[6.2257809564471245,51.91158869303763],[6.225622370839119,51.911580730229616],[6.225494546815753,51.91156832501292],[6.2254793755710125,51.91156421788037],[6.225359346717596,51.911570839583874],[6.225229846313596,51.91156757064164],[6.225197659805417,51.911564972251654],[6.225125910714269,51.911559607833624],[6.225075954571366,51.9115555845201],[6.224922901019454,51.91154225729406],[6.224780911579728,51.911526247859],[6.224599946290255,51.911513172090054],[6.2244238425046206,51.91149246878922],[6.224355865269899,51.91147930920124],[6.224231561645865,51.91145106218755],[6.224086806178093,51.91145483404398],[6.223941966891289,51.91145240329206],[6.223757229745388,51.91142960451543],[6.223594201728702,51.91139540635049],[6.223443578928709,51.91138400696218],[6.223284909501672,51.91137520596385],[6.223232187330723,51.9113692548126],[6.22316756285727,51.91136606968939],[6.223115511238575,51.91136430948973],[6.222962038591504,51.91133673302829],[6.222794568166137,51.911326590925455],[6.222652327269316,51.911334469914436],[6.22248443774879,51.911319717764854],[6.222299449145794,51.91129591315985],[6.22210867702961,51.911294320598245],[6.222100630402565,51.91131619736552],[6.222038604319096,51.91130178049207],[6.2218825332820415,51.91128711216152],[6.221733251586556,51.91127110272646],[6.2216760870069265,51.91124486736953],[6.221552286297083,51.911233719438314],[6.221405519172549,51.91122810356319],[6.221261601895094,51.91120714880526],[6.221032189205289,51.91119700670242],[6.220849044620991,51.911187367513776],[6.220651064068079,51.911178063601255],[6.220526257529855,51.9111533369869],[6.220476971939206,51.91117588430643],[6.220478313043714,51.91118066199124],[6.220445204526186,51.91117781214416],[6.2204100005328655,51.91117144189775],[6.220334144309163,51.91119541414082],[6.220285193994641,51.911244532093406],[6.220282427966595,51.91125291399658],[6.220277985557914,51.91125635057688],[6.220274716615677,51.91125643439591],[6.220274465158582,51.911260625347495],[6.2202712800353765,51.91128979437053],[6.220276141539216,51.91131569445133],[6.220277650281787,51.91127898171544],[6.220317464321852,51.91124763339758],[6.220317212864757,51.91125241108239],[6.220266921445727,51.91126808524132],[6.220240099355578,51.91130597144365],[6.220176229253411,51.91139523871243],[6.22016491368413,51.911419965326786],[6.220158291980624,51.91149397753179],[6.220146976411343,51.911534294486046],[6.220136499032378,51.91160981543362],[6.22012878768146,51.911625573411584],[6.220118813216686,51.911633955314755],[6.220061229541898,51.91165080294013],[6.219929717481136,51.91163135692477],[6.219873307272792,51.911624651402235],[6.219840114936233,51.91161719150841],[6.219794265925884,51.91161165945232],[6.219769287854433,51.91160931251943],[6.219751602038741,51.91160470247269],[6.219709608703852,51.91159841604531],[6.21958052739501,51.91157494671643],[6.219440381973982,51.911570839583874],[6.219415906816721,51.91156622953713],[6.219393610954285,51.91156120039523],[6.21933619491756,51.91154879517853],[6.21928003616631,51.91154561005533],[6.2191215343773365,51.91154669970274],[6.2189666368067265,51.911532366648316],[6.218818025663495,51.91151166334748],[6.2186806462705135,51.911507891491055],[6.218632617965341,51.91150604747236],[6.218488365411758,51.911478973925114],[6.218318296596408,51.911430107429624],[6.218193657696247,51.911409152671695],[6.218132805079222,51.911396412178874],[6.217978075146675,51.911359867081046],[6.21782292611897,51.911317287012935],[6.217649504542351,51.91127604804933],[6.217630561441183,51.911269929260015],[6.21755856089294,51.91123003140092],[6.217524362728,51.91121586598456],[6.217405088245869,51.9111620541662],[6.217411542311311,51.91111385822296],[6.217428976669908,51.911075888201594],[6.2174816988408566,51.910998774692416],[6.2175502628088,51.91087304614484],[6.217557722702622,51.910827700048685],[6.217583455145359,51.910706078633666],[6.21763726696372,51.91057926043868],[6.217662915587425,51.910539865493774],[6.217683283612132,51.910479264333844],[6.217716056853533,51.91035990603268],[6.217745058238506,51.910233004018664],[6.217753691598773,51.91020995378494],[6.217770790681243,51.91015312448144],[6.21779459528625,51.91004022024572],[6.217850837856531,51.90990108065307],[6.21788595803082,51.90980703569949],[6.217911271378398,51.90971927717328],[6.217911187559366,51.90968004986644],[6.217942284420133,51.90959136933088],[6.217991821467876,51.90951006487012],[6.218035323545337,51.90941442735493],[6.218072371557355,51.90927939489484],[6.218118807300925,51.90919071435928],[6.218133140355349,51.909095495939255],[6.218186030164361,51.90899206325412],[6.218208828940988,51.90894872881472],[6.218225173652172,51.90890966914594],[6.21819231659174,51.90877379849553],[6.218158453702927,51.90877455286682],[6.218099193647504,51.908755945041776],[6.218040604144335,51.90873716957867],[6.217916216701269,51.908683106303215],[6.217796439304948,51.90863801166415],[6.2176857981830835,51.90861605107784],[6.217586891725659,51.908580930903554],[6.21747306548059,51.908489065244794],[6.2172929383814335,51.908396780490875],[6.217213729396462,51.90836023539305],[6.217157654464245,51.90833643078804],[6.217026310041547,51.90826644189656],[6.2169976439327,51.90825244411826],[6.216911897063255,51.90820198506117],[6.216802764683962,51.9081193394959],[6.216638144105673,51.908053541556],[6.21659061871469,51.908036693930626],[6.216476624831557,51.90798556432128],[6.216343604028225,51.90793166868389],[6.216205218806863,51.90788087435067],[6.216170350089669,51.90786687657237],[6.216131374239922,51.90784734673798],[6.2161237467080355,51.907841227948666],[6.216068342328072,51.90779261291027],[6.216069683432579,51.90778884105384],[6.216074964031577,51.907786494120955],[6.216116286814213,51.90779789350927],[6.2160830944776535,51.907826559618115],[6.216079825535417,51.90782429650426],[6.216074880212545,51.9078220333904],[6.216052500531077,51.90779353491962],[6.216086279600859,51.90779462456703],[6.216086111962795,51.9077911041677],[6.216076640412211,51.90778490155935],[6.2159867864102125,51.90772706642747],[6.215878492221236,51.90767484717071],[6.215744968503714,51.90763855352998],[6.215734658762813,51.90763436257839],[6.215649247169495,51.90757661126554],[6.215636841952801,51.90756873227656],[6.215567272156477,51.90753227099776],[6.21553173288703,51.9075183570385],[6.215475741773844,51.90752447582781],[6.215496696531773,51.90753947943449],[6.215467611327767,51.9075405690819],[6.215419499203563,51.9075268227607],[6.215340290218592,51.90748734399676],[6.215322269126773,51.90748097375035],[6.215165192261338,51.907436633482575],[6.214983724057674,51.90739908255637],[6.214867131784558,51.90737712197006],[6.214730003848672,51.90734015777707],[6.214531939476728,51.90729824826121],[6.214421549811959,51.907263211905956],[6.214407719671726,51.90725759603083],[6.214365307241678,51.90724418498576],[6.214272854849696,51.907228929921985],[6.214239913970232,51.907251393422484],[6.214206302538514,51.90721828490496],[6.214131368324161,51.90719992853701],[6.214077891781926,51.90719146281481],[6.213939925655723,51.90717302262783],[6.213877480477095,51.90716380253434],[6.2137293722480536,51.9071367289871],[6.21359140612185,51.90710152499378],[6.21343407779932,51.9070693384856],[6.2132503464818,51.90702508203685],[6.21306418441236,51.906982669606805],[6.212896630167961,51.906944531947374],[6.212747264653444,51.90690035931766],[6.212526066228747,51.906872196123004],[6.212471583858132,51.90685979090631],[6.212377790361643,51.90684235654771],[6.212271675467491,51.90683674067259],[6.212234711274505,51.90683196298778],[6.212062798440456,51.9067910593003],[6.2119122594594955,51.906777396798134],[6.21190220117569,51.90677706152201],[6.211699694395065,51.906778486445546],[6.2116610538214445,51.90677287057042],[6.21162811294198,51.906744204461575],[6.211613193154335,51.90671168267727],[6.211609253659844,51.90671646036208],[6.21157924644649,51.906728614121675],[6.211513448506594,51.90676054917276],[6.211477322503924,51.90677085891366],[6.21136374771595,51.90677220001817],[6.211351761594415,51.90677328966558],[6.211236426606774,51.90677764825523],[6.211239108815789,51.90677924081683],[6.211244976148009,51.90677521750331],[6.211269702762365,51.90681226551533],[6.211276492103934,51.90678888000548],[6.211254531517625,51.90676683560014],[6.211126036942005,51.906666588038206],[6.2111008912324905,51.906659631058574],[6.211122600361705,51.906666085124016],[6.211170293390751,51.90668720752001],[6.211198456585407,51.90670162439346],[6.211281940340996,51.90672283060849],[6.211297195404768,51.90672333352268],[6.2112567108124495,51.906731463968754],[6.2112505082041025,51.906781336292624],[6.211281018331647,51.906723668798804],[6.211241791024804,51.90672886557877],[6.21123475022614,51.90673892386258],[6.211198456585407,51.906746216118336],[6.2110119592398405,51.906769601628184],[6.210836777463555,51.906764321029186],[6.2107177544385195,51.90675116144121],[6.21063619852066,51.906755939126015],[6.210540561005473,51.90677370876074],[6.210460597649217,51.90678209066391],[6.210389602929354,51.90678561106324],[6.210326319560409,51.9067878741771],[6.210265215486288,51.90679726190865],[6.21015977114439,51.90681419335306],[6.21010260656476,51.90682500600815],[6.210015434771776,51.90684545785189],[6.209969585761428,51.90685400739312],[6.20990177616477,51.90686180256307],[6.209883000701666,51.9068637304008],[6.209807312116027,51.90687697380781],[6.209717625752091,51.90689507871866],[6.209665155038238,51.9069052208215],[6.209553927183151,51.90693313255906],[6.209518890827894,51.906940173357725],[6.209425600245595,51.90695081837475],[6.20931931771338,51.90695785917342],[6.209209095686674,51.90694419667125],[6.209171209484339,51.90694101154804],[6.209157379344106,51.906930450350046],[6.209138771519065,51.906929863616824],[6.209034081548452,51.906925002112985],[6.208996782079339,51.90693363547325],[6.208859737962484,51.90695375204086],[6.208777008578181,51.90695718862116],[6.208748007193208,51.90696146339178],[6.208609621971846,51.90698375925422],[6.208457322791219,51.906987614929676],[6.208403594791889,51.90698442980647],[6.208361266180873,51.906984178349376],[6.208213912323117,51.90704117529094],[6.208121040835977,51.907070176675916],[6.2080571707338095,51.907062381505966],[6.207947283983231,51.90701711922884],[6.207899255678058,51.906994404271245],[6.207861201837659,51.90696531906724],[6.207772353664041,51.90688015893102],[6.207742178812623,51.906843110919],[6.20768585242331,51.90679390914738],[6.207650983706117,51.906767254695296],[6.207598429173231,51.90674495883286],[6.2074631452560425,51.90666776150465],[6.207439508289099,51.9066512491554],[6.207337416708469,51.906598191708326],[6.207206826657057,51.90653105266392],[6.207212610170245,51.90644438378513],[6.207212693989277,51.90642837435007],[6.207232475280762,51.90635754726827],[6.207240270450711,51.90629216842353],[6.207218896597624,51.90628185868263],[6.2071966007351875,51.90626056864858],[6.207175645977259,51.9062439724803],[6.207143710926175,51.906212540343404],[6.2070784997195005,51.90615319646895],[6.207044133916497,51.906127631664276],[6.207016222178936,51.906106509268284],[6.206995435059071,51.906089494004846],[6.206950675696135,51.90605169162154],[6.206903737038374,51.906018080189824],[6.206850595772266,51.90598354674876],[6.206795526668429,51.905959993600845],[6.206785384565592,51.905952701345086],[6.206721933558583,51.905884305015206],[6.206692429259419,51.905853878706694],[6.206626379862428,51.905773328617215],[6.206611879169941,51.90576327033341],[6.20651314035058,51.90571021288633],[6.206497382372618,51.905702417716384],[6.206440050154924,51.90566394478083],[6.206418173387647,51.90564550459385],[6.206314153969288,51.90556235611439],[6.20626931078732,51.90553084015846],[6.20622823946178,51.90550058148801],[6.206136625260115,51.90542480908334],[6.20606018230319,51.905369656160474],[6.20602497830987,51.90534853376448],[6.20594727806747,51.90526379272342],[6.205932945013046,51.90525180660188],[6.205883743241429,51.90520629286766],[6.205820878967643,51.90515985712409],[6.205810317769647,51.905148876830935],[6.205778634175658,51.90508056432009],[6.205785591155291,51.90500437282026],[6.205771341919899,51.90499280579388],[6.2057629600167274,51.904942179098725],[6.2057417538017035,51.90485458821058],[6.205716021358967,51.904756436124444],[6.205699844285846,51.904737493023276],[6.205675788223743,51.904728105291724],[6.2056878581643105,51.90472844056785],[6.205697664991021,51.90470899455249],[6.205693809315562,51.904674461111426],[6.20569515042007,51.90459064207971],[6.205663215368986,51.90454646945],[6.205634716898203,51.90450749360025],[6.205631950870156,51.904499530792236],[6.205549221485853,51.90440204925835],[6.205545198172331,51.90439509227872],[6.205509575083852,51.90434538759291],[6.205406812950969,51.90428554080427],[6.2053662445396185,51.90424555912614],[6.205329699441791,51.904195519164205],[6.205292148515582,51.904160398989916],[6.205210760235786,51.90410356968641],[6.205185865983367,51.90408789552748],[6.205133562907577,51.90403148531914],[6.205069189891219,51.90393484197557],[6.204977240413427,51.90385211259127],[6.204834412783384,51.90374608151615],[6.204727292060852,51.903670309111476],[6.204718993976712,51.90365966409445],[6.20465244166553,51.90359864383936],[6.204626457765698,51.903590681031346],[6.2045693770051,51.90352865494788],[6.204543896019459,51.90350929275155],[6.204520342871547,51.90349060110748],[6.2044550478458405,51.9033944606781],[6.204384891316295,51.90334215760231],[6.204379443079233,51.90334349870682],[6.204375168308616,51.90334785729647],[6.2043646071106195,51.9033476896584],[6.204314734786749,51.903279880061746],[6.2042647786438465,51.90326462499797],[6.204216331243515,51.903257416561246],[6.204165872186422,51.903259847313166],[6.204109042882919,51.903256913647056],[6.204040478914976,51.90325012430549],[6.204020278528333,51.90325414761901],[6.203981637954712,51.90326143987477],[6.203973758965731,51.90326303243637],[6.20394635014236,51.90326772630215],[6.203929670155048,51.90327820368111],[6.203879378736019,51.9033133238554],[6.2038633693009615,51.90333612263203],[6.2038536462932825,51.903349701315165],[6.203845767304301,51.90336747094989],[6.203863034024835,51.90339638851583],[6.203860687091947,51.90342145040631],[6.203842917457223,51.903421115130186],[6.203796062618494,51.90343695692718],[6.203774521127343,51.90344718284905],[6.20371425524354,51.903474340215325],[6.20363068766892,51.90348448231816],[6.203598417341709,51.9034930318594],[6.20352759025991,51.90351557917893],[6.203505378216505,51.903523625805974],[6.20342206209898,51.90353577956557],[6.203404627740383,51.9035377074033],[6.203314941376448,51.90354441292584],[6.2032899633049965,51.90354231745005],[6.203241432085633,51.903529576957226],[6.203179322183132,51.90350552089512],[6.203074045479298,51.90348624251783],[6.2030634842813015,51.903483141213655],[6.203064825385809,51.90348221920431],[6.202978743240237,51.903432263061404],[6.202908335253596,51.903382893651724],[6.202900456264615,51.90337585285306],[6.202788893133402,51.903273006901145],[6.202654531225562,51.90316077321768],[6.202560905367136,51.90307142212987],[6.202464429661632,51.90301526337862],[6.202429058030248,51.902987184002995],[6.2023301515728235,51.90293773077428],[6.202225042507052,51.9028902053833],[6.20211842469871,51.902840081602335],[6.201998228207231,51.90279305912554],[6.201860010623932,51.90274159424007],[6.201712740585208,51.90266791731119],[6.201605536043644,51.90259742550552],[6.201482322067022,51.902529783546925],[6.201366484165192,51.90250162035227],[6.201259195804596,51.90251938998699],[6.20120957493782,51.9025294482708],[6.20113137178123,51.902545960620046],[6.201116535812616,51.902557108551264],[6.201046966016293,51.902591306716204],[6.2009188905358315,51.90260337665677],[6.200903048738837,51.902584098279476],[6.200858959928155,51.90254654735327],[6.200710264965892,51.90251394174993],[6.200534161180258,51.90248661674559],[6.200385130941868,51.90245250239968],[6.200228640809655,51.902442360296845],[6.200160831212997,51.90244294703007],[6.200078520923853,51.902436995878816],[6.199936531484127,51.902443785220385],[6.199881210923195,51.90244127064943],[6.199723798781633,51.902446802705526],[6.199572002515197,51.90244956873357],[6.199550628662109,51.90245962701738],[6.199545180425048,51.90245560370386],[6.199532356113195,51.90245443023741],[6.19943143799901,51.90245426259935],[6.1992973275482655,51.90249499864876],[6.199284503236413,51.9025001116097],[6.199157601222396,51.90255367197096],[6.19902977719903,51.90261301584542],[6.199021730571985,51.90261653624475],[6.198856104165316,51.9026711024344],[6.198845375329256,51.9026761315763],[6.198766082525253,51.90270873717964],[6.198730627074838,51.90272248350084],[6.1986196506768465,51.90277528949082],[6.1985451355576515,51.902800435200334],[6.198500627651811,51.90281460061669],[6.198360985144973,51.90285441465676],[6.198363248258829,51.90293454565108],[6.198322931304574,51.90297964029014],[6.198259145021439,51.902984753251076],[6.198186054825783,51.90300344489515],[6.198023026809096,51.9030405767262],[6.197994276881218,51.90304795280099]]}}