{"type":"Feature","properties":{"name":"swamp&bridges","date":"2026-06-08","distance":"5.74 km","ascent":"77 m"},"geometry":{"type":"LineString","coordinates":[[5.2269751857966185,51.69162358157337],[5.226988848298788,51.6915940772742],[5.226937299594283,51.691613188013434],[5.2269637025892735,51.69160271063447],[5.2267860900610685,51.691579995676875],[5.2265601977705956,51.69162467122078],[5.226589618250728,51.691607823595405],[5.226662624627352,51.691561974585056],[5.226746695116162,51.691510090604424],[5.226784581318498,51.6914939135313],[5.226889355108142,51.691452506929636],[5.227068560197949,51.6914008744061],[5.227264780551195,51.69136382639408],[5.2274116314947605,51.691346978768706],[5.22752596065402,51.69133826158941],[5.227667447179556,51.69132459908724],[5.2278192434459925,51.69133155606687],[5.227849837392569,51.69131730683148],[5.22784011438489,51.691298028454185],[5.227809604257345,51.691247234120965],[5.227738944813609,51.69121873565018],[5.22770281881094,51.691205743700266],[5.227535767480731,51.69116676785052],[5.2273940294981,51.69112888164818],[5.22725380025804,51.69109342619777],[5.227204682305455,51.69108001515269],[5.2271227072924376,51.69105193577707],[5.227047940716147,51.691027292981744],[5.22688533179462,51.69098177924752],[5.226761279627681,51.690933499485254],[5.226721465587616,51.6909103654325],[5.226655835285783,51.69086636044085],[5.2265493012964725,51.69079930521548],[5.226516276597977,51.690774662420154],[5.226447461172938,51.69072696939111],[5.226382417604327,51.6906651109457],[5.226307567209005,51.69055606238544],[5.2263004425913095,51.690547512844205],[5.226274374872446,51.6905078664422],[5.2262303698807955,51.69046184979379],[5.226191226392984,51.69039085507393],[5.226187203079462,51.690382892265916],[5.226170690730214,51.690305108204484],[5.226171612739563,51.69027258642018],[5.226176641881466,51.690256744623184],[5.226244367659092,51.69023226946592],[5.22637328132987,51.69020913541317],[5.226487023755908,51.69015306048095],[5.226533459499478,51.69016026891768],[5.226571680977941,51.69016328640282],[5.226582409814,51.690163454040885],[5.226614344865084,51.69016814790666],[5.226631360128522,51.690179631114006],[5.226655667647719,51.69019949622452],[5.226806541904807,51.69021458365023],[5.2268576715141535,51.69019253924489],[5.226971162483096,51.69017971493304],[5.227010641247034,51.69017409905791],[5.227108206599951,51.690155575051904],[5.227281711995602,51.6901418287307],[5.227374080568552,51.6901367995888],[5.2274237014353275,51.690132189542055],[5.227546747773886,51.69011668302119],[5.227647079154849,51.690108720213175],[5.227730479091406,51.69009757228196],[5.227864757180214,51.69008365832269],[5.227919742465019,51.69007804244757],[5.228089727461338,51.6900575067848],[5.228172205388546,51.69004501774907],[5.22819927893579,51.69004300609231],[5.228250743821263,51.69003370217979],[5.228416621685028,51.69000629335642],[5.228558192029595,51.68999120593071],[5.2285755425691605,51.68998936191201],[5.228655841201544,51.689976789057255],[5.228764805942774,51.689958265051246],[5.228889109566808,51.68994560837746],[5.228904448449612,51.68994485400617],[5.229061357676983,51.68991836719215],[5.229218685999513,51.68989003635943],[5.229367967694998,51.68986715376377],[5.229504844173789,51.68985826894641],[5.229559410363436,51.689851731061935],[5.2297023218125105,51.689836056903005],[5.229830229654908,51.68981962837279],[5.229985881596804,51.68980806134641],[5.230108257383108,51.68979532085359],[5.230238260701299,51.68976992368698],[5.23040983825922,51.68974092230201],[5.230603879317641,51.68972474522889],[5.230757771059871,51.689688032492995],[5.230875872075558,51.68968342244625],[5.23103236220777,51.68964964337647],[5.231162952259183,51.6896394174546],[5.2312022633850574,51.689638160169125],[5.231305528432131,51.68962181545794],[5.231445170938969,51.689602956175804],[5.231592105701566,51.68958283960819],[5.231763515621424,51.689559035003185],[5.231914222240448,51.689529279246926],[5.232102982699871,51.689515030011535],[5.232291240245104,51.6895048879087],[5.232456447556615,51.689485274255276],[5.232664067298174,51.689456356689334],[5.23283489048481,51.68942643329501],[5.23302742280066,51.68939206749201],[5.233136303722858,51.689374381676316],[5.233151642605662,51.68937312439084],[5.233297487720847,51.689351415261626],[5.233418019488454,51.689338590949774],[5.233456743881106,51.68933347798884],[5.233597392216325,51.68931889347732],[5.233755558729172,51.689307326450944],[5.233899895101786,51.68929165229201],[5.234084716066718,51.6892699431628],[5.2341387793421745,51.68926038779318],[5.2342471573501825,51.68924613855779],[5.234434995800257,51.68922258540988],[5.234517138451338,51.68920841999352],[5.234561897814274,51.689197439700365],[5.2347442880272865,51.68916801922023],[5.234932377934456,51.689140778034925],[5.235116612166166,51.68913306668401],[5.235288860276341,51.68910129927099],[5.23543244227767,51.68908663094044],[5.2356042712926865,51.68906148523092],[5.23577643558383,51.68903793208301],[5.23589956574142,51.68902552686632],[5.2360642701387405,51.688994178548455],[5.236127385869622,51.688989317044616],[5.236229812726378,51.68898671865463],[5.2364179864525795,51.688946317881346],[5.236573722213507,51.68892838060856],[5.236727027222514,51.68890289962292],[5.236886283382773,51.68890147469938],[5.236915284767747,51.68889527209103],[5.237051993608475,51.68886627070606],[5.237195072695613,51.68883265927434],[5.237411158159375,51.688815811648965],[5.237601008266211,51.688803657889366],[5.237672254443169,51.68878714554012],[5.237786835059524,51.6887569706887],[5.2379444148391485,51.68874716386199],[5.238083638250828,51.68873677030206],[5.238241804763675,51.688719587400556],[5.238324869424105,51.68871866539121],[5.238378681242466,51.68871531262994],[5.23856844753027,51.688670553267],[5.238725692033768,51.68863736093044],[5.238871956244111,51.68862017802894],[5.239056441932917,51.68860701844096],[5.239288536831737,51.68858556076884],[5.239469250664115,51.68856142088771],[5.239657759666443,51.688528480008245],[5.23986185900867,51.68850727379322],[5.240033688023686,51.68846226297319],[5.240075262263417,51.688459580764174],[5.240201493725181,51.68845362961292],[5.240385141223669,51.68841448612511],[5.240517323836684,51.688401494175196],[5.240558814257383,51.68839839287102],[5.240710861980915,51.68837475590408],[5.240866681560874,51.68835220858455],[5.241039684042335,51.68832899071276],[5.241234479472041,51.688321363180876],[5.241419551894069,51.68828791938722],[5.241580065339804,51.688282052055],[5.24172892794013,51.688254810869694],[5.241933781653643,51.68821893632412],[5.242044674232602,51.68820636346936],[5.242218598723412,51.688187923282385],[5.242403000593185,51.68815950863063],[5.242573907598853,51.6881369613111],[5.24278094060719,51.68810888193548],[5.242916392162442,51.68808608315885],[5.243010688573122,51.68807677924633],[5.243083359673619,51.688063787296414],[5.24320556782186,51.688046185299754],[5.243387538939714,51.68802053667605],[5.2435465436428785,51.68800704181194],[5.243733543902636,51.68799220584333],[5.243913754820824,51.687957337126136],[5.24409438483417,51.687940657138824],[5.244218101724982,51.68792758136988],[5.244368305429816,51.687902100384235],[5.244482886046171,51.68788366019726],[5.244658570736647,51.6878694947809],[5.244831824675202,51.68784451670945],[5.244975574314594,51.68783445842564],[5.245117396116257,51.687801852822304],[5.2451536897569895,51.687800427898765],[5.2452546916902065,51.68778567574918],[5.2453595492988825,51.687769666314125],[5.245391400530934,51.68776254169643],[5.245448565110564,51.68775340542197],[5.245546214282513,51.68773965910077],[5.245691305026412,51.68771241791546],[5.245833043009043,51.68770487420261],[5.24599120952189,51.687678722664714],[5.246105035766959,51.68765810318291],[5.2462575025856495,51.68763790279627],[5.246432349085808,51.6876327060163],[5.246506277471781,51.68760814704001],[5.246573416516185,51.68759850785136],[5.246648183092475,51.6875912155956],[5.246697049587965,51.68758568353951],[5.246831327676773,51.68757461942732],[5.24696703068912,51.68754511512816],[5.247139614075422,51.68753296136856],[5.247308760881424,51.68750655837357],[5.247456198558211,51.687484849244356],[5.247619142755866,51.68746498413384],[5.2478384133428335,51.68743380345404],[5.247985264286399,51.68741025030613],[5.248164301738143,51.68739792890847],[5.2483096439391375,51.68737454339862],[5.248456997796893,51.687349900603294],[5.24862639605999,51.687330454587936],[5.248839044943452,51.68730958364904],[5.24900995194912,51.68727748095989],[5.24924011901021,51.68724328279495],[5.24931781925261,51.68724110350013],[5.249495515599847,51.68721386231482],[5.249697603285313,51.68720078654587],[5.2497960068285465,51.687183268368244],[5.249817967414856,51.6871786583215],[5.249964063987136,51.68715820647776],[5.250090966001153,51.687146723270416],[5.250197248533368,51.68713415041566],[5.250218538567424,51.687132976949215],[5.250370167195797,51.687112525105476],[5.250536212697625,51.68708779849112],[5.25067082606256,51.68706525117159],[5.250790184363723,51.68706189841032],[5.250938963145018,51.687041614204645],[5.251099476590753,51.687011858448386],[5.251259487122297,51.68699241243303],[5.251425784081221,51.6869767382741],[5.251577580347657,51.68694564141333],[5.25175753980875,51.686936086043715],[5.251796850934625,51.68693206273019],[5.251973457634449,51.68688789010048],[5.252118548378348,51.68687095865607],[5.252280151471496,51.686869617551565],[5.2524468675255775,51.686847070232034],[5.252478718757629,51.686835419386625],[5.252523645758629,51.68682678602636],[5.252595143392682,51.68678244575858],[5.252614254131913,51.68678957037628],[5.25262339040637,51.68679317459464],[5.252727158367634,51.686807340011],[5.2528509590774775,51.68677364476025],[5.253003593534231,51.68675403110683],[5.253199227154255,51.68673760257661],[5.253344401717186,51.68672234751284],[5.253537269309163,51.686682030558586],[5.253722174093127,51.68665420264006],[5.253870282322168,51.68664716184139],[5.254040686413646,51.686628218740225],[5.254224333912134,51.68661514297128],[5.254386691376567,51.68659921735525],[5.254577379673719,51.68656996451318],[5.254671759903431,51.68656216934323],[5.254751052707434,51.68654825538397],[5.254902932792902,51.686481619253755],[5.254919528961182,51.686432333663106],[5.254920702427626,51.68641875497997],[5.254921372979879,51.68640023097396],[5.254917098209262,51.686357986181974],[5.254915338009596,51.68635178357363],[5.254876362159848,51.686302833259106],[5.254862532019615,51.68628456071019],[5.254789190366864,51.68623175472021],[5.254720542579889,51.68618925847113],[5.254622893407941,51.686177272349596],[5.25452901609242,51.686186576262116],[5.254397839307785,51.68618666008115],[5.254265489056706,51.68617584742606],[5.254125762730837,51.68617299757898],[5.254024425521493,51.68615682050586],[5.253907917067409,51.68610661290586],[5.253827702254057,51.6860493645072],[5.25376969948411,51.68602455407381],[5.25376190431416,51.68602153658867],[5.253727789968252,51.68596973642707],[5.253657717257738,51.685887007042766],[5.253552356734872,51.68584853410721],[5.253499047830701,51.68577033095062],[5.2534570544958115,51.68566941283643],[5.253380611538887,51.685591880232096],[5.253242142498493,51.68558517470956],[5.253167795017362,51.68555801734328],[5.253157988190651,51.68555147945881],[5.253040976822376,51.68548216111958],[5.252897562459111,51.68540018610656],[5.252760266885161,51.68537084944546],[5.252655325457454,51.685340255498886],[5.252614337950945,51.68533070012927],[5.252531440928578,51.68528971262276],[5.252472851425409,51.68526138179004],[5.252443850040436,51.68519088998437],[5.252335220575333,51.68509751558304],[5.252161044627428,51.685066083446145],[5.252030286937952,51.68509407900274],[5.251896344125271,51.68511612340808],[5.25180246680975,51.68511478230357],[5.2517653349787,51.68510891497135],[5.251694926992059,51.68504864908755],[5.251712948083878,51.68503314256668],[5.251780170947313,51.685005063191056],[5.251863403245807,51.68489961884916],[5.25193247012794,51.68484161607921],[5.2519500721246,51.684831557795405],[5.251940852031112,51.68483323417604],[5.2519450429826975,51.68483574874699],[5.251967590302229,51.68483809567988],[5.251967925578356,51.68484010733664],[5.251967757940292,51.68484253808856],[5.251973206177354,51.68485293164849],[5.251977480947971,51.68484446592629],[5.251964572817087,51.68484220281243],[5.251956190913916,51.68483415618539],[5.2519479766488075,51.68483030050993],[5.2519553527235985,51.68481655418873],[5.251960214227438,51.684809597209096],[5.251965746283531,51.684804148972034],[5.251987036317587,51.68475695885718],[5.251939678564668,51.684729382395744],[5.251916963607073,51.68472728691995],[5.251900032162666,51.6847263649106],[5.25187773630023,51.68472770601511],[5.2518516685813665,51.684728460386395],[5.251766508445144,51.684720581397414],[5.251617897301912,51.684715803712606],[5.251520164310932,51.684690322726965],[5.251504238694906,51.684688394889235],[5.251487055793405,51.684686886146665],[5.251380521804094,51.684677163138986],[5.251243896782398,51.68468311429024],[5.251033175736666,51.684658555313945],[5.251019764691591,51.68461563996971],[5.25102605111897,51.68460834771395],[5.251119593158364,51.684530479833484],[5.25117558427155,51.68445789255202],[5.251179188489914,51.68444272130728],[5.251189582049847,51.68435404077172],[5.2510385401546955,51.68429670855403],[5.250910548493266,51.684308191761374],[5.25078808888793,51.684307185932994],[5.2505699917674065,51.68426024727523],[5.250381650403142,51.68423761613667],[5.2503384836018085,51.68423920869827],[5.250281486660242,51.684238873422146],[5.250141508877277,51.68424851261079],[5.2501267567276955,51.68424675241113],[5.2500322088599205,51.68421121314168],[5.250020809471607,51.68420450761914],[5.249908240512013,51.68417198583484],[5.249758120626211,51.68412018567324],[5.249602049589157,51.684079533442855],[5.249576400965452,51.68406997807324],[5.249425023794174,51.68402404524386],[5.249337684363127,51.68400518596172],[5.2491554617881775,51.684000324457884],[5.249016992747784,51.68400392867625],[5.248909285292029,51.6839995700866],[5.248822700232267,51.68397232890129],[5.248731337487698,51.68391709215939],[5.248673083260655,51.683867471292615],[5.248632682487369,51.683838637545705],[5.248522963374853,51.683785412460566],[5.2483478654176,51.68375289067626],[5.248235045000911,51.68373428285122],[5.248206043615937,51.68372958898544],[5.248130606487393,51.68371559120715],[5.24802784435451,51.68368298560381],[5.247906558215618,51.68364627286792],[5.247756438329816,51.68361358344555],[5.247627524659038,51.68356538750231],[5.2474805898964405,51.68348693288863],[5.247314712032676,51.683442341163754],[5.247152019292116,51.683435970917344],[5.2470011450350285,51.68345390819013],[5.2469852194190025,51.68345793150365],[5.24683216586709,51.683500008657575],[5.246675340458751,51.683513168245554],[5.246589006856084,51.683458015322685],[5.2465069480240345,51.68338400311768],[5.246397731825709,51.683361204341054],[5.246390691027045,51.68336262926459],[5.246329419314861,51.68337017297745],[5.246221711859107,51.68341266922653],[5.246099503710866,51.68344032950699],[5.245942007750273,51.68347938917577],[5.2458033710718155,51.68350704945624],[5.245658615604043,51.683545522391796],[5.245627099648118,51.68355256319046],[5.245595835149288,51.68356421403587],[5.245541520416737,51.68358324095607],[5.24545568972826,51.68360536918044],[5.245389388874173,51.6836195345968],[5.245226696133614,51.68366454541683],[5.245137428864837,51.68368600308895],[5.245089819654822,51.68369715102017],[5.244937436655164,51.68373478576541],[5.244766864925623,51.683762865141034],[5.244703330099583,51.68378088623285],[5.244628395885229,51.68380720540881],[5.244592018425465,51.68382313102484],[5.244499901309609,51.68384023010731],[5.244405688717961,51.68382916599512],[5.2443744242191315,51.68382371775806],[5.244364030659199,51.68381852097809],[5.244351709261537,51.68381449766457],[5.2442890126258135,51.683805948123336],[5.244166133925319,51.683841068297625],[5.244052475318313,51.68386244215071],[5.243968153372407,51.68388389982283],[5.243860362097621,51.68390493839979],[5.243766400963068,51.683936370536685],[5.243739243596792,51.68394802138209],[5.243723653256893,51.68395321816206],[5.243591805920005,51.68398255482316],[5.243455348536372,51.68399395421147],[5.243315454572439,51.684000911191106],[5.243191150948405,51.68401725590229],[5.243054358288646,51.68404022231698],[5.2429048251360655,51.68404818512499],[5.24286056868732,51.68405539356172],[5.242797872051597,51.684064446017146],[5.242697959765792,51.68407525867224],[5.242682788521051,51.684077102690935],[5.242597963660955,51.684086406603456],[5.242544822394848,51.684087412431836],[5.242381375283003,51.68410166166723],[5.242267129942775,51.68412085622549],[5.24214182049036,51.68412772938609],[5.242013661190867,51.68413711711764],[5.2418761141598225,51.68414331972599],[5.241754241287708,51.68416771106422],[5.2416375651955605,51.68417550623417],[5.241495240479708,51.684190928936005],[5.241368925198913,51.684196209535],[5.24125543422997,51.68421431444585],[5.241140937432647,51.684226132929325],[5.240990063175559,51.68424306437373],[5.240868274122477,51.68426644988358],[5.240747909992933,51.68426435440779],[5.240620085969567,51.684285225346684],[5.240480192005634,51.68430098332465],[5.2403514459729195,51.684325709939],[5.2402004878968,51.6843275539577],[5.240095881745219,51.68434088118374],[5.239959927275777,51.684349766001105],[5.2398068737238646,51.684365859255195],[5.239714505150914,51.684378096833825],[5.239629847928882,51.684382958337665],[5.239575868472457,51.6843933518976],[5.239484338089824,51.684406930580735],[5.239344276487827,51.68441154062748],[5.23920220322907,51.68443685397506],[5.239192144945264,51.6844380274415],[5.239133890718222,51.68443366885185],[5.239024925976992,51.684443140402436],[5.23890950717032,51.68446007184684],[5.238784197717905,51.684471387416124],[5.2386915776878595,51.684479182586074],[5.238561490550637,51.68450390920043],[5.238430229946971,51.684513967484236],[5.238305171951652,51.68453576043248],[5.238254712894559,51.6845487523824],[5.238243816420436,51.68455679900944],[5.238226214423776,51.68455897830427],[5.238137785345316,51.684571132063866],[5.237966291606426,51.684583369642496],[5.237824888899922,51.68460792861879],[5.237724557518959,51.68463190086186],[5.23757460527122,51.68466065078974],[5.237461617216468,51.68467892333865],[5.237342342734337,51.68470566160977],[5.237224996089935,51.684736758470535],[5.237109828740358,51.68475704267621],[5.237005474045873,51.68477808125317],[5.2369071543216705,51.684807585552335],[5.236881338059902,51.68481286615133],[5.236723339185119,51.68485511094332],[5.236638011410832,51.684873048216105],[5.236494094133377,51.6848973557353],[5.236398037523031,51.684935074299574],[5.236313045024872,51.684956112876534],[5.236188322305679,51.6849819291383],[5.2360866498202085,51.685001626610756],[5.235981876030564,51.68503649532795],[5.235886573791504,51.68506910093129],[5.2358118910342455,51.68508988805115],[5.235736453905702,51.68512903153896],[5.235643079504371,51.685182843357325],[5.2355492021888494,51.6852498985827],[5.235572084784508,51.68532659299672],[5.235650036484003,51.685398845002055],[5.235732430592179,51.68545248918235],[5.235748356208205,51.68546313419938],[5.235843658447266,51.68554611504078],[5.235942145809531,51.68561057187617],[5.2360710594803095,51.6856883559376],[5.236172145232558,51.685757003724575],[5.236211456358433,51.68577988632023],[5.236320672556758,51.68583545833826],[5.236412873491645,51.685889940708876],[5.236510019749403,51.68596487492323],[5.236570788547397,51.68601516634226],[5.236682938411832,51.68608959764242],[5.236801123246551,51.68616863898933],[5.236910507082939,51.68622865341604],[5.237010335549712,51.68630098924041],[5.237073618918657,51.68638179078698],[5.23710111156106,51.68647600337863],[5.237065739929676,51.686572479084134],[5.236986614763737,51.686650263145566],[5.23691151291132,51.686741625890136],[5.236854599788785,51.68682670220733],[5.236793830990791,51.68690373189747],[5.236695511266589,51.686981935054064],[5.236634658649564,51.68706030584872],[5.236557461321354,51.68716298416257],[5.236499374732375,51.68722459115088],[5.2364471554756165,51.68729164637625],[5.2363676112145185,51.68737420812249],[5.236316230148077,51.687458865344524],[5.236253868788481,51.68751183897257],[5.236196704208851,51.687576128169894],[5.236122105270624,51.687644105404615],[5.236055050045252,51.6877521481365],[5.235975505784154,51.68782708235085],[5.235886489972472,51.68791500851512],[5.235812896862626,51.6880074609071],[5.235770400613546,51.68806018307805],[5.235688593238592,51.68814416974783],[5.235678115859628,51.688160598278046],[5.235626231878996,51.68822052888572],[5.235561607405543,51.6882838960737],[5.235518021509051,51.688348688185215],[5.235443087294698,51.68840409256518],[5.235403021797538,51.688470812514424],[5.235393214970827,51.688484475016594],[5.235334457829595,51.688552452251315],[5.235311072319746,51.688580280169845],[5.235278718173504,51.688626296818256],[5.235235886648297,51.6886774264276],[5.235209064558148,51.68870626017451],[5.2351851761341095,51.68874909169972],[5.235177297145128,51.68878563679755],[5.235179308801889,51.688797203823924],[5.235199760645628,51.68888445943594],[5.235222056508064,51.68894112110138],[5.23523161187768,51.68897205032408],[5.235233874991536,51.68898898176849],[5.235228845849633,51.68900188989937],[5.235230689868331,51.68901580385864],[5.235238736495376,51.68906374834478],[5.2352409157902,51.68907615356147],[5.2351948991417885,51.68909744359553],[5.235158940777183,51.689105993136764],[5.235027344897389,51.68912434950471],[5.234992476180196,51.689124181866646],[5.234818132594228,51.68915024958551],[5.234712017700076,51.689173467457294],[5.2346697729080915,51.68918067589402],[5.2346518356353045,51.68918260373175],[5.2345028053969145,51.68917749077082],[5.23439509794116,51.689200373366475],[5.234358133748174,51.68920691125095],[5.234232572838664,51.689240941777825],[5.234193177893758,51.68924890458584],[5.234059151262045,51.68924949131906],[5.233875755220652,51.68926022015512],[5.233725132420659,51.689294669777155],[5.233580209314823,51.689302045851946],[5.23344811052084,51.68931780382991],[5.2332941349595785,51.68934730812907],[5.23317695595324,51.68937069363892],[5.233052987605333,51.6893872898072],[5.232934048399329,51.689404137432575],[5.232836147770286,51.68942836113274],[5.232688542455435,51.6894372459501],[5.232566669583321,51.68946675024927],[5.232535656541586,51.68946926482022],[5.23233700543642,51.68947462923825],[5.232227118685842,51.689505223184824],[5.2320566307753325,51.689516454935074],[5.231926627457142,51.68954260647297],[5.231818333268166,51.689558532088995],[5.231782039627433,51.68955937027931],[5.231746835634112,51.689561884850264],[5.231658238917589,51.689568338915706],[5.23162018507719,51.68956867419183],[5.231589758768678,51.689570769667625],[5.231460928916931,51.68959256261587],[5.231311982497573,51.689614187926054],[5.231119114905596,51.689637741073966],[5.2309448551386595,51.689650900661945],[5.230785766616464,51.68968350626528],[5.230624750256538,51.68968912214041],[5.230468511581421,51.68973212130368],[5.2303452137857676,51.689767660573125],[5.230182018131018,51.68978115543723],[5.230010021477938,51.68980076909065],[5.229886556044221,51.689808648079634],[5.229715816676617,51.68983086012304],[5.2296198438853025,51.68985743075609],[5.229588076472282,51.68985776603222],[5.229445248842239,51.68986170552671],[5.229225642979145,51.68989900499582],[5.22919362410903,51.68990629725158],[5.229039145633578,51.689927922561765],[5.228893216699362,51.6899589356035],[5.228753658011556,51.689965138211846],[5.228559700772166,51.689971843734384],[5.228389464318752,51.689990535378456],[5.228237835690379,51.69001517817378],[5.228075729683042,51.690036384388804],[5.227971877902746,51.69004996307194],[5.227930219843984,51.69005214236677],[5.227888310328126,51.69005574658513],[5.2278033178299665,51.69006354175508],[5.227693682536483,51.69007427059114],[5.227536354213953,51.69010151177645],[5.227360334247351,51.690121879801154],[5.227196384221315,51.69016228057444],[5.227076271548867,51.690175607800484],[5.226920200511813,51.690189773216844],[5.226861443370581,51.69018667191267],[5.226841913536191,51.69020184315741],[5.226802853867412,51.69021751731634],[5.226722974330187,51.69024425558746],[5.226696152240038,51.69024769216776],[5.226632701233029,51.690195724368095],[5.226622391492128,51.690186839550734],[5.226551564410329,51.69015456922352],[5.226543769240379,51.690153731033206],[5.226515186950564,51.69016311876476],[5.2264822460711,51.69016211293638],[5.2263749577105045,51.69018382206559],[5.226301699876785,51.69018968939781],[5.226211091503501,51.690199580043554],[5.2261867839843035,51.6902023460716],[5.226134983822703,51.69023000635207],[5.226145125925541,51.69023780152202],[5.226163566112518,51.69031525030732],[5.226176138967276,51.69037375599146],[5.226192399859428,51.69041432440281],[5.2262120973318815,51.69045849703252],[5.226269764825702,51.690559750422835],[5.226327599957585,51.69062588363886],[5.226360289379954,51.6906529571861],[5.226415107026696,51.69070350006223],[5.226503536105156,51.69079251587391],[5.226538656279445,51.69082344509661],[5.226612417027354,51.69086602516472],[5.226705288514495,51.69092444702983],[5.2268086373806,51.69097222387791],[5.226911818608642,51.69101547449827],[5.226999074220657,51.69104757718742],[5.22711499594152,51.69108906760812],[5.227225720882416,51.69111790135503],[5.227324711158872,51.691136844456196],[5.227454295381904,51.69116676785052],[5.227531911805272,51.69117573648691],[5.227617993950844,51.691207587718964],[5.227742549031973,51.691242875531316],[5.227818824350834,51.691303895786405],[5.22781572304666,51.69133675284684],[5.2277865540236235,51.69134488329291],[5.227777753025293,51.69134806841612],[5.22768915630877,51.69133993797004],[5.227542221546173,51.691325856372714],[5.2273061871528625,51.69135728850961],[5.227183559909463,51.69136215001345],[5.227113151922822,51.69136877171695],[5.227036289870739,51.69138628989458],[5.226917350664735,51.6914352402091],[5.226778462529182,51.691497853025794],[5.226707551628351,51.69152291491628],[5.226696319878101,51.6915285307914],[5.226685758680105,51.69153272174299],[5.226650387048721,51.69154713861644],[5.226600179448724,51.69156750664115],[5.226528430357575,51.69161243364215],[5.22646757774055,51.69166004285216],[5.2264288533478975,51.69168954715133],[5.226416615769267,51.69169700704515],[5.226315949112177,51.69176883995533],[5.226242523640394,51.69183044694364],[5.2262291964143515,51.69185056351125],[5.226213689893484,51.69187403284013],[5.2261976804584265,51.6918964125216],[5.226149903610349,51.691959612071514],[5.226067258045077,51.69205281883478],[5.225978912785649,51.692151725292206],[5.225955527275801,51.6921884380281],[5.225914875045419,51.692262617871165],[5.225843042135239,51.69237677939236],[5.225766431540251,51.69245162978768],[5.225685881450772,51.692567970603704],[5.225678086280823,51.692579286172986],[5.225636847317219,51.6926615126431],[5.2256013080477715,51.6927304957062],[5.225560488179326,51.692780032753944],[5.225546658039093,51.692820684984326],[5.2255485858768225,51.69283267110586],[5.2255762461572886,51.69293970800936],[5.225613042712212,51.693021934479475],[5.225669201463461,51.693074740469456],[5.2256834506988525,51.693085385486484],[5.225754696875811,51.69313550926745],[5.225767269730568,51.69314531609416],[5.2257712092250586,51.69317649677396],[5.225761653855443,51.693184543401],[5.225753774866462,51.693192506209016],[5.225653108209372,51.693236008286476],[5.225552273914218,51.69325780123472],[5.225412463769317,51.69330792501569],[5.225356053560972,51.693319324404],[5.225261673331261,51.69332426972687],[5.225101998075843,51.69333692640066],[5.224939808249474,51.693353271111846],[5.224794968962669,51.69337556697428],[5.22468751296401,51.693398198112845],[5.224585924297571,51.693478245288134],[5.224607549607754,51.693561393767595],[5.224617691710591,51.69364923611283],[5.224617775529623,51.69365887530148],[5.224635545164347,51.693748058751225],[5.2246679831296206,51.693837996572256],[5.224710060283542,51.69387588277459],[5.22470997646451,51.693874038755894]]}}